theater_id,name,name_key,place_type,operator,opening_hours,wheelchair,screen,website,phone,email,addr_full,addr_street,addr_housenumber,addr_postcode,addr_city,addr_country,theatre_tags,theatre_category,district_id,district,neighborhood_id,longitude,latitude,last_updated
thb_1fed95705f16,Filmrauschpalast,filmrauschpalast,cinema,Filmrausch Moabit e.V.,<NA>,no,1.0,https://www.filmrausch.de/,+49303844344,info@filmrausch.de,Lehrter Straße 35 10557 Berlin,Lehrter Straße,35,10557,Berlin,DE,,,11001001,Mitte,0102,13.3596231,52.534378399999994,2025-10-12T23:39:15+02:00
thb_957cf1213125,Friedrichstadt-Palast,friedrichstadt-palast,theatre,<NA>,<NA>,yes,,https://www.palast.berlin/,+493023262326,,Friedrichstraße 107 10117 Berlin,Friedrichstraße,107,10117,Berlin,DE,,,11001001,Mitte,0101,13.3888786,52.5239216,2025-10-12T23:39:15+02:00
thb_e0da8d4b4612,Quatsch Comedy Club,quatsch-comedy-club,theatre,<NA>,<NA>,limited,,https://www.quatsch-comedy-club.de/,+493027879030,,Friedrichstraße 107 10117 Berlin,Friedrichstraße,107,10117,Berlin,DE,stand_up_comedy,stand_up_comedy,11001001,Mitte,0101,13.388621099999998,52.5236239,2025-10-12T23:39:15+02:00
thb_e8aa9e1a4b1c,Kabarett-Theater Distel,kabarett--distel,theatre,Martin Maier-Bode,<NA>,yes,,http://www.distel-berlin.de/,+49302030000,distel@distel-berlin.de,Friedrichstraße 101 10117 Berlin,Friedrichstraße,101,10117,Berlin,DE,,,11001001,Mitte,0101,13.3885051,52.520666899999995,2025-10-12T23:39:15+02:00
thb_ea39794e7406,Admiralspalast,admiralspalast,theatre,<NA>,<NA>,limited,,https://www.admiralspalast.theater/,+493047997499,,Friedrichstraße 101 10117 Berlin,Friedrichstraße,101,10117,Berlin,DE,,,11001001,Mitte,0101,13.388902099999997,52.520771399999994,2025-10-12T23:39:15+02:00
thb_866953d32b36,CineStar,cinestar,cinema,<NA>,Mo-Su 13:30-23:00,yes,,,,,,,,,Berlin,DE,,,11012012,Reinickendorf,1202,13.2860048,52.583919200000004,2025-10-12T23:39:15+02:00
thb_cdb89485c37a,Die Wühlmäuse,die-wühlmäuse,theatre,<NA>,<NA>,yes,,https://www.wuehlmaeuse.de/,+493030673011,,Pommernallee 2-4 14052 Berlin,Pommernallee,2-4,14052,Berlin,DE,,,11004004,Charlottenburg-Wilmersdorf,0405,13.2707514,52.5088651,2025-10-12T23:39:15+02:00
thb_6f16930bbbbe,UCI Am Eastgate,uci-am-eastgate,cinema,<NA>,"""30min vor Vorstellungsbeginn""",yes,,https://www.uci-kinowelt.de/kinoprogramm/berlin-am-eastgate/44,+493093030260,,Märkische Allee 176-178 12681 Berlin,Märkische Allee,176-178,12681,Berlin,DE,,,11010010,Marzahn-Hellersdorf,1001,13.542027499999998,52.54175159999999,2025-10-12T23:39:15+02:00
thb_abfad32a0f03,HAU 2 (Hebbel am Ufer),hau-2-hebbel-am-ufer,theatre,<NA>,<NA>,yes,,https://www.hebbel-am-ufer.de/,+493025900427,info@hebbel-am-ufer.de,Hallesches Ufer 34 10963 Berlin,Hallesches Ufer,34,10963,Berlin,DE,,,11002002,Friedrichshain-Kreuzberg,0202,13.3858716,52.49911409999999,2025-10-12T23:39:15+02:00
thb_5e05fec5b0a5,Sophiensæle,sophiensæle,theatre,Sophiensæle GmbH,<NA>,yes,,https://www.sophiensaele.com/,+49302825266,info@sophiensaele.com,Sophienstraße 18 10178 Berlin,Sophienstraße,18,10178,Berlin,DE,,,11001001,Mitte,0101,13.401602199999997,52.52588250000001,2025-10-12T23:39:15+02:00
thb_6b364cf296b4,Kino Intimes,intimes,cinema,<NA>,"Mo-Fr 13:30-18:00+, Sa,Su 12:00-18:00+",yes,2.0,https://www.kino-zeit.de/kinoprogramm/berlin/kino-intimes-berlin,,,Boxhagener Straße 107 10245 Berlin,Boxhagener Straße,107,10245,Berlin,DE,,,11002002,Friedrichshain-Kreuzberg,0201,13.4581955,52.5129109,2025-10-12T23:39:15+02:00
thb_591e0f9555b5,Kino Babylon,babylon,cinema,<NA>,"Mo-Fr 17:00+; Sa,Su ""eine halbe Stunde vor der ersten Vorstellung""",limited,,http://www.babylonberlin.de/,+49302425969,,Rosa-Luxemburg-Straße 30 10178 Berlin,Rosa-Luxemburg-Straße,30,10178,Berlin,DE,,,11001001,Mitte,0101,13.4114358,52.52589889999999,2025-10-12T23:39:15+02:00
thb_8c499052fefa,Berliner Kriminaltheater,berliner-kriminaltheater,theatre,BKT Bühnen und Betriebs GmbH,<NA>,yes,,http://www.kriminaltheater.de/,+493047997488,info@kriminaltheater.de,Palisadenstraße 48 10243 Berlin,Palisadenstraße,48,10243,Berlin,DE,,,11002002,Friedrichshain-Kreuzberg,0201,13.4399455,52.518203699999994,2025-10-12T23:39:15+02:00
thb_deb9aa4f34a8,Cineplex,cineplex,cinema,<NA>,"Su-Th 09:30-22:30, Fr,Sa 09:30-00:30",limited,,http://www.cineplex.de/,+491805050211,,,,,,Berlin,DE,,,11005005,Spandau,0501,13.2063427,52.538500899999995,2025-10-12T23:39:15+02:00
thb_c43c79b59392,Schaubühne am Lehniner Platz,schaubühne-am-lehniner-platz,theatre,Gemeinnützige Theaterbetriebs GmbH,Mo-Sa 11:00-18:30; Su 15:00-18:30,yes,,https://www.schaubuehne.de/,+49308900234930890020,ticket@schaubuehne.de,Kurfürstendamm 153 10709 Berlin,Kurfürstendamm,153,10709,Berlin,DE,stage; drama,stage,11004004,Charlottenburg-Wilmersdorf,0402,13.3022747,52.498660599999994,2025-10-12T23:39:15+02:00
thb_fe6af5b34810,Ratibortheater,ratibortheater,theatre,Harald Klenk,<NA>,yes,,https://www.ratibortheater.de/,+49306186199,ratibortheater@t-online.de,Cuvrystraße 20a 10997 Berlin,Cuvrystraße,20a,10997,Berlin,DE,,,11002002,Friedrichshain-Kreuzberg,0202,13.442977499999998,52.49768619999999,2025-10-12T23:39:15+02:00
thb_f82a0c8dfe95,Kino Spreehöfe,spreehöfe,cinema,<NA>,"""Unterschiedlich, je nach Spielplan.""",limited,,https://www.kino-spreehoefe.de/,+49305389590,,Wilhelminenhofstraße 89 12459 Berlin,Wilhelminenhofstraße,89,12459,Berlin,DE,,,11009009,Treptow-Köpenick,0909,13.5121795,52.4620593,2025-10-12T23:39:15+02:00
thb_8de175ff7e19,Cosima,cosima,cinema,<NA>,<NA>,no,1.0,http://cosima-filmtheater.de/,,,Sieglindestraße 10 12159 Berlin,Sieglindestraße,10,12159,Berlin,DE,,,11007007,Tempelhof-Schöneberg,0702,13.330452299999997,52.4769552,2025-10-12T23:39:15+02:00
thb_961e8166ece2,Kino Toni & Tonino,toni-tonino,cinema,<NA>,Mo-Su 09:00-22:00,yes,,https://www.kino-toni.de/,+493092791200,,Antonplatz 1 13086 Berlin,Antonplatz,1,13086,Berlin,DE,,,11003003,Pankow,0302,13.4509296,52.5488199,2025-10-12T23:39:15+02:00
thb_1792d4879b29,Verlängertes Wohnzimmer,verlängertes-wohnzimmer,theatre,<NA>,<NA>,,,,,,Frankfurter Allee 91 10247 Berlin,Frankfurter Allee,91,10247,Berlin,DE,,,11002002,Friedrichshain-Kreuzberg,0201,13.4721701,52.5142329,2025-10-12T23:39:15+02:00
thb_9c750c2d3754,Deutsche Oper Berlin,deutsche-oper-berlin,theatre,Stiftung Oper in Berlin,<NA>,yes,,https://www.deutscheoperberlin.de/,+493034384343,info@deutscheoperberlin.de,Bismarckstraße 35 10627 Berlin,Bismarckstraße,35,10627,Berlin,DE,opera_house; opera,opera_house,11004004,Charlottenburg-Wilmersdorf,0401,13.308377099999998,52.51214409999998,2025-10-12T23:39:15+02:00
thb_6972d9201f65,Theater an der Parkaue,an-der-parkaue,theatre,<NA>,<NA>,yes,,http://www.parkaue.de/,+49305577520,info@parkaue.de,Parkaue 29 10367 Berlin,Parkaue,29,10367,Berlin,DE,,,11011011,Lichtenberg,1103,13.4772031,52.51699299999999,2025-10-12T23:39:15+02:00
thb_f379f99bc1d7,Cinema,cinema,cinema,Cineplex Deutschland,<NA>,limited,,https://www.cineplex.de/berlin-titania/,+49308523004,,Bundesallee 111 12161 Berlin,Bundesallee,111,12161,Berlin,DE,,,11007007,Tempelhof-Schöneberg,0702,13.328619599999998,52.46693969999999,2025-10-12T23:39:15+02:00
thb_eb62da94f2cf,Kino im Kulturhaus Spandau,im-kulturhaus-spandau,cinema,<NA>,<NA>,yes,,http://www.kinoimkulturhaus.de/,+4930333402122,,,,,,Berlin,DE,,,11005005,Spandau,0501,13.202458399999998,52.5354615,2025-10-12T23:39:15+02:00
thb_0a1c9641715b,Scheinbar Varieté,scheinbar-varieté,theatre,Scheinbar Varieté e.V.,<NA>,no,,http://www.scheinbar.de/,+49307845539,mirjam@scheinbar.de,Monumentenstraße 9 10829 Berlin,Monumentenstraße,9,10829,Berlin,DE,variety,variety,11007007,Tempelhof-Schöneberg,0701,13.366735,52.488116899999994,2025-10-12T23:39:15+02:00
thb_e72cd232c068,Kant Kino,kant,cinema,Yorck Kinogruppe,"""Öffnungszeiten: immer 30 Minuten vor der ersten Vorstellung""",limited,5.0,https://yorck.de/kinos/kant-kino,+49303199866,,Kantstraße 54 10627 Berlin,Kantstraße,54,10627,Berlin,DE,,,11004004,Charlottenburg-Wilmersdorf,0401,13.308428199999998,52.5067663,2025-10-12T23:39:15+02:00
thb_a452daa99443,CineStar,cinestar,cinema,<NA>,<NA>,yes,,,,,,,,,Berlin,DE,,,11010010,Marzahn-Hellersdorf,1005,13.604115099999998,52.53779750000001,2025-10-12T23:39:15+02:00
thb_23050689f5ec,Theater Thikwa (F40),thikwa-f40,theatre,Theater Thikwa e.V.,<NA>,yes,,https://www.thikwa.de/,+49306146467,mail@thikwa.de,Fidicinstraße 40 10965 Berlin,Fidicinstraße,40,10965,Berlin,DE,,,11002002,Friedrichshain-Kreuzberg,0202,13.3883479,52.487373799999986,2025-10-12T23:39:15+02:00
thb_ab5cf1d9dfba,Komische Oper Berlin,komische-oper-berlin,theatre,Stiftung Oper in Berlin,<NA>,yes,,https://www.komische-oper-berlin.de/,+493047997400,,Behrenstraße 55-57 10117 Berlin,Behrenstraße,55-57,10117,Berlin,DE,opera_house; opera,opera_house,11001001,Mitte,0101,13.3869856,52.515664799999996,2025-10-12T23:39:15+02:00
thb_7ae59f3c724d,Sputnik Kino,sputnik,cinema,<NA>,<NA>,limited,2.0,https://www.sputnik-kino.com/,+49306941147,,Hasenheide 54 10967 Berlin,Hasenheide,54,10967,Berlin,DE,,,11002002,Friedrichshain-Kreuzberg,0202,13.410146599999997,52.48999140000001,2025-10-12T23:39:15+02:00
thb_199e3cdddff7,Cineplex,cineplex,cinema,<NA>,"Mo-Fr 14:30-18:00+; Sa,Su 11:30-18:00+",yes,,https://www.cineplex.de/berlin-neukoelln/,,,,,,,Berlin,DE,,,11008008,Neukölln,0801,13.4316965,52.481966099999994,2025-10-12T23:39:15+02:00
thb_3b2537a13fd2,Lichtblick,lichtblick,cinema,Stattkino Berlin e.V.,<NA>,no,1.0,https://www.lichtblick-kino.org/,+493044058179,,Kastanienallee 77 10435 Berlin,Kastanienallee,77,10435,Berlin,DE,,,11003003,Pankow,0301,13.407760199999998,52.5364987,2025-10-12T23:39:15+02:00
thb_5359071622cc,Hackesche Höfe Kino,hackesche-höfe,cinema,Timebandits Medienproduktions- und Vertriebs GmbH & Co. Kinobetriebs KG,"""Täglich 30 Minuten vor Beginn der ersten Vorstellung""",no,5.0,https://www.hoefekino.de/,+49302834603,foyer@hoefekino.de,Rosenthaler Straße 40-41 10178 Berlin,Rosenthaler Straße,40-41,10178,Berlin,DE,,,11001001,Mitte,0101,13.4019071,52.524066799999986,2025-10-12T23:39:15+02:00
thb_47b251baf1dc,Kino Central,central,cinema,<NA>,<NA>,limited,2.0,http://www.kino-central.de/,+493028599973,,Rosenthaler Straße 39 10178 Berlin,Rosenthaler Straße,39,10178,Berlin,DE,,,11001001,Mitte,0101,13.4018422,52.5245664,2025-10-12T23:39:15+02:00
thb_500c97d5d7e9,Deutsches Theater,deutsches,theatre,<NA>,<NA>,limited,,https://www.deutschestheater.de/,+493028441221,service@deutschestheater.de,Schumannstraße 13a 10117 Berlin,Schumannstraße,13a,10117,Berlin,DE,,,11001001,Mitte,0101,13.381906599999999,52.5243546,2025-10-12T23:39:15+02:00
thb_8eccf9cbaa68,fsk - Kino am Oranienplatz,fsk---am-oranienplatz,cinema,fsk Kino & Peripher Filmverleih GmbH,<NA>,yes,2.0,https://fsk-kino.peripherfilm.de/,+49306142464,post@fsk-kino.de,Segitzdamm 2 10969 Berlin,Segitzdamm,2,10969,Berlin,DE,,,11002002,Friedrichshain-Kreuzberg,0202,13.414550699999998,52.5015261,2025-10-12T23:39:15+02:00
thb_a6fafa510d98,Babylon Kreuzberg,babylon-kreuzberg,cinema,Yorck Kinogruppe,<NA>,limited,2.0,https://yorck.de/kinos/babylon-kreuzberg,+493061609693,,Dresdener Straße 126 10999 Berlin,Dresdener Straße,126,10999,Berlin,DE,,,11002002,Friedrichshain-Kreuzberg,0202,13.416922899999998,52.5006568,2025-10-12T23:39:15+02:00
thb_c400c4616f4a,Xenon,xenon,cinema,Xenon Kino Wieske FTB Filmtheaterbetriebe,<NA>,yes,1.0,http://www.xenon-kino.de/,+493078001530,service@xenon-kino.de,Kolonnenstraße 5 10827 Berlin,Kolonnenstraße,5,10827,Berlin,DE,,,11007007,Tempelhof-Schöneberg,0701,13.3593976,52.4863303,2025-10-12T23:39:15+02:00
thb_7e81e3f8419d,Yorck,yorck,cinema,Yorck Kinogruppe,<NA>,no,2.0,https://yorck.de/kinos/yorck,+493078913240,,Yorckstraße 86 10965 Berlin,Yorckstraße,86,10965,Berlin,DE,,,11002002,Friedrichshain-Kreuzberg,0202,13.3853593,52.4930489,2025-10-12T23:39:15+02:00
thb_155584bd7fb8,Blauer Stern,blauer-stern,cinema,Yorck Kinogruppe,<NA>,yes,2.0,https://yorck.de/kinos/blauer-stern,,,Hermann-Hesse-Straße 11 13156 Berlin,Hermann-Hesse-Straße,11,13156,Berlin,DE,,,11003003,Pankow,0311,13.401488999999998,52.58035869999999,2025-10-12T23:39:15+02:00
thb_161f1f3b89cb,UCI Kinowelt,uci-kinowelt,cinema,<NA>,<NA>,yes,,https://www.uci-kinowelt.de/kinoinformation/berlin-gropius-passagen/43,,,Johannisthaler Chaussee 295 12351 Berlin,Johannisthaler Chaussee,295,12351,Berlin,DE,,,11008008,Neukölln,0805,13.4554457,52.429525399999996,2025-10-12T23:39:15+02:00
thb_b0ba5a7a0b14,TIK: Theater im Kino,tik-im,theatre,<NA>,<NA>,limited,,,,,Rigaer Straße Berlin,Rigaer Straße,,,Berlin,DE,,,11002002,Friedrichshain-Kreuzberg,0201,13.464371,52.51661369999999,2025-10-12T23:39:15+02:00
thb_5d539a0725ae,Cinestar Cubix am Alexanderplatz,cinestar-cubix-am-alexanderplatz,cinema,<NA>,"Mo,Tu 13:15-21:00; We-Fr 13:15-23:30; Sa 10:45-23:30; Su 10:45-21:00",yes,,http://www.cinestar.de/de/kino/berlin-cinestar-cubix-am-alexanderplatz,+4930257610,,Rathausstraße 1 10178 Berlin,Rathausstraße,1,10178,Berlin,DE,,,11001001,Mitte,0101,13.412091,52.520213899999995,2025-10-12T23:39:15+02:00
thb_a958121b846d,Brotfabrik,brotfabrik,cinema,<NA>,"Mo-Fr 18:00+, Sa,Su 16:00-18:00+; PH 16:00-18:00+",yes,,https://www.brotfabrik-berlin.de/,+49304714002,joerg.fuegmann@brotfabrik-berlin.de,1 13086 Berlin,Caligariplatz,1,13086,Berlin,DE,,,11003003,Pankow,0302,13.4305846,52.552559599999995,2025-10-12T23:39:15+02:00
thb_35b3ae7b21ba,Moviemento,moviemento,cinema,<NA>,<NA>,no,,https://www.moviemento.de/,+49306924785,,Kottbusser Damm 22 10967 Berlin,Kottbusser Damm,22,10967,Berlin,DE,,,11002002,Friedrichshain-Kreuzberg,0202,13.423400599999999,52.49033420000001,2025-10-12T23:39:15+02:00
thb_c99feb665f21,Vineta Theater,vineta,theatre,<NA>,<NA>,no,,,,,,,,,Berlin,DE,,,11003003,Pankow,0307,13.413048,52.5583825,2025-10-12T23:39:15+02:00
thb_9eff7d58da55,Kleines Theater,kleines,theatre,Kleines Theater am Südwestkorso GmbH,<NA>,yes,,https://www.kleines-theater.de/,+49308212021,,Südwestkorso 64 12161 Berlin,Südwestkorso,64,12161,Berlin,DE,drama,drama,11007007,Tempelhof-Schöneberg,0702,13.3223214,52.473364100000005,2025-10-12T23:39:15+02:00
thb_2aff59afba17,Passage,passage,cinema,Yorck Kinogruppe,<NA>,limited,4.0,https://yorck.de/kinos/passage,+493068237018,,Karl-Marx-Straße 131 12043 Berlin,Karl-Marx-Straße,131,12043,Berlin,DE,,,11008008,Neukölln,0801,13.439405999999998,52.4774811,2025-10-12T23:39:15+02:00
thb_2344cb105f01,Neuköllner Oper,neuköllner-oper,theatre,Neuköllner Oper e.V.,<NA>,no,,https://www.neukoellneroper.de/,+493068890777,info@neukoellneroper.de,Karl-Marx-Straße 131-133 12043 Berlin,Karl-Marx-Straße,131-133,12043,Berlin,DE,,,11008008,Neukölln,0801,13.439332999999998,52.4775631,2025-10-12T23:39:15+02:00
thb_78a090a6bc9d,Theater Rambazamba,rambazamba,theatre,<NA>,<NA>,yes,,,,,,,,,Berlin,DE,,,11003003,Pankow,0301,13.4136365,52.5399039,2025-10-12T23:39:15+02:00
thb_665679601337,Tilsiter Lichtspiele,tilsiter,cinema,<NA>,"Mo-Fr 16:00-24:00+, Sa,Su 14:00-24:00+",no,,https://www.tilsiter-lichtspiele.de/,+49304268129,,Richard-Sorge-Straße 25A 10249 Berlin,Richard-Sorge-Straße,25A,10249,Berlin,DE,,,11002002,Friedrichshain-Kreuzberg,0201,13.447355,52.5207515,2025-10-12T23:39:15+02:00
thb_c21ca23a07eb,Volksbühne im Prater,volksbühne-im-prater,theatre,<NA>,<NA>,no,,http://www.volksbuehne-berlin.de/,+493024065777,,Kastanienallee 7-9 10435 Berlin,Kastanienallee,7-9,10435,Berlin,DE,,,11003003,Pankow,0301,13.410727899999998,52.5398598,2025-10-12T23:39:15+02:00
thb_1c06a84c296e,Theater im Palais,im-palais,theatre,Theaterverein Am Festungsgraben e.V.,<NA>,yes,,https://www.theater-im-palais.de/,+49302010693,service@theater-im-palais.de,Am Festungsgraben 1 10117 Berlin,Am Festungsgraben,1,10117,Berlin,DE,,,11001001,Mitte,0101,13.395498099999998,52.518523900000005,2025-10-12T23:39:15+02:00
thb_e3e3181205c4,SpreeLacArt Kulturwerk Schöneweide,spreelacart-kulturwerk-schöneweide,theatre,<NA>,<NA>,yes,,http://www.spreelacart.de/,,,,,,,Berlin,DE,,,11009009,Treptow-Köpenick,0909,13.513003499999998,52.46089829999999,2025-10-12T23:39:15+02:00
thb_ab2004903161,Vaganten Bühne,vaganten-bühne,theatre,Vaganten Bühne gemeinnützige Theater GmbH,<NA>,limited,,http://www.vaganten.de/,+49303124529,info@vaganten.de,Kantstraße 12a 10623 Berlin,Kantstraße,12a,10623,Berlin,DE,,,11004004,Charlottenburg-Wilmersdorf,0401,13.328570500000001,52.5061225,2025-10-12T23:39:15+02:00
thb_83a06ac56172,ACUDkino,acudkino,cinema,<NA>,<NA>,no,2.0,https://acudkino.de/,+493044359498,,Veteranenstraße 21 10119 Berlin,Veteranenstraße,21,10119,Berlin,DE,,,11001001,Mitte,0101,13.400815099999999,52.5336588,2025-10-12T23:39:15+02:00
thb_4a7c4260ca84,Theater Mirakulum,mirakulum,theatre,<NA>,<NA>,no,,https://www.mirakulum.de/,+49304490820,,Brunnenstraße 35 10115 Berlin,Brunnenstraße,35,10115,Berlin,DE,,,11001001,Mitte,0101,13.398065199999998,52.53565639999999,2025-10-12T23:39:15+02:00
thb_21113b7a6a5e,Chamäleon,chamäleon,theatre,CHAMÄLEON Theater GmbH,<NA>,limited,,http://www.chamaeleonberlin.com/,+49304000590,info@chamaeleonberlin.com,Rosenthaler Straße 40-41 10178 Berlin,Rosenthaler Straße,40-41,10178,Berlin,DE,variety,variety,11001001,Mitte,0101,13.402082999999998,52.524041999999994,2025-10-12T23:39:15+02:00
thb_a062937a793c,Renaissance-Theater Berlin,renaissance--berlin,theatre,Neue Theater-Betriebs GmbH,<NA>,no,,https://www.renaissance-theater.de/,+49303159730,tickets@renaissance-theater.de,Knesebeckstraße 100 10623 Berlin,Knesebeckstraße,100,10623,Berlin,DE,,,11004004,Charlottenburg-Wilmersdorf,0401,13.323503,52.51033839999999,2025-10-12T23:39:15+02:00
thb_8690b1acd8cc,Casablanca,casablanca,cinema,<NA>,<NA>,yes,,http://www.casablanca-berlin.de/,+49306775752,casablanca-berlin@gmx.de,Friedenstraße 12 12489 Berlin,Friedenstraße,12,12489,Berlin,DE,,,11009009,Treptow-Köpenick,0907,13.547896999999999,52.43584199999999,2025-10-12T23:39:15+02:00
thb_7967c877e32c,Freiluftkino Kreuzberg,freiluftkino-kreuzberg,cinema,<NA>,"""Nur im Sommer, Filmstart nach Einbruch der Dunkelheit. """,yes,,http://www.freiluftkino-kreuzberg.de/,+493029361628,,Mariannenplatz 2 10997 Berlin,Mariannenplatz,2,10997,Berlin,DE,,,11002002,Friedrichshain-Kreuzberg,0202,13.423480399999999,52.5040614,2025-10-12T23:39:15+02:00
thb_f718b8968e06,Rollberg Kino,rollberg,cinema,Yorck Kinogruppe,"Sa,Su 16:45-18:00+",limited,5.0,https://yorck.de/kinos/rollberg,+4930322931322,,Rollbergstraße 70 12053 Berlin,Rollbergstraße,70,12053,Berlin,DE,,,11008008,Neukölln,0801,13.428028599999998,52.4787966,2025-10-12T23:39:15+02:00
thb_7ce239ab400c,CinemaxX,cinemaxx,cinema,<NA>,<NA>,limited,,https://www.cinemaxx.de/Home?SwitchCinemaId=12,+493025921111,,Potsdamer Straße 5 10785 Berlin,Potsdamer Straße,5,10785,Berlin,DE,,,11001001,Mitte,0104,13.373744799999999,52.5086444,2025-10-12T23:39:15+02:00
thb_5d4e05a55f5e,Theater Coupé,coupé,theatre,Künstlerkolonie Berin e.V.,<NA>,limited,,https://www.berlin.de/ba-charlottenburg-wilmersdorf/verwaltung/kultur/theater-coup/,+4930902916706,,Hohenzollerndamm 177 10713 Berlin,Hohenzollerndamm,177,10713,Berlin,DE,stage,stage,11004004,Charlottenburg-Wilmersdorf,0402,13.312208199999999,52.48943859999999,2025-10-12T23:39:15+02:00
thb_e46dde28ed08,BKA-Theater,bka-,theatre,Die Theaterexperten gGmbH,<NA>,limited,,https://www.bka-theater.de/,+49302022007,info@bka-theater.de,Mehringdamm 34 10961 Berlin,Mehringdamm,34,10961,Berlin,DE,cabaret,cabaret,11002002,Friedrichshain-Kreuzberg,0202,13.3876998,52.49364049999999,2025-10-12T23:39:15+02:00
thb_fdaaad4c8ce1,Die Kiste,die-kiste,cinema,<NA>,<NA>,limited,,https://www.kiste.net/kino/,+49309987481,,Heidenauer Straße 10 12627 Berlin,Heidenauer Straße,10,12627,Berlin,DE,,,11010010,Marzahn-Hellersdorf,1005,13.609467599999999,52.5361682,2025-10-12T23:39:15+02:00
thb_e35fbffce077,Neues Off,neues-off,cinema,Yorck Kinogruppe,<NA>,no,1.0,https://yorck.de/kinos/neues-off,+4930322931322,,Hermannstraße 20 12049 Berlin,Hermannstraße,20,12049,Berlin,DE,,,11008008,Neukölln,0801,13.4244236,52.483422499999996,2025-10-12T23:39:15+02:00
thb_5a736aeb9aff,Ballhaus Naunynstraße,ballhaus-naunynstraße,theatre,<NA>,<NA>,,,http://www.ballhausnaunynstrasse.de/,+493075453725,,Naunynstraße 27 10997 Berlin,Naunynstraße,27,10997,Berlin,DE,,,11002002,Friedrichshain-Kreuzberg,0202,13.421324899999998,52.5020031,2025-10-12T23:39:15+02:00
thb_70a15ddcaf06,Hoftheater Kreuzberg,hoftheater-kreuzberg,theatre,<NA>,<NA>,limited,,http://www.hoftheater-kreuzberg.de/,,,10997 Berlin,,,10997,Berlin,DE,,,11002002,Friedrichshain-Kreuzberg,0202,13.420827,52.501686799999995,2025-10-12T23:39:15+02:00
thb_7bd1944fc37c,AHA-Berlin,aha-berlin,theatre,AHA-Berlin e.V.,<NA>,limited,,https://www.aha-berlin.de/,+493089627948,,Monumentenstraße 13 10829 Berlin,Monumentenstraße,13,10829,Berlin,DE,,,11007007,Tempelhof-Schöneberg,0701,13.367820499999999,52.488146699999994,2025-10-12T23:39:15+02:00
thb_493fff8a125b,Maxim Gorki Theater - Studio,maxim-gorki---studio,theatre,<NA>,<NA>,yes,,,,,,,,,Berlin,DE,,,11001001,Mitte,0101,13.395979699999998,52.51898619999999,2025-10-12T23:39:15+02:00
thb_62bc26c8669f,Acker Stadt Palast - Freie Bühne Mitte .eV,acker-stadt-palast---freie-bühne-mitte-ev,theatre,<NA>,<NA>,,,https://ackerstadtpalast.de/,+49304410009,post@ackerstadtpalast.de,Ackerstraße 169/170,Ackerstraße,169/170,,Berlin,DE,,,11001001,Mitte,0101,13.396547799999999,52.529683999999996,2025-10-12T23:39:15+02:00
thb_e954f78e54ad,Zimmer 16,zimmer-16,theatre,<NA>,<NA>,yes,,https://zimmer16.com/,,,,Florastraße,16,13187,Berlin,DE,,,11003003,Pankow,0307,13.401432999999999,52.565495199999994,2025-10-12T23:39:15+02:00
thb_be3a0174808c,Heimathafen Neukölln,heimathafen-neukölln,theatre,<NA>,<NA>,limited,,https://www.heimathafen-neukoelln.de/,+493056821333,,Karl-Marx-Straße 141 12043 Berlin,Karl-Marx-Straße,141,12043,Berlin,DE,,,11008008,Neukölln,0801,13.439916099999998,52.4770235,2025-10-12T23:39:15+02:00
thb_a8f5c31147dd,Die Stachelschweine,die-stachelschweine,theatre,Berliner Literarisches Kabarett GmbH,<NA>,yes,,http://www.diestachelschweine.de/,+49302615795,info@diestachelschweine.de,Tauentzienstraße 9-12 10789 Berlin,Tauentzienstraße,9-12,10789,Berlin,DE,cabaret,cabaret,11004004,Charlottenburg-Wilmersdorf,0401,13.337489399999999,52.5043712,2025-10-12T23:39:15+02:00
thb_23e577e649fb,Theatersaal des Kulturhauses Spandau,theatersaal-des-kulturhauses-spandau,theatre,<NA>,<NA>,,,,,,,,,,Berlin,DE,,,11005005,Spandau,0501,13.202507199999998,52.5354834,2025-10-12T23:39:15+02:00
thb_6ebfdf555491,BrotfabrikBühne,brotfabrikbühne,theatre,<NA>,<NA>,no,,,,,1 13086 Berlin,,1,13086,Berlin,DE,,,11003003,Pankow,0302,13.430731799999998,52.55256069999999,2025-10-12T23:39:15+02:00
thb_45e49b276973,Theater Lichterfelde,lichterfelde,theatre,Hans-Hermann Keune,<NA>,,,http://www.theater-lichterfelde.de/,+493084314646,info@theater-lichterfelde.de,Drakestraße 49 12205 Berlin,Drakestraße,49,12205,Berlin,DE,,,11006006,Steglitz-Zehlendorf,0602,13.297476399999999,52.441939,2025-10-12T23:39:15+02:00
thb_96917a52dffa,Mehringhof Theater,mehringhof,theatre,Andreas Wahl,<NA>,limited,,https://www.mehringhoftheater.de/,+49306915099,mehringhoftheater@gmx.de,Gneisenaustraße 2a 10961 Berlin,Gneisenaustraße,2a,10961,Berlin,DE,,,11002002,Friedrichshain-Kreuzberg,0202,13.388691799999998,52.4918149,2025-10-12T23:39:15+02:00
thb_8d6be87279af,Titania-Palast,titania-palast,cinema,<NA>,"""Kasseneröffnung 30 min vor der ersten Vorstellung""",limited,,https://www.cineplex.de/berlin-titania/,+491805050520,,Gutsmuthsstraße 27-28 12163 Berlin,Gutsmuthsstraße,27-28,12163,Berlin,DE,,,11006006,Steglitz-Zehlendorf,0601,13.3266521,52.46414819999998,2025-10-12T23:39:15+02:00
thb_50fa5a918360,Theater im Nikolaiviertel,im-nikolaiviertel,theatre,<NA>,<NA>,,,http://www.theater-im-nikolaiviertel.de/,,,,,,,Berlin,DE,,,11001001,Mitte,0101,13.407829999999999,52.51654099999999,2025-10-12T23:39:15+02:00
thb_ef24da0ae20e,Zimmertheater Steglitz,zimmertheater-steglitz,theatre,<NA>,<NA>,limited,,http://www.zimmertheater-steglitz.de/,+493025058078,,Bornstraße 17 12163 Berlin,Bornstraße,17,12163,Berlin,DE,,,11006006,Steglitz-Zehlendorf,0601,13.321304699999999,52.466759499999995,2025-10-12T23:39:15+02:00
thb_089e4d79610a,Ballhaus Ost,ballhaus-ost,theatre,<NA>,<NA>,limited,,https://www.ballhausost.de/,+493044049250,info@ballhausost.de,Pappelallee 15 10437 Berlin,Pappelallee,15,10437,Berlin,DE,,,11003003,Pankow,0301,13.4149784,52.5430767,2025-10-12T23:39:15+02:00
thb_ad64c30371c0,Wohnzimmerclub,wohnzimmerclub,theatre,<NA>,<NA>,limited,,,,,,,,,Berlin,DE,,,11008008,Neukölln,0801,13.424982699999997,52.491131899999985,2025-10-12T23:39:15+02:00
thb_5ddcbcd15b3f,Theater am Frankfurter Tor,am-frankfurter-tor,theatre,<NA>,<NA>,no,,https://www.theater-am-frankfurter-tor.de/,,,,,,,Berlin,DE,,,11002002,Friedrichshain-Kreuzberg,0201,13.450876199999998,52.51663739999999,2025-10-12T23:39:15+02:00
thb_6673110e21d1,OpenAirKino Spandau,openairkino-spandau,cinema,<NA>,<NA>,yes,,http://www.openairkino-spandau.de/,+49303336081,,Carl-Schurz-Straße 13 13597 Berlin,Carl-Schurz-Straße,13,13597,Berlin,DE,,,11005005,Spandau,0501,13.2015024,52.5364431,2025-10-12T23:39:15+02:00
thb_d4e259aa623c,Zauberlounge,zauberlounge,theatre,<NA>,<NA>,,,https://www.zauberlounge.de/,,,Horstweg 3 14059 Berlin,Horstweg,3,14059,Berlin,DE,,,11004004,Charlottenburg-Wilmersdorf,0401,13.295502,52.511902299999996,2025-10-12T23:39:15+02:00
thb_63ea198a8652,F40 - English Theatre Berlin,f40---english-berlin,theatre,<NA>,<NA>,limited,,https://www.etberlin.de/,+49306911211,tickets@etberlin.de,Fidicinstraße 40 10965 Berlin,Fidicinstraße,40,10965,Berlin,DE,,,11002002,Friedrichshain-Kreuzberg,0202,13.388108200000001,52.48732950000001,2025-10-12T23:39:15+02:00
thb_25d0c47e8c72,Das Weite Theater,das-weite,theatre,Das Weite Theater e.V.,<NA>,yes,,https://www.das-weite-theater.de/,+49309917927,pupp@das-weite-theater.de,Storkower Str 207 10369 Berlin,Storkower Str,207,10369,Berlin,DE,puppet,puppet_theatre,11011011,Lichtenberg,1111,13.4651975,52.52472680000001,2025-10-12T23:39:15+02:00
thb_0fd2f4a04f93,Theater der kleinen Form,der-kleinen-form,theatre,KiT - Kinder im Theater e.V.,<NA>,no,,http://www.theater-der-kleinen-form.de/,+493029350461,theater@niva.de,Gubener Straße 45 10243 Berlin,Gubener Straße,45,10243,Berlin,DE,puppet,puppet_theatre,11002002,Friedrichshain-Kreuzberg,0201,13.448780799999998,52.51181359999999,2025-10-12T23:39:15+02:00
thb_c2ae75a7b7fc,Theater O-TonArt,o-tonart,theatre,Art aller Art e.V.,<NA>,,,https://www.o-tonart.de/,+493037447808,,Kulmer Straße 20a 10783 Berlin,Kulmer Straße,20a,10783,Berlin,DE,,,11007007,Tempelhof-Schöneberg,0701,13.364547599999998,52.49197559999998,2025-10-12T23:39:15+02:00
thb_8e5fdbe0502e,Theater o.N.,on,theatre,Theater o.N. e.V.,<NA>,no,,https://www.theater-on.de/,+49304409214,info@theater-on.de,Kollwitzstraße 53 10405 Berlin,Kollwitzstraße,53,10405,Berlin,DE,,,11003003,Pankow,0301,13.4162235,52.534984800000004,2025-10-12T23:39:15+02:00
thb_801063fb072e,bat-Studiotheater,bat-studiotheater,theatre,<NA>,<NA>,yes,,https://www.bat-berlin.de/,+4930755417777,karten@bat-berlin.de,Belforter Straße 15 10405 Berlin,Belforter Straße,15,10405,Berlin,DE,,,11003003,Pankow,0301,13.418434,52.53181639999999,2025-10-12T23:39:15+02:00
thb_dfad063ce0a5,HAU 3 (Hebbel am Ufer),hau-3-hebbel-am-ufer,theatre,<NA>,<NA>,no,,http://www.hebbel-am-ufer.de/,+493025900427,info@hebbel-am-ufer.de,Tempelhofer Ufer 10 10963 Berlin,Tempelhofer Ufer,10,10963,Berlin,DE,,,11002002,Friedrichshain-Kreuzberg,0202,13.385688399999998,52.49733899999998,2025-10-12T23:39:15+02:00
thb_740ee5c0f7c2,UNI.T,unit,theatre,<NA>,<NA>,no,,https://www.udk-berlin.de/universitaet/fakultaet-darstellende-kunst/unit-theater-der-universitaet-der-kuenste-berlin/,+493031852678,unitheater@gmail.com,Fasanenstraße 1b 10623 Berlin,Fasanenstraße,1b,10623,Berlin,DE,,,11004004,Charlottenburg-Wilmersdorf,0401,13.3289883,52.5098457,2025-10-12T23:39:15+02:00
thb_98be41c13a93,Kleinkunstkeller,kleinkunstkeller,theatre,<NA>,<NA>,no,,http://www.kabarett-mueckenstich-berlin.de/,,,,,,,Berlin,DE,cabaret,cabaret,11002002,Friedrichshain-Kreuzberg,0202,13.416266599999998,52.49251869999999,2025-10-12T23:39:15+02:00
thb_e882b4cbf8b9,Prime Time Theater,prime-time,theatre,<NA>,<NA>,yes,,https://www.primetimetheater.de/,+493049907958,,Müllerstraße 163 13353 Berlin,Müllerstraße,163,13353,Berlin,DE,,,11001001,Mitte,0105,13.3633056,52.5434945,2025-10-12T23:39:15+02:00
thb_dab0633b116f,Die Musenstube,die-musenstube,theatre,<NA>,<NA>,,,http://www.musenstube.de/,,,,,,,Berlin,DE,cabaret,cabaret,11008008,Neukölln,0801,13.431958399999997,52.48603909999999,2025-10-12T23:39:15+02:00
thb_246c60741fce,Theater im Keller,im-keller,theatre,<NA>,<NA>,no,,http://www.tikberlin.de/,+49306231452,,Weserstraße 211 12047 Berlin,Weserstraße,211,12047,Berlin,DE,variety,variety,11008008,Neukölln,0801,13.427762699999999,52.48841999999999,2025-10-12T23:39:15+02:00
thb_19eefde2b7e3,Sweet Secrets,sweet-secrets,cinema,<NA>,<NA>,yes,,,,,Jüdenstraße 29 13597 Berlin,Jüdenstraße,29,13597,Berlin,DE,,,11005005,Spandau,0501,13.202807399999998,52.5383336,2025-10-12T23:39:15+02:00
thb_3160aa47e51b,Stage Theater am Potsdamer Platz,stage-am-potsdamer-platz,theatre,Stage Entertainment Germany GmbH,<NA>,no,,,+4930259290,,Marlene-Dietrich-Platz 1 10785 Berlin,Marlene-Dietrich-Platz,1,10785,Berlin,DE,stage,stage,11001001,Mitte,0104,13.372119299999998,52.5072208,2025-10-12T23:39:15+02:00
thb_fe1147872a71,Dancetheater LaborGRAS.com,dancetheater-laborgrascom,theatre,<NA>,<NA>,,,,,,,,,,Berlin,DE,,,11002002,Friedrichshain-Kreuzberg,0202,13.4214048,52.4967578,2025-10-12T23:39:15+02:00
thb_15a51bf9a635,Kammerspiele,kammerspiele,theatre,<NA>,<NA>,yes,,https://www.deutschestheater.de/,+493028441221,service@deutschestheater.de,Schumannstraße 14a 10117 Berlin,Schumannstraße,14a,10117,Berlin,DE,,,11001001,Mitte,0101,13.381399199999999,52.524274999999996,2025-10-12T23:39:15+02:00
thb_1809a2434e69,Kammerspiele,kammerspiele,theatre,<NA>,<NA>,yes,,https://www.deutschestheater.de/,+493028441221,service@deutschestheater.de,Schumannstraße 14a 10117 Berlin,Schumannstraße,14a,10117,Berlin,DE,,,11001001,Mitte,0101,13.381399199999999,52.524274999999996,2025-10-12T23:39:15+02:00
thb_42920e20fe92,Maxim-Gorki-Theater,maxim-gorki-,theatre,<NA>,<NA>,yes,,https://www.gorki.de/,+4930202210,kontakt@gorki.de,Am Festungsgraben 2 10117 Berlin,Am Festungsgraben,2,10117,Berlin,DE,drama,drama,11001001,Mitte,0101,13.3950767,52.5190141,2025-10-12T23:39:15+02:00
thb_424fb64df68e,BühnenRausch,bühnenrausch,theatre,<NA>,<NA>,no,,https://buehnenrausch.de/,+493044673264,,Erich-Weinert-Straße 27 10439 Berlin,Erich-Weinert-Straße,27,10439,Berlin,DE,,,11003003,Pankow,0301,13.4183206,52.5514416,2025-10-12T23:39:15+02:00
thb_2c241b323663,Kino Sex Shop,sex-shop,cinema,<NA>,<NA>,no,,,,,,,,,Berlin,DE,,,11008008,Neukölln,0801,13.4275386,52.489616899999994,2025-10-12T23:39:15+02:00
thb_6d4b42916d6d,Berliner Tschechow Theater,berliner-tschechow,theatre,<NA>,<NA>,yes,,,,,Märkische Allee 410 12689 Berlin,Märkische Allee,410,12689,Berlin,DE,,,11010010,Marzahn-Hellersdorf,1001,13.568259299999998,52.5713652,2025-10-12T23:39:15+02:00
thb_6dca3ca8eb15,Theater unterm Turm,unterm-turm,theatre,<NA>,<NA>,,,http://theateruntermturm.de/,,,Düsseldorfer Straße 2 10719 Berlin,Düsseldorfer Straße,2,10719,Berlin,DE,drama,drama,11004004,Charlottenburg-Wilmersdorf,0402,13.325428799999997,52.4950885,2025-10-12T23:39:15+02:00
thb_36c941008293,Kleine Nachtrevue,kleine-nachtrevue,theatre,Sylvia Schmid,<NA>,no,,https://www.kleine-nachtrevue.de/,+49302188950,info@kleine-nachtrevue.de,Kurfürstenstraße 116 10787 Berlin,Kurfürstenstraße,116,10787,Berlin,DE,burlesque,burlesque,11007007,Tempelhof-Schöneberg,0701,13.347997599999998,52.503318799999995,2025-10-12T23:39:15+02:00
thb_c9e5116b4ec5,b-ware! ladenkino,b-ware-ladenkino,cinema,<NA>,10:45+,limited,3.0,https://ladenkino.de/,+493020078888,bware@ladenkino.de,Gärtnerstraße 19 10245 Berlin,Gärtnerstraße,19,10245,Berlin,DE,,,11002002,Friedrichshain-Kreuzberg,0201,13.461648499999999,52.51187509999999,2025-10-12T23:39:15+02:00
thb_201090b35973,Filmtheater am Friedrichshain,filmtheater-am-friedrichshain,cinema,Yorck Kinogruppe,<NA>,limited,5.0,https://yorck.de/kinos/filmtheater-am-friedrichshain,+493042845188,,Bötzowstraße 1-5 10407 Berlin,Bötzowstraße,1-5,10407,Berlin,DE,,,11003003,Pankow,0301,13.430273500000002,52.529030600000006,2025-10-12T23:39:15+02:00
thb_e69a00a9d9db,Tempodrom,tempodrom,theatre,Tempodrom Betriebsgesellschaft mbH & Co. KG,<NA>,yes,,https://www.tempodrom.de/,+4930747370,info@tempodrom.de,Möckernstraße 10 10963 Berlin,Möckernstraße,10,10963,Berlin,DE,amphi,amphi,11002002,Friedrichshain-Kreuzberg,0202,13.381180999999998,52.5016098,2025-10-12T23:39:15+02:00
thb_726f40272433,filmkunst 66,filmkunst-66,cinema,Regina Ziegler und Tanja Ziegler GbR,<NA>,limited,,http://www.filmkunst66.de/,+49308821753,,Bleibtreustraße 12 10623 Berlin,Bleibtreustraße,12,10623,Berlin,DE,,,11004004,Charlottenburg-Wilmersdorf,0401,13.3196567,52.5044255,2025-10-12T23:39:15+02:00
thb_3cfebb00d434,Cosmic Comedy Club,cosmic-comedy-club,theatre,<NA>,<NA>,limited,,http://www.comedyclub.de/berlin/start.php,+4917674410877,,Schönhauser Allee 184 10119 Berlin,Schönhauser Allee,184,10119,Berlin,DE,,,11003003,Pankow,0301,13.410002999999998,52.5298014,2025-10-12T23:39:15+02:00
thb_730cb066fe28,Freie Theateranstalten Berlin,freie-theateranstalten-berlin,theatre,<NA>,<NA>,limited,,http://www.freietheateranstalten.de/,,,Klausenerplatz 19 14059 Berlin,Klausenerplatz,19,14059,Berlin,DE,,,11004004,Charlottenburg-Wilmersdorf,0401,13.2899708,52.5182934,2025-10-12T23:39:15+02:00
thb_9cee4b99c9ab,BE-KAS Sexothek & Kino,be-kas-sexothek,cinema,<NA>,<NA>,no,,,,,,,,,Berlin,DE,,,11008008,Neukölln,0801,13.429545799999998,52.4837967,2025-10-12T23:39:15+02:00
thb_f0220d2be15c,Fabriktheater,fabriktheater,theatre,Fabriktheater Moabit e.V.,<NA>,no,,https://fabrik.theater/,,mail@fabrik.theater,Lehrter Straße 35 10557 Berlin,Lehrter Straße,35,10557,Berlin,DE,,,11001001,Mitte,0102,13.359503400000001,52.53427119999999,2025-10-12T23:39:15+02:00
thb_82043cbfadb2,Delphi LUX,delphi-lux,cinema,Yorck Kinogruppe,"""30 Minuten vor Vorstellungsbeginn""",yes,7.0,https://yorck.de/kinos/delphi-lux,+4930322931322,,Kantstraße 10 10623 Berlin,Kantstraße,10,10623,Berlin,DE,,,11004004,Charlottenburg-Wilmersdorf,0401,13.3305818,52.5060698,2025-10-12T23:39:15+02:00
thb_48bd65742fc7,Theater Artenschutz,artenschutz,theatre,<NA>,<NA>,no,,https://www.artenschutztheater.de/,,,372 10557 Berlin,,372,10557,Berlin,DE,,,11001001,Mitte,0102,13.3586326,52.52053519999999,2025-10-12T23:39:15+02:00
thb_ec9897140203,Eva Lichtspiele,eva,cinema,<NA>,<NA>,limited,,http://www.eva-lichtspiele.de/,+493092255305,,Blissestraße 18 10713 Berlin,Blissestraße,18,10713,Berlin,DE,,,11004004,Charlottenburg-Wilmersdorf,0402,13.3200059,52.484681999999985,2025-10-12T23:39:15+02:00
thb_654e1a6131eb,Kino Krokodil,krokodil,cinema,<NA>,"""varies according to the monthly program (see website kino-krokodile.de, fliers)""",no,,https://kino-krokodil.de/,+493044049298,,Greifenhagener Straße 32 10437 Berlin,Greifenhagener Straße,32,10437,Berlin,DE,,,11003003,Pankow,0301,13.4195677,52.552443399999994,2025-10-12T23:39:15+02:00
thb_5aa4451d58ad,Bundesplatz Studio,bundesplatz-studio,cinema,<NA>,<NA>,limited,,http://www.bundesplatz-kino.de/,+493085406085,,Bundesplatz 14 10715 Berlin,Bundesplatz,14,10715,Berlin,DE,,,11004004,Charlottenburg-Wilmersdorf,0402,13.329357899999998,52.47898369999999,2025-10-12T23:39:15+02:00
thb_b1291e2985f7,Cinema Paris,cinema-paris,cinema,Yorck Kinogruppe,<NA>,yes,1.0,https://yorck.de/kinos/cinema-paris,+49308813119,,Kurfürstendamm 211 10719 Berlin,Kurfürstendamm,211,10719,Berlin,DE,,,11004004,Charlottenburg-Wilmersdorf,0401,13.324937799999999,52.5020922,2025-10-12T23:39:15+02:00
thb_1c0ec51bb3cc,Garn Theater,garn,theatre,Adolfo Assor,<NA>,,,http://www.garn-theater.de/,,,Katzbachstraße 19 10965 Berlin,Katzbachstraße,19,10965,Berlin,DE,,,11002002,Friedrichshain-Kreuzberg,0202,13.376389000000001,52.48703799999999,2025-10-12T23:39:15+02:00
thb_2e28944e0b7e,Volksbühne am Rosa-Luxemburg-Platz,volksbühne-am-rosa-luxemburg-platz,theatre,<NA>,<NA>,limited,,http://www.volksbuehne-berlin.de/,+493024065777,,Linienstraße 227 10178 Berlin,Linienstraße,227,10178,Berlin,DE,,,11001001,Mitte,0101,13.411917099999998,52.527024,2025-10-12T23:39:15+02:00
thb_5059c2b1712d,Keller,keller,theatre,<NA>,<NA>,,,http://keller-label.de/,,,Karl-Marx-Straße 58 12043 Berlin,Karl-Marx-Straße,58,12043,Berlin,DE,,,11008008,Neukölln,0801,13.4306601,52.4824948,2025-10-12T23:39:15+02:00
thb_53ad5ab80751,Tischlerei,tischlerei,theatre,<NA>,<NA>,,,https://deutscheoperberlin.de/de_DE/home-tischlerei,,,,,,,Berlin,DE,variety,variety,11004004,Charlottenburg-Wilmersdorf,0401,13.307806,52.513302599999996,2025-10-12T23:39:15+02:00
thb_750f2d8eac4f,Studiobühne,studiobühne,theatre,<NA>,<NA>,yes,,,,,,,,,Berlin,DE,,,11002002,Friedrichshain-Kreuzberg,0201,13.4422678,52.51616769999999,2025-10-12T23:39:15+02:00
thb_ceaca7048a12,Schaubude Berlin,schaubude-berlin,theatre,<NA>,<NA>,limited,,http://www.schaubude-berlin.de/,+49304234314,info@schaubude-berlin.de,Greifswalder Straße 81-84 10405 Berlin,Greifswalder Straße,81-84,10405,Berlin,DE,,,11003003,Pankow,0301,13.438979699999999,52.540836,2025-10-12T23:39:15+02:00
thb_1589c9275600,Theater Nikolassee,nikolassee,theatre,<NA>,<NA>,,,https://www.theaternikolassee.de/,,,Kirchweg 6 14129 Berlin,Kirchweg,6,14129,Berlin,DE,,,11006006,Steglitz-Zehlendorf,0606,13.205076899999998,52.4249086,2025-10-12T23:39:15+02:00
thb_918cb7079821,Theaterhof,theaterhof,theatre,<NA>,<NA>,,,,,,,,,,Berlin,DE,,,11006006,Steglitz-Zehlendorf,0605,13.2894916,52.4523699,2025-10-12T23:39:15+02:00
thb_4978620e71bf,Spandauer Theater Varianta,spandauer-varianta,theatre,<NA>,<NA>,no,,,+490303339695,,,,,,Berlin,DE,,,11005005,Spandau,0501,13.2050154,52.53909109999999,2025-10-12T23:39:15+02:00
thb_2c82741d9d2c,Kulturversteck Tegel,kulturversteck-tegel,theatre,<NA>,<NA>,,,,,,Schloßstraße 9 13507 Berlin,Schloßstraße,9,13507,Berlin,DE,,,11012012,Reinickendorf,1202,13.283531099999998,52.5918975,2025-10-12T23:39:15+02:00
thb_66624250ab93,Freilichtbühne,freilichtbühne,theatre,<NA>,<NA>,,,,,,,,,,Berlin,DE,,,11004004,Charlottenburg-Wilmersdorf,0404,13.269892399999998,52.47267999999998,2025-10-12T23:39:15+02:00
thb_59f24204cb3c,Sternberg - Theater in der Spielbank,sternberg---in-der-spielbank,theatre,<NA>,<NA>,yes,,https://www.spielbank-berlin.de/sternberg,+4930255990,,Marlene-Dietrich-Platz 1 10785 Berlin,Marlene-Dietrich-Platz,1,10785,Berlin,DE,,,11001001,Mitte,0104,13.372025,52.5078995,2025-10-12T23:39:15+02:00
thb_91dbccbf5026,Puppentheater Berlin,puppentheater-berlin,theatre,<NA>,<NA>,no,,https://www.puppentheater-berlin.de/,,,Gierkeplatz 2 10585 Berlin,Gierkeplatz,2,10585,Berlin,DE,puppet_theatre,puppet_theatre,11004004,Charlottenburg-Wilmersdorf,0401,13.302853999999998,52.5167042,2025-10-12T23:39:15+02:00
thb_e59cf0bb167f,Puppentheater Felicio,puppentheater-felicio,theatre,<NA>,<NA>,,,http://www.felicio.de/,,,Schivelbeiner Straße 45 10439 Berlin,Schivelbeiner Straße,45,10439,Berlin,DE,,,11003003,Pankow,0301,13.412035699999999,52.5505948,2025-10-12T23:39:15+02:00
thb_7ffa1a3835e9,Zaubertheater Igor Jedlin,zaubertheater-igor-jedlin,theatre,<NA>,<NA>,,,https://www.zaubertheater.de/,+49303233777,,Roscherstraße 7 10629 Berlin,Roscherstraße,7,10629,Berlin,DE,magic,magic,11004004,Charlottenburg-Wilmersdorf,0401,13.3017312,52.50029499999998,2025-10-12T23:39:15+02:00
thb_e8d24c3250bd,Astor Film Lounge,astor-lounge,cinema,<NA>,<NA>,limited,,http://www.berlin.astor-filmlounge.de/,+49308838551,,Kurfürstendamm 225 10719 Berlin,Kurfürstendamm,225,10719,Berlin,DE,,,11004004,Charlottenburg-Wilmersdorf,0401,13.3300216,52.503251199999994,2025-10-12T23:39:15+02:00
thb_235a7f3a657b,Spiegelsalon,spiegelsalon,theatre,<NA>,Th-Sa 16:00-19:00,,,,+493081863695,,Friedbergstraße 29 14057 Berlin,Friedbergstraße,29,14057,Berlin,DE,,,11004004,Charlottenburg-Wilmersdorf,0401,13.2939896,52.503919399999994,2025-10-12T23:39:15+02:00
thb_dfef426f83ce,Ida Nowhere,ida-nowhere,theatre,eiliges Kanonenohr e.V.,Sa 18:00+,,,http://www.ida-nowhere.com/,+491634921813,kkwm@ida-nowhere.com,Donaustraße 79 12043 Berlin,Donaustraße,79,12043,Berlin,DE,,,11008008,Neukölln,0801,13.443039099999998,52.4782137,2025-10-12T23:39:15+02:00
thb_3ef308ff209d,City Kino Wedding im Centre Français,city-wedding-im-centre-français,cinema,<NA>,"""Nach Spielplan""",,,https://citykinowedding.de/,+4915259687921,info@citykinowedding.de,,,,,Berlin,DE,,,11001001,Mitte,0105,13.339560799999997,52.5585816,2025-10-12T23:39:15+02:00
thb_2d7476b5e659,Wintergarten Varieté,wintergarten-varieté,theatre,<NA>,<NA>,yes,,https://www.wintergarten-berlin.de/,+4930588433,,Potsdamer Straße 96 10785 Berlin,Potsdamer Straße,96,10785,Berlin,DE,variety,variety,11001001,Mitte,0104,13.364582,52.5021802,2025-10-12T23:39:15+02:00
thb_c6da11f2b3f7,Pfefferberg Theater,pfefferberg,theatre,<NA>,<NA>,yes,,https://pfefferberg-theater.de/,,,Schönhauser Allee 176 10119 Berlin,Schönhauser Allee,176,10119,Berlin,DE,,,11003003,Pankow,0301,13.411321999999998,52.531674,2025-10-12T23:39:15+02:00
thb_7b8322c8818a,Schneiders Filmclub,schneiders-filmclub,cinema,<NA>,"""nur zu speziellen vereinzelten Vorstellungen""",yes,,https://www.bauinx-berlin.de/,,,Gustav-Meyer-Allee 25 13355 Berlin,Gustav-Meyer-Allee,25,13355,Berlin,DE,,,11001001,Mitte,0106,13.384940799999999,52.54110039999998,2025-10-12T23:39:15+02:00
thb_a9c1e150f04d,Fliegendes Theater,fliegendes,theatre,<NA>,<NA>,yes,,https://fliegendes-theater.de/,+49306922100,,Urbanstraße 100 10967 Berlin,Urbanstraße,100,10967,Berlin,DE,,,11002002,Friedrichshain-Kreuzberg,0202,13.422238499999999,52.489792699999995,2025-10-12T23:39:15+02:00
thb_9dae71061028,Kaspertheater Rixdorf,kaspertheater-rixdorf,theatre,<NA>,<NA>,,,http://www.volkart.eu/,+493026378812,,,,,,Berlin,DE,puppet,puppet_theatre,11008008,Neukölln,0801,13.4490449,52.47374369999999,2025-10-12T23:39:15+02:00
thb_fcd8bb7d7db3,Zebrano-Theater,zebrano-,theatre,<NA>,<NA>,limited,,https://www.zebrano-theater.de/,+493029049411,info@zebrano-theater.de,Sonntagstraße 8 10245 Berlin,Sonntagstraße,8,10245,Berlin,DE,variety,variety,11002002,Friedrichshain-Kreuzberg,0201,13.466740199999998,52.505716099999994,2025-10-12T23:39:15+02:00
thb_c78d35792d13,Die Etage,die-etage,theatre,<NA>,<NA>,,,,,,Ritterstraße 12-14 10969 Berlin,Ritterstraße,12-14,10969,Berlin,DE,musical,musical,11002002,Friedrichshain-Kreuzberg,0202,13.411280399999999,52.5017766,2025-10-12T23:39:15+02:00
thb_e5aab17a0a80,Theater im Delphi,im-delphi,theatre,Theater im Delphi gGmbH,<NA>,no,,https://theater-im-delphi.de/,+493041726293,info@theater-im-delphi.de,Gustav-Adolf-Straße 2 13086 Berlin,Gustav-Adolf-Straße,2,13086,Berlin,DE,,,11003003,Pankow,0302,13.4311632,52.5519035,2025-10-12T23:39:15+02:00
thb_bbf36020e1c4,Theater im Bergmannkiez,im-bergmannkiez,theatre,<NA>,<NA>,,,https://theaterimbergmannkiez.de/,+493095597189,,,,,,Berlin,DE,,,11002002,Friedrichshain-Kreuzberg,0202,13.3933755,52.48974830000001,2025-10-12T23:39:15+02:00
thb_aa7cc7b376aa,Galli Theater Berlin,galli-berlin,theatre,<NA>,<NA>,limited,,https://galli-berlin.de/,+493027596971,berlin@galli.de,Oranienburger Straße 32 10117 Berlin,Oranienburger Straße,32,10117,Berlin,DE,,,11001001,Mitte,0101,13.394359099999999,52.525805399999996,2025-10-12T23:39:15+02:00
thb_5195109314a9,Pierre Boulez Saal,pierre-boulez-saal,theatre,<NA>,<NA>,yes,,https://boulezsaal.de/,,,Französische Straße 33d 10117 Berlin,Französische Straße,33d,10117,Berlin,DE,concert_hall; philharmonic,concert_hall,11001001,Mitte,0101,13.3963671,52.5154359,2025-10-12T23:39:15+02:00
thb_11a289a9592b,Wolf Kino,wolf,cinema,<NA>,"Mo-Fr 10:00-24:00+, Sa,Su 12:00-24:00+",no,,https://www.wolfberlin.org/,+49030921039333,,Weserstraße 59 12045 Berlin,Weserstraße,59,12045,Berlin,DE,,,11008008,Neukölln,0801,13.4419119,52.48269849999999,2025-10-12T23:39:15+02:00
thb_59b0ab4a753b,Russische Bühne,russische-bühne,theatre,<NA>,<NA>,yes,,https://www.russische-buehne.de/,,,,,,,Berlin,DE,,,11007007,Tempelhof-Schöneberg,0701,13.350000399999999,52.502306099999984,2025-10-12T23:39:15+02:00
thb_240d173be752,Theater BOKA,boka,theatre,<NA>,<NA>,limited,,https://www.theater-boka.de/,+493066405139,info@theater-boka.de,Wollankstraße 112 13187 Berlin,Wollankstraße,112,13187,Berlin,DE,,,11003003,Pankow,0307,13.3965864,52.5662041,2025-10-12T23:39:15+02:00
thb_c1475e96a49a,umsonst&draussen,umsonstdraussen,cinema,<NA>,Jun-Sep: Fr-Sa sunset-01:00 || 22:00-01:00,limited,,http://www.filmrausch.de/,+49303844344,,Lehrter Straße 35 10557 Berlin,Lehrter Straße,35,10557,Berlin,DE,,,11001001,Mitte,0102,13.360006099999998,52.5344522,2025-10-12T23:39:15+02:00
thb_ec6e018d7d19,Zirkus Zack,zirkus-zack,theatre,Vuesch gGmbH,<NA>,,,https://vuesch.org/zack/,,,Revaler Straße 99,Revaler Straße,99,,Berlin,DE,circus,circus,11002002,Friedrichshain-Kreuzberg,0201,13.4540503,52.5076794,2025-10-12T23:39:15+02:00
thb_bd082870c4bd,Jaro Theater,jaro,theatre,<NA>,<NA>,yes,,,,,Schlangenbader Straße 30,Schlangenbader Straße,30,,Berlin,DE,,,11004004,Charlottenburg-Wilmersdorf,0402,13.307744999999999,52.471647499999996,2025-10-12T23:39:15+02:00
thb_68dcca1fbb44,Piano Salon Christophori,piano-salon-christophori,theatre,<NA>,<NA>,yes,,https://www.konzertfluegel.com/,,,Uferstraße 8 13357 Berlin,Uferstraße,8,13357,Berlin,DE,chamber_music,concert_hall,11001001,Mitte,0106,13.3739474,52.55159689999999,2025-10-12T23:39:15+02:00
thb_620a00f98f4e,Il Kino,il,cinema,<NA>,Mo-Su 14:00-22:00+,yes,,https://ilkino.de/,+493062903878,,Nansenstraße 22 12047 Berlin,Nansenstraße,22,12047,Berlin,DE,,,11008008,Neukölln,0801,13.4330413,52.491664199999995,2025-10-12T23:39:15+02:00
thb_7285465c5f8d,Haus der Sinne,der-sinne,theatre,SchaukelSofaSündikat e.V.,<NA>,,,https://hausdersinne-berlin.de/,+4903043964313,info@hausdersinne-berlin.de,Ystader Straße 10 10437 Berlin,Ystader Straße,10,10437,Berlin,DE,,,11003003,Pankow,0301,13.404012299999998,52.5490912,2025-10-12T23:39:15+02:00
thb_6911bd7538eb,TD Berlin,td-berlin,theatre,<NA>,<NA>,,,https://td.berlin/,+493028093062,info@td.berlin,Klosterstraße 44 10179 Berlin,Klosterstraße,44,10179,Berlin,DE,drama,drama,11001001,Mitte,0101,13.4119798,52.51759929999999,2025-10-12T23:39:15+02:00
thb_d631d1b1ff7e,Connection Shop und Kino,connection-shop-und,cinema,<NA>,"Mo-Th 12:00-23:00, Fr,Sa 12:00-01:00, Su,PH 14:00-22:00",limited,,,,,,,,,Berlin,DE,,,11007007,Tempelhof-Schöneberg,0701,13.342707299999999,52.4989962,2025-10-12T23:39:15+02:00
thb_5a50de138d4f,UCI Luxe East Side Gallery,uci-luxe-east-side-gallery,cinema,Anschutz Entertainment Group,<NA>,yes,14.0,https://www.uci-kinowelt.de/kinoinformation/berlin-east-side-gallery/,,mercedesplatz@uci-kinowelt.de,Mildred-Harnack-Straße 13 10243 Berlin,Mildred-Harnack-Straße,13,10243,Berlin,DE,,,11002002,Friedrichshain-Kreuzberg,0201,13.441807199999998,52.50526419999999,2025-10-12T23:39:15+02:00
thb_df82611b349b,Ballhaus Prinzenallee,ballhaus-prinzenallee,theatre,Interkulturell Aktiv e.V.,<NA>,yes,,https://ballhausprinzenallee.de/,,,Prinzenallee 33 13359 Berlin,Prinzenallee,33,13359,Berlin,DE,,,11001001,Mitte,0106,13.386407700000001,52.55777379999999,2025-10-12T23:39:15+02:00
thb_42820d9eaade,Schlossplatztheater,schlossplatztheater,theatre,<NA>,<NA>,,,https://schlossplatztheater.de/,+49306516516,info@schlossplatztheater.de,Alt-Köpenick 31 12555 Berlin,Alt-Köpenick,31,12555,Berlin,DE,,,11009009,Treptow-Köpenick,0910,13.574743699999999,52.44546409999999,2025-10-12T23:39:15+02:00
thb_890971000c2e,Schlossplatztheater,schlossplatztheater,theatre,<NA>,<NA>,,,https://schlossplatztheater.de/,+49306516516,info@schlossplatztheater.de,Alt-Köpenick 31 12555 Berlin,Alt-Köpenick,31,12555,Berlin,DE,,,11009009,Treptow-Köpenick,0910,13.574743699999999,52.44546409999999,2025-10-12T23:39:15+02:00
thb_5266187a155a,Globe Theater Berlin,globe-berlin,theatre,GLOBE Berlin Theater gGmbH,<NA>,,,https://globe.berlin/,,,,,,,Berlin,DE,,,11004004,Charlottenburg-Wilmersdorf,0401,13.305274799999998,52.5221046,2025-10-12T23:39:15+02:00
thb_e3cbde4f644e,Zeughauskino,zeughauskino,cinema,<NA>,<NA>,limited,1.0,https://www.dhm.de/zeughauskino/,,,Unter den Linden 2 10117 Berlin,Unter den Linden,2,10117,Berlin,DE,,,11001001,Mitte,0101,13.397530099999999,52.51843550000001,2025-10-12T23:39:15+02:00
thb_d7b684833f96,Videokino Peliculoso,videokino-peliculoso,cinema,<NA>,Mo 21:00-23:30; Th 21:00-23:30,no,1.0,https://koepi137.net/peliculoso.html,,,Köpenicker Straße 137 10179 Berlin,Köpenicker Straße,137,10179,Berlin,DE,,,11001001,Mitte,0101,13.425995000000002,52.50777910000001,2025-10-12T23:39:15+02:00
thb_36aa26a33390,Theater X,x,theatre,Initiative Grenzen-los! e. V. Verein für emanzipative Bildung und kulturelle Aktion,<NA>,limited,,https://www.theater-x.com/,,,Wiclefstraße 32 10551 Berlin,Wiclefstraße,32,10551,Berlin,DE,,,11001001,Mitte,0102,13.329567899999999,52.531265399999995,2025-10-12T23:39:15+02:00
thb_47601c603955,Stage Bluemax Theater,stage-bluemax,theatre,Stage Entertainment Germany GmbH,<NA>,limited,,https://www.stage-entertainment.de/musicals-shows/blue-man-group-berlin/english,,,Marlene-Dietrich-Platz 4 10785 Berlin,Marlene-Dietrich-Platz,4,10785,Berlin,DE,,,11001001,Mitte,0104,13.3733397,52.50692599999999,2025-10-12T23:39:15+02:00
thb_7311c28986f1,Kino in der Königstadt,in-der-königstadt,cinema,<NA>,<NA>,,1.0,https://kino-bar.berlin/,,,Straßburger Straße 55 10405 Berlin,Straßburger Straße,55,10405,Berlin,DE,,,11003003,Pankow,0301,13.413028,52.52949339999999,2025-10-12T23:39:15+02:00
thb_0414f89fa1fc,Kulturbremse,kulturbremse,theatre,<NA>,<NA>,,,http://kulturbremse.mo-po.net/,,,Jagowstraße 29 10555 Berlin,Jagowstraße,29,10555,Berlin,DE,,,11001001,Mitte,0102,13.3337683,52.523168599999984,2025-10-12T23:39:15+02:00
thb_ee1b4075b82e,Kammermusiksaal Friedenau,kammermusiksaal-friedenau,theatre,<NA>,<NA>,no,,https://www.kammermusiksaal-friedenau.de/,,,Isoldestraße 9 12159 Berlin,Isoldestraße,9,12159,Berlin,DE,concert_hall; chamber_music,concert_hall,11007007,Tempelhof-Schöneberg,0702,13.3319721,52.476671399999994,2025-10-12T23:39:15+02:00
thb_7b3b152986ab,Hofkino,hofkino,cinema,<NA>,"Jun-Sep open ""Genaue Termine siehe Website.""",limited,1.0,https://hofkino.berlin/,,,Franz-Mehring-Platz 1 10243 Berlin,Franz-Mehring-Platz,1,10243,Berlin,DE,,,11002002,Friedrichshain-Kreuzberg,0201,13.4405751,52.51273760000001,2025-10-12T23:39:15+02:00
thb_c2ab7da885fb,Klick Kino,klick,cinema,<NA>,<NA>,limited,,https://www.klickkino.de/,,,Windscheidstraße 19 10627 Berlin,Windscheidstraße,19,10627,Berlin,DE,,,11004004,Charlottenburg-Wilmersdorf,0401,13.2993996,52.505432199999994,2025-10-12T23:39:15+02:00
thb_7b927eea5be7,ACUD Theater,acud,theatre,<NA>,<NA>,yes,,https://www.acud-theater.de/,+493044359497,,Veteranenstraße 21 10119 Berlin,Veteranenstraße,21,10119,Berlin,DE,,,11001001,Mitte,0101,13.4009767,52.5334318,2025-10-12T23:39:15+02:00
thb_2604b3991aa1,Papiertheater Invisius,papiertheater-invisius,theatre,<NA>,<NA>,,,http://www.invisius.de/,,,Forstweg 36 13465 Berlin,Forstweg,36,13465,Berlin,DE,,,11012012,Reinickendorf,1205,13.2808102,52.62590689999999,2025-10-12T23:39:15+02:00
thb_a1a3a8c2d239,Zinema,zinema,cinema,<NA>,19:00+,limited,1.0,https://zbarberlin.com/kino-z-inema/,+493028389121,zinema@gmx.de,Bergstraße 2 10115 Berlin,Bergstraße,2,10115,Berlin,DE,,,11001001,Mitte,0101,13.395860499999998,52.529586,2025-10-12T23:39:15+02:00
thb_ee83ffc05546,Lettrétage,lettrétage,theatre,<NA>,<NA>,,,https://www.lettretage.de/,,,,,,,Berlin,DE,,,11001001,Mitte,0101,13.401045799999999,52.53339,2025-10-12T23:39:15+02:00
thb_8a391b088236,Alpha Nova Werkstatttheter,alpha-nova-werkstatttheter,theatre,Kultur in Zehlendorf e.V.,<NA>,,,https://www.alpha-nova-werkstatttheater.de/,+493074696773,,Albrechtstraße 28 12167 Berlin,Albrechtstraße,28,12167,Berlin,DE,,,11006006,Steglitz-Zehlendorf,0601,13.329944099999999,52.453118799999984,2025-10-12T23:39:15+02:00
thb_8ec2c2aea740,Sommerkino Kulturforum,sommerkino-kulturforum,cinema,<NA>,Jun-Aug 21:15-23:45,yes,,https://www.yorck.de/kinos/sommerkino-kulturforum,+4930322931322,hilfe@yorck.de,Matthäikirchplatz 6 10785 Berlin,Matthäikirchplatz,6,10785,Berlin,DE,,,11001001,Mitte,0104,13.3671829,52.50878789999999,2025-10-12T23:39:15+02:00
thb_dda19f3cbd77,Freiluftkino Insel,freiluftkino-insel,cinema,<NA>,<NA>,,1.0,https://www.freiluftkino-insel.de/,,,Oberlandstraße 26-35 12099 Berlin,Oberlandstraße,26-35,12099,Berlin,DE,,,11007007,Tempelhof-Schöneberg,0703,13.410661899999997,52.464791999999996,2025-10-12T23:39:15+02:00
thb_e8e1e6a19e35,Theater Morgenstern,morgenstern,theatre,<NA>,<NA>,yes,,https://www.theater-morgenstern.de/,+493092355950,,Rheinstraße 1 12159 Berlin,Rheinstraße,1,12159,Berlin,DE,children,children,11007007,Tempelhof-Schöneberg,0702,13.3363405,52.47281370000001,2025-10-12T23:39:15+02:00
thb_fae22a906747,Puppenbühnchen,puppenbühnchen,theatre,<NA>,<NA>,,,,,,Georg-Wilhelm-Straße 4 10711 Berlin,Georg-Wilhelm-Straße,4,10711,Berlin,DE,puppet,puppet_theatre,11004004,Charlottenburg-Wilmersdorf,0407,13.2906051,52.49832469999999,2025-10-12T23:39:15+02:00
thb_94f094467ad8,Tatwerk Theater,tatwerk,theatre,<NA>,<NA>,,,https://tatwerk-berlin.de/das-tatwerk/studio,,space@tatwerk-berlin.de,Hasenheide 9 10967,Hasenheide,9,10967,Berlin,DE,,,11002002,Friedrichshain-Kreuzberg,0202,13.4222367,52.4880488,2025-10-12T23:39:15+02:00
thb_0ca6b00a383f,Stadttheater Cöpenick,stadttheater-cöpenick,theatre,Stadttheater-Köpenick e.V.,<NA>,,,http://www.stadttheater-coepenick.de/,+493065075483,info@stadttheater-koepenick.de,,,,,Berlin,DE,,,11009009,Treptow-Köpenick,0910,13.582361,52.44200339999999,2025-10-12T23:39:15+02:00
thb_6d912309b300,Sinema Transtopia,sinema-transtopia,cinema,bi'bak e.V.,<NA>,limited,,https://sinematranstopia.com/de,,info@bi-bak.de,Lindower Straße 20/22,Lindower Straße,20/22,,Berlin,DE,,,11001001,Mitte,0105,13.367239299999998,52.54379509999998,2025-10-12T23:39:15+02:00
thb_6f04121f1dc9,theaterforum kreuzberg,theaterforum-kreuzberg,theatre,<NA>,<NA>,,,https://tfk-berlin.de/,+493061288880,info@tfk-berlin.de,Eisenbahnstraße 21,Eisenbahnstraße,21,,Berlin,DE,,,11002002,Friedrichshain-Kreuzberg,0202,13.4344545,52.504010799999996,2025-10-12T23:39:15+02:00
thb_bffd2af572c9,Uferstudios für zeitgenössischen Tanz,uferstudios-für-zeitgenössischen-tanz,theatre,uferstudios GmbH,<NA>,yes,,https://www.uferstudios.com/de/home,,,Badstraße 41a 13357 Berlin,Badstraße,41a,13357,Berlin,DE,,,11001001,Mitte,0106,13.3762533,52.55266629999999,2025-10-12T23:39:15+02:00
thb_604db44fb5b7,Luftschloss,luftschloss,theatre,<NA>,<NA>,,,https://luftschloss-tempelhoferfeld.de/,,,,,,,Berlin,DE,open_air,open_air,11007007,Tempelhof-Schöneberg,0703,13.388691799999998,52.4737158,2025-10-12T23:39:15+02:00
thb_399d4f78662c,Komödie am Kurfürstendamm,komödie-am-kurfürstendamm,theatre,<NA>,<NA>,limited,,https://www.komoedie-berlin.de/,+49308859110,,Marlene-Dietrich-Platz 1 10785 Berlin,Marlene-Dietrich-Platz,1,10785,Berlin,DE,stage; comedy,stage,11001001,Mitte,0104,13.372109899999998,52.50746929999999,2025-10-12T23:39:15+02:00
thb_9590ea83f3f6,Colosseum Filmtheater Berlin,colosseum-filmtheater-berlin,cinema,<NA>,"""Kasse öffnet eine halbe Stunde vor Beginn der ersten Vorstellung""",,3.0,https://colosseum.premiumkino.de/,,,Schönhauser Allee 123 10437 Berlin,Schönhauser Allee,123,10437,Berlin,DE,,,11003003,Pankow,0301,13.4130423,52.547894199999995,2025-10-12T23:39:15+02:00
thb_919de73238fa,Zilles Stubentheater im Altstadttheater Köpenick,zilles-stubentheater-im-altstadttheater-köpenick,theatre,Altstadttheater Köpenick,<NA>,,,https://altstadttheater-koepenick.de/,,,Jägerstraße 4 12555 Berlin,Jägerstraße,4,12555,Berlin,DE,,,11009009,Treptow-Köpenick,0910,13.577882699999998,52.44574539999999,2025-10-12T23:39:15+02:00
thb_21da425855b9,Altstadttheater Köpenick,altstadttheater-köpenick,theatre,Albrecht Hoffmann,"Th-Sa 18:00-22:00, We 14:30-21:00, Th 11:00-14:00, Su 15:00-18:00",yes,,https://altstadttheater-koepenick.de/,+493066309320,info@altstadttheater-koepenick.de,Jägerstraße 4 12555 Berlin,Jägerstraße,4,12555,Berlin,DE,,,11009009,Treptow-Köpenick,0910,13.577871999999997,52.4458991,2025-10-12T23:39:15+02:00
thb_dc58da86917c,Expedition Metropolis,expedition-metropolis,theatre,<NA>,<NA>,,,https://expedition-metropolis.de/,+493047980152,info@expedition-metropolis.de,Ohlauer Straße 41 10999 Berlin,Ohlauer Straße,41,10999,Berlin,DE,,,11002002,Friedrichshain-Kreuzberg,0202,13.429410799999998,52.49437979999999,2025-10-12T23:39:15+02:00
thb_28b1ebefdf51,Wolfgang Neuss Salon,wolfgang-neuss-salon,theatre,<NA>,<NA>,,,,,,,,,,Berlin,DE,,,11007007,Tempelhof-Schöneberg,0703,13.382492299999997,52.454419,2025-10-12T23:39:15+02:00
thb_f73a5e927338,Varieté Salon,varieté-salon,theatre,<NA>,<NA>,,,,,,,,,,Berlin,DE,,,11007007,Tempelhof-Schöneberg,0703,13.3823482,52.45432339999999,2025-10-12T23:39:15+02:00
thb_948b8d0cf145,"Theater Strahl, Ostkreuz",strahl-ostkreuz,theatre,<NA>,<NA>,,,,,,,,,,Berlin,DE,,,11011011,Lichtenberg,1112,13.471839399999999,52.50427989999999,2025-10-12T23:39:15+02:00
thb_f12542c12595,Monbijou Theater,monbijou,theatre,<NA>,<NA>,,,https://www.berlin-buehnen.de/en/theatres/monbijou-theater/,,,Monbijoustraße 2b,Monbijoustraße,2b,,Berlin,DE,,,11001001,Mitte,0101,13.394789899999997,52.523060099999995,2025-10-12T23:39:15+02:00
thb_d02b7d244bd5,Charlies Campus Filmclub (Unikino TU Berlin),charlies-campus-filmclub-unikino-tu-berlin,cinema,<NA>,"Di 18:45-22:00 open, Di 18:30-18:45 open ""Kasse""",yes,1.0,https://unikinoberlin.de/,,charlie@unifilm.de,Straße des 17. Juni 136 10623 Berlin,Straße des 17. Juni,136,10623,Berlin,DE,,,11004004,Charlottenburg-Wilmersdorf,0401,13.3262548,52.51347019999999,2025-10-12T23:39:15+02:00
thb_57d35454ede7,halle tanzbühne berlin,halle-tanzbühne-berlin,theatre,<NA>,<NA>,,,https://ticket.toula.de/,+493044044292,ticket@toula.de,Eberswalder Straße 10 10437,Eberswalder Straße,10,10437,Berlin,DE,,,11003003,Pankow,0301,13.407208799999998,52.54058039999999,2025-10-12T23:39:15+02:00
thb_5b8a9b705750,Theater am Schlachthof,am-schlachthof,theatre,<NA>,<NA>,,,,,,Hausburgstraße 22 10249,Hausburgstraße,22,10249,Berlin,DE,,,11002002,Friedrichshain-Kreuzberg,0201,13.4545614,52.5238959,2025-10-12T23:39:15+02:00
thb_080b28e08ccd,Freiluftkino Neue Zukunft,freiluftkino-neue-zukunft,cinema,<NA>,"""Open only during summer for OpenLuftKino""",limited,,https://neue-zukunft.org/,,,,,,,Berlin,DE,,,11002002,Friedrichshain-Kreuzberg,0201,13.4661487,52.4979656,2025-10-12T23:39:15+02:00
thb_7825eb14952e,Kindertheater,kindertheater,theatre,<NA>,<NA>,,,,,,,,,,Berlin,DE,,,11009009,Treptow-Köpenick,0903,13.476464699999998,52.4545993,2025-10-12T23:39:15+02:00
thb_218909bb7c4b,Theater am Park,am-park,theatre,<NA>,<NA>,no,,https://www.tap-biesdorf.de/,+49305143714,,Frankenholzer Weg 4 12683 Berlin,Frankenholzer Weg,4,12683,Berlin,DE,,,11010010,Marzahn-Hellersdorf,1002,13.564731616054589,52.51100298334422,2025-10-12T23:39:15+02:00
thb_fb15ef763d30,Philharmonie,philharmonie,theatre,<NA>,<NA>,yes,,https://www.berliner-philharmoniker.de/,+493025488999,,Herbert-von-Karajan-Straße 1 10785 Berlin,Herbert-von-Karajan-Straße,1,10785,Berlin,DE,concert_hall; philharmonic,concert_hall,11001001,Mitte,0104,13.369701799364268,52.50998823300208,2025-10-12T23:39:15+02:00
thb_7224057df250,Waldbühne,waldbühne,theatre,<NA>,<NA>,yes,,https://www.waldbuehne-berlin.de/,+493074737500,,Am Glockenturm 1 14053 Berlin,Am Glockenturm,1,14053,Berlin,DE,,,11004004,Charlottenburg-Wilmersdorf,0405,13.22933057290555,52.51549684495646,2025-10-12T23:39:15+02:00
thb_60fdf2aa2a0b,Freiluftkino Rehberge,freiluftkino-rehberge,cinema,Freiluftkino.Berlin FKR GmbH,"""30 Minuten vor Vorstellungsbeginn""",yes,1.0,https://www.freiluftkino-rehberge.de/,,,Berlin,,,,Berlin,DE,,,11001001,Mitte,0105,13.330203394595046,52.554906514934686,2025-10-12T23:39:15+02:00
thb_642eeb3226a4,Staatsoper Unter den Linden,staatsoper-unter-den-linden,theatre,<NA>,<NA>,limited,,https://www.staatsoper-berlin.de/,,,Unter den Linden 7 10117 Berlin,Unter den Linden,7,10117,Berlin,DE,opera_house; opera,opera_house,11001001,Mitte,0101,13.394745099041254,52.516657312842746,2025-10-12T23:39:15+02:00
thb_f4118567ad9b,Ernst-Reuter-Saal,ernst-reuter-saal,theatre,<NA>,<NA>,yes,,,,,,,,,Berlin,DE,,,11012012,Reinickendorf,1209,13.3239299023027,52.588384422396814,2025-10-12T23:39:15+02:00
thb_be21368412d2,Theater unterm Dach,unterm-dach,theatre,<NA>,<NA>,no,,https://www.theateruntermdach-berlin.de/,+4930902953817,theateruntermdach@gmx.de,Danziger Straße 101 10405 Berlin,Danziger Straße,101,10405,Berlin,DE,,,11003003,Pankow,0301,13.430950959369166,52.53750899243246,2025-10-12T23:39:15+02:00
thb_8085c4e4ee0f,Freilichtbühne Weißensee,freilichtbühne-weißensee,cinema,Freunde der Freilichtbühne Weißensee e.V.,"""60 Minuten vor Vorstellungsbeginn""",,,https://freilichtbuehne-weissensee.de/,,,,,,,Berlin,DE,,,11003003,Pankow,0302,13.463298071048872,52.5561526499415,2025-10-12T23:39:15+02:00
thb_9ebad42c9321,Zoo Palast,zoo-palast,cinema,Premium Entertainment GmbH,<NA>,yes,,https://www.zoopalast-berlin.de/,+491805222966,,Hardenbergstraße 29a 10623 Berlin,Hardenbergstraße,29a,10623,Berlin,DE,,,11004004,Charlottenburg-Wilmersdorf,0401,13.334206107482894,52.5060814718443,2025-10-12T23:39:15+02:00
thb_878a3615ce65,Kino in der Kulturbrauerei,in-der-kulturbrauerei,cinema,Cinestar,<NA>,yes,,https://www.cinestar.de/,+493044354416,,,,,,Berlin,DE,,,11003003,Pankow,0301,13.414157864904992,52.53863135476273,2025-10-12T23:39:15+02:00
thb_fb188e8a5cd0,Cineplex Alhambra,cineplex-alhambra,cinema,Cineplex Deutschland,<NA>,yes,,https://www.cineplex.de/berlin-alhambra/,,,Seestraße 94 13353 Berlin,Seestraße,94,13353,Berlin,DE,,,11001001,Mitte,0105,13.35109166490576,52.550570712818214,2025-10-12T23:39:15+02:00
thb_f3ae14ae7a1e,Odeon,odeon,cinema,Yorck Kinogruppe,"""Täglich 15 Minuten vor Beginn der ersten Vorstellung""",limited,1.0,https://yorck.de/kinos/odeon,+493078704019,,Hauptstraße 116 10827 Berlin,Hauptstraße,116,10827,Berlin,DE,,,11007007,Tempelhof-Schöneberg,0701,13.349650340433028,52.482047007807175,2025-10-12T23:39:15+02:00
thb_fed9714cbae3,theaterhaus berlin mitte,theaterhaus-berlin-mitte,theatre,Kulturinitiative Förderband gGmbH,Mo-Sa 10:00-20:00,no,,https://www.theaterhaus-berlin.com/,+493028041966,info-mitte@theaterhaus.berlin,Wallstraße 32 - Haus C 10179 Berlin,Wallstraße,32 - Haus C,10179,Berlin,DE,,,11001001,Mitte,0101,13.411175353518379,52.511051964086214,2025-10-12T23:39:15+02:00
thb_b4ea6a9ef6ed,Cabuwazi,cabuwazi,theatre,Grenzkultur gGmbH,<NA>,,,https://cabuwazi.de/,,,Otto-Rosenberg-Straße 2 12681 Berlin,Otto-Rosenberg-Straße,2,12681,Berlin,DE,circus,circus,11010010,Marzahn-Hellersdorf,1001,13.547571802770602,52.55194762804395,2025-10-12T23:39:15+02:00
thb_2b46a472712d,Kino International,international,cinema,Yorck Kinogruppe,closed,limited,1.0,https://yorck.de/kinos/kino-international,+4930322931322,,Karl-Marx-Allee 33 10178 Berlin,Karl-Marx-Allee,33,10178,Berlin,DE,,,11001001,Mitte,0101,13.423008963147575,52.52063669650074,2025-10-12T23:39:15+02:00
thb_8c996cc0e14c,Atze Musiktheater,atze-musiktheater,theatre,<NA>,<NA>,yes,,http://www.atzeberlin.de/,+493081799188,,Luxemburger Straße 20 13353 Berlin,Luxemburger Straße,20,13353,Berlin,DE,,,11001001,Mitte,0105,13.351539956954479,52.54323801112325,2025-10-12T23:39:15+02:00
thb_2d29d2b91dd5,GRIPS Theater,grips,theatre,GRIPS Theater GmbH,<NA>,yes,,http://www.grips-theater.de/,+49303974740,info@grips-theater.de,Altonaer Straße 22 10557 Berlin,Altonaer Straße,22,10557,Berlin,DE,,,11001001,Mitte,0103,13.3414238616854,52.518668743273224,2025-10-12T23:39:15+02:00
thb_9b56d82290d8,Haus der Berliner Festspiele,der-berliner-festspiele,theatre,Berliner Festspiele,<NA>,yes,,https://www.berlinerfestspiele.de/,,,Schaperstraße 24 10719 Berlin,Schaperstraße,24,10719,Berlin,DE,,,11004004,Charlottenburg-Wilmersdorf,0402,13.328693403456755,52.49849508576962,2025-10-12T23:39:15+02:00
thb_cfe6362e0393,Capitol Dahlem,capitol-dahlem,cinema,Yorck Kinogruppe,"""Irregular screenings, see website""",,1.0,https://yorck.de/kinos/capitol-dahlem,+49308316417,,Thielallee 36 14195 Berlin,Thielallee,36,14195,Berlin,DE,,,11006006,Steglitz-Zehlendorf,0605,13.286835139371645,52.453031867192315,2025-10-12T23:39:15+02:00
thb_dde593721e0a,Bar jeder Vernunft,bar-jeder-vernunft,theatre,Bar jeder Vernunft Veranstaltungs-Organisations-GmbH,<NA>,limited,,https://www.bar-jeder-vernunft.de/,,,Schaperstraße 24 10719 Berlin,Schaperstraße,24,10719,Berlin,DE,,,11004004,Charlottenburg-Wilmersdorf,0402,13.329585895890368,52.498008946835874,2025-10-12T23:39:15+02:00
thb_c7c4d2322e7f,Konzertsaal,konzertsaal,theatre,Universität der Künste Berlin,<NA>,,,https://www.udk-berlin.de/universitaet/veranstaltungsort-udk-berlin/konzertsaal/,,,Hardenbergstraße 33,Hardenbergstraße,33,,Berlin,DE,concert_hall; philharmonic,concert_hall,11004004,Charlottenburg-Wilmersdorf,0401,13.328160076785728,52.5089209266992,2025-10-12T23:39:15+02:00
thb_34f6c3da0e70,Delphi Filmpalast,delphi-filmpalast,cinema,Yorck Kinogruppe,"""Öffnet 30min vor Beginn des ersten Films (etwa 14 Uhr), Kasse schließt um 21 Uhr, Haus schließt 30min nach Ende des letzten Films""",no,1.0,https://www.yorck.de/kinos/delphi-filmpalast,+49303121026,,Kantstraße 12a 10623 Berlin,Kantstraße,12a,10623,Berlin,DE,,,11004004,Charlottenburg-Wilmersdorf,0401,13.328503362279738,52.506040856387784,2025-10-12T23:39:15+02:00
thb_6293251d96f9,Schlosspark Theater,schlosspark,theatre,<NA>,"Mo-Sa 10:00-20:00, Su 12:00+",limited,,http://schlosspark-theater.de/,+49307895667100,,Schloßstraße 48 12165 Berlin,Schloßstraße,48,12165,Berlin,DE,drama,drama,11006006,Steglitz-Zehlendorf,0601,13.31769799874575,52.45489440634816,2025-10-12T23:39:15+02:00
thb_061ae3344977,Adria Filmtheater,adria-filmtheater,cinema,<NA>,<NA>,limited,,http://www.berlin.de/kino/_bin/kinodetail.php/30152,+49307925050,,Schloßstraße 48 12165 Berlin,Schloßstraße,48,12165,Berlin,DE,,,11006006,Steglitz-Zehlendorf,0601,13.317408071659727,52.45469705431418,2025-10-12T23:39:15+02:00
thb_219089a6df64,Figurentheater Grashüpfer,figurentheater-grashüpfer,theatre,<NA>,<NA>,,,https://theater-treptower-park.de/,+493053695150,,Puschkinallee 16a 12435 Berlin,Puschkinallee,16a,12435,Berlin,DE,,,11009009,Treptow-Köpenick,0901,13.466180722324518,52.49167247052359,2025-10-12T23:39:15+02:00
thb_531f18d016ca,Freie Volksbühne Berlin,freie-volksbühne-berlin,theatre,<NA>,<NA>,,,,,,,,,,Berlin,DE,drama,drama,11004004,Charlottenburg-Wilmersdorf,0402,13.308207360375079,52.49132667610953,2025-10-12T23:39:15+02:00
thb_821ca12bf45f,MEINE BÜHNE Kinder & JugendTheater,meine-bühne-kinder-jugendtheater,theatre,Kinder & JugendTheater MURKELBÜHNE e.V.,<NA>,no,,https://www.spiel-doch-selber.de/,+49304483354,info@spiel-doch-selber.de,Boxhagener Straße 99 10245 Berlin,Boxhagener Straße,99,10245,Berlin,DE,,,11002002,Friedrichshain-Kreuzberg,0201,13.461076217091513,52.51235252593272,2025-10-12T23:39:15+02:00
thb_7874510e0e32,Theaterzelt,theaterzelt,theatre,<NA>,<NA>,,,,,,,,,,Berlin,DE,,,11008008,Neukölln,0803,13.406464911326443,52.420544580522424,2025-10-12T23:39:15+02:00
thb_ba4a4bc2c53e,Parkbühne Wuhlheide,parkbühne-wuhlheide,theatre,<NA>,<NA>,yes,,https://www.wuhlheide.de/,,,Straße zum FEZ 4 12459 Berlin,Straße zum FEZ,4,12459,Berlin,DE,variety,variety,11009009,Treptow-Köpenick,0909,13.54546057023878,52.46233877960197,2025-10-12T23:39:15+02:00
thb_84fd7dc36a54,Stage Theater des Westens,stage-des-westens,theatre,Stage Entertainment Germany GmbH,<NA>,yes,,http://www.theater-des-westens.de/,+4918054444,,Kantstraße 12 10623 Berlin,Kantstraße,12,10623,Berlin,DE,musical,musical,11004004,Charlottenburg-Wilmersdorf,0401,13.328995581464836,52.50589141971285,2025-10-12T23:39:15+02:00
thb_0f78ac102372,FELD,feld,theatre,FELD Zentrale für junge Performance e.V.,<NA>,yes,,https://jungesfeld.de/,+493092124150,info@jungesfeld.de,Gleditschstraße 5 10781 Berlin,Gleditschstraße,5,10781,Berlin,DE,puppet,puppet_theatre,11007007,Tempelhof-Schöneberg,0701,13.355334011387065,52.49645197355362,2025-10-12T23:39:15+02:00
thb_6de705f49b29,Bali Kino,bali,cinema,Helgard Gammert,"PH,Mo-Su 16:00-23:00",limited,,http://www.balikino-berlin.de/,+49308114678,,Teltower Damm 33 14169 Berlin,Teltower Damm,33,14169,Berlin,DE,,,11006006,Steglitz-Zehlendorf,0604,13.259706233748119,52.431896096177546,2025-10-12T23:39:15+02:00
thb_72e3c4ef6dca,Bali Kino,bali,cinema,Helgard Gammert,"PH,Mo-Su 16:00-23:00",limited,,http://www.balikino-berlin.de/,+49308114678,,Teltower Damm 33 14169 Berlin,Teltower Damm,33,14169,Berlin,DE,,,11006006,Steglitz-Zehlendorf,0604,13.259706233748119,52.431896096177546,2025-10-12T23:39:15+02:00
thb_df970a6b945d,Bali Kino,bali,cinema,Helgard Gammert,"PH,Mo-Su 16:00-23:00",limited,,http://www.balikino-berlin.de/,+49308114678,,Teltower Damm 33 14169 Berlin,Teltower Damm,33,14169,Berlin,DE,,,11006006,Steglitz-Zehlendorf,0604,13.259706233748119,52.431896096177546,2025-10-12T23:39:15+02:00
thb_be66d1720e95,Astra-Filmpalast,astra-filmpalast,cinema,<NA>,<NA>,limited,,http://www.astra-filmpalast.de/,+49306361650,info@astra-filmpalast.de,Sterndamm 69 12487 Berlin,Sterndamm,69,12487,Berlin,DE,,,11009009,Treptow-Köpenick,0904,13.507288147059887,52.44646572807909,2025-10-12T23:39:15+02:00
thb_0a150903222c,HAU 1 (Hebbel am Ufer),hau-1-hebbel-am-ufer,theatre,<NA>,<NA>,limited,,https://www.hebbel-am-ufer.de/,+493025900427,info@hebbel-am-ufer.de,Stresemannstraße 29 10963 Berlin,Stresemannstraße,29,10963,Berlin,DE,,,11002002,Friedrichshain-Kreuzberg,0202,13.387149400549001,52.49995261778664,2025-10-12T23:39:15+02:00
thb_cfa20b19d531,Tiyatrom,tiyatrom,theatre,<NA>,<NA>,,,http://www.tiyatrom.de/,+49306152020,,Alte Jakobstraße 12 10969 Berlin,Alte Jakobstraße,12,10969,Berlin,DE,,,11002002,Friedrichshain-Kreuzberg,0202,13.399304789586944,52.50381090932941,2025-10-12T23:39:15+02:00
thb_3c254f253c43,Konzertbühne,konzertbühne,theatre,<NA>,<NA>,yes,,,,,,,,,Berlin,DE,,,11011011,Lichtenberg,1101,13.526109098209231,52.498893967882154,2025-10-12T23:39:15+02:00
thb_1b7bc0b0f04b,Thalia Kino,thalia,cinema,<NA>,<NA>,no,,https://www.thalia-berlin.de/,+49307743440,info@thalia-berlin.de,Kaiser-Wilhelm-Straße 71a 12247 Berlin,Kaiser-Wilhelm-Straße,71a,12247,Berlin,DE,,,11006006,Steglitz-Zehlendorf,0603,13.34493997275318,52.43500502233658,2025-10-12T23:39:15+02:00
thb_3d42482afb56,Theater Ost,ost,theatre,Theater OST,<NA>,,,https://www.theater-ost.de/,+493023934579,kontakt@theater-ost.de,Moriz-Seeler-Straße 1 12489 Berlin,Moriz-Seeler-Straße,1,12489,Berlin,DE,,,11009009,Treptow-Köpenick,0907,13.539177016771914,52.43362794272124,2025-10-12T23:39:15+02:00
thb_de7cf48c7ef2,CineStar,cinestar,cinema,<NA>,"Mo-Fr ""15 Minuten vor dem ersten Filmstart""; Sa-Su ""30 Minuten vor dem ersten Filmstart""",yes,,,,,Elsenstraße 115 - 116 12435 Berlin,Elsenstraße,115 - 116,12435,Berlin,DE,,,11009009,Treptow-Köpenick,0901,13.458688268374203,52.4919355096245,2025-10-12T23:39:15+02:00
thb_a6b918aace8e,CineMotion,cinemotion,cinema,<NA>,<NA>,yes,,https://cinemotion-kino.de/berlin/,+493096243100,,Wartenberger Straße 174 13051 Berlin,Wartenberger Straße,174,13051,Berlin,DE,,,11011011,Lichtenberg,1109,13.50891181929724,52.56618520924997,2025-10-12T23:39:15+02:00
thb_31e01d31bde1,Kinder-Zirkus Cabuwazi,kinder-zirkus-cabuwazi,theatre,<NA>,<NA>,,,http://www.cabuwazi.de/Standorte/Altglienicke.php,,,Venusstraße 90 12524 Berlin,Venusstraße,90,12524,Berlin,DE,circus,circus,11009009,Treptow-Köpenick,0906,13.532683234393401,52.40393401598455,2025-10-12T23:39:15+02:00
thb_c1c64fa50845,Café Theater Schalotte,café-schalotte,theatre,Café Theater Schalotte,<NA>,no,,http://www.schalotte.de/,+49303411485,info@schalotte.de,Behaimstraße 22 10585 Berlin,Behaimstraße,22,10585,Berlin,DE,,,11004004,Charlottenburg-Wilmersdorf,0401,13.303363449617502,52.516665752387496,2025-10-12T23:39:15+02:00
thb_cb942bc2df22,Madi – Zelt der Sinne,madi-zelt-der-sinne,theatre,<NA>,<NA>,no,,https://www.madi-zelt.de/,,,1 13507 Berlin,,1,13507,Berlin,DE,,,11012012,Reinickendorf,1202,13.293519134531591,52.57563513414692,2025-10-12T23:39:15+02:00
thb_a6992589e7fa,Freiluftkino Hasenheide,freiluftkino-hasenheide,cinema,<NA>,May-Sep sunset+,limited,,https://www.freiluftkino-hasenheide.de/,+49302834603,,,Volkspark Hasenheide,,10178,Berlin,DE,,,11008008,Neukölln,0801,13.416398313413792,52.483617318248925,2025-10-12T23:39:15+02:00
thb_b665247823d8,Konzerthaus Berlin,konzerthaus-berlin,theatre,<NA>,<NA>,yes,,https://www.konzerthaus.de/,+4930203092101,ticket@konzerthaus.de,3 10117 Berlin,,3,10117,Berlin,DE,concert_hall; philharmonic,concert_hall,11001001,Mitte,0101,13.391815884113626,52.513584024498265,2025-10-12T23:39:15+02:00
thb_cf090653ee4f,Sommerbühne,sommerbühne,theatre,<NA>,<NA>,,,,,,,,,,Berlin,DE,open_air,open_air,11007007,Tempelhof-Schöneberg,0703,13.381357143324978,52.45365203894218,2025-10-12T23:39:15+02:00
thb_e555e441e081,Theatersaal,theatersaal,theatre,<NA>,<NA>,,,,,,,,,,Berlin,DE,,,11007007,Tempelhof-Schöneberg,0703,13.381072050928644,52.45391844273409,2025-10-12T23:39:15+02:00
thb_689df4659585,Max-Taut-Aula,max-taut-aula,theatre,<NA>,<NA>,yes,,,,,Fischerstraße,Fischerstraße,,,Berlin,DE,,,11011011,Lichtenberg,1112,13.486251362336729,52.50122619272546,2025-10-12T23:39:15+02:00
thb_66b9a34de585,Tipi am Kanzleramt,tipi-am-kanzleramt,theatre,Bar jeder Vernunft Veranstaltungs-Organisations-GmbH,<NA>,yes,,https://www.tipi-am-kanzleramt.de/,,,Große Querallee 10557,Große Querallee,,10557,Berlin,DE,,,11001001,Mitte,0104,13.367164169515892,52.51844452093625,2025-10-12T23:39:15+02:00
thb_8e6e949e4999,Kino Union,union,cinema,<NA>,Th-Tu 12:30-24:00+; We 09:30-24:00+,yes,,https://www.kino-union.de/,+493065013141,,,,,,Berlin,DE,,,11009009,Treptow-Köpenick,0911,13.62591097482147,52.45631137148213,2025-10-12T23:39:15+02:00
thb_54fc16fe6809,Kino Union,union,cinema,<NA>,Th-Tu 12:30-24:00+; We 09:30-24:00+,yes,,https://www.kino-union.de/,+493065013141,,,Levetzowstraße 3-,5,10555,Berlin,DE,,,11009009,Treptow-Köpenick,0911,13.62591097482147,52.45631137148213,2025-10-12T23:39:15+02:00
thb_45845ac2e145,Kino Union,union,cinema,<NA>,Th-Tu 12:30-24:00+; We 09:30-24:00+,yes,,https://www.kino-union.de/,+493065013141,,,Kienitzer Straße,85,12053,Berlin,DE,,,11009009,Treptow-Köpenick,0911,13.62591097482147,52.45631137148213,2025-10-12T23:39:15+02:00
thb_1aefdd118cf0,Kammermusiksaal,kammermusiksaal,theatre,<NA>,<NA>,yes,,,,,,,,,Berlin,DE,concert_hall; chamber_music,concert_hall,11001001,Mitte,0104,13.368994764789985,52.509350232599054,2025-10-12T23:39:15+02:00
thb_9e3dbe54707d,Freiluftkino Friedrichshagen,freiluftkino-friedrichshagen,cinema,<NA>,<NA>,limited,,,,,12587 Berlin,,,12587,Berlin,DE,,,11009009,Treptow-Köpenick,0911,13.623800281236827,52.4596054819508,2025-10-12T23:39:15+02:00
thb_af0e1b19417c,Freilichtbühne,freilichtbühne,theatre,<NA>,<NA>,,,,,,,,,,Berlin,DE,,,11011011,Lichtenberg,1101,13.531442158374272,52.500080635331685,2025-10-12T23:39:15+02:00
thb_45fdc562292f,Astrid-Lindgren-Bühne,astrid-lindgren-bühne,theatre,<NA>,<NA>,yes,,,,,,,,,Berlin,DE,,,11009009,Treptow-Köpenick,0909,13.549002880837117,52.461043848183,2025-10-12T23:39:15+02:00
thb_74bead794a82,Freilichtbühne Spandau,freilichtbühne-spandau,theatre,<NA>,<NA>,yes,,https://kulturhaus-spandau.de/,,,,,,,Berlin,DE,,,11005005,Spandau,0502,13.216778316807622,52.53985416421089,2025-10-12T23:39:15+02:00
thb_9884ef0a60fd,Schillertheater,schillertheater,theatre,<NA>,<NA>,yes,,https://www.komische-oper-berlin.de/planen/spielorte/schillertheater/,,,Bismarckstraße 110 10625 Berlin,Bismarckstraße,110,10625,Berlin,DE,stage,stage,11004004,Charlottenburg-Wilmersdorf,0401,13.318706664422315,52.51162904741165,2025-10-12T23:39:15+02:00
thb_c6974e8e4c1f,Berliner Ensemble,berliner-ensemble,theatre,<NA>,<NA>,limited,,http://www.berliner-ensemble.de/,+493028408153,,Bertolt-Brecht-Platz 1 10117 Berlin,Bertolt-Brecht-Platz,1,10117,Berlin,DE,,,11001001,Mitte,0101,13.385618738723615,52.52217057760625,2025-10-12T23:39:15+02:00
thb_53838f24d15a,Freilichtbühne,freilichtbühne,theatre,<NA>,<NA>,no,,,,,,,,,Berlin,DE,,,11011011,Lichtenberg,1103,13.477455101286749,52.517686043606275,2025-10-12T23:39:15+02:00
thb_2b8dd6c9c9d3,Arena,arena,theatre,<NA>,<NA>,yes,,,,,,,,,Berlin,DE,,,11010010,Marzahn-Hellersdorf,1001,13.571527648370875,52.53873068088667,2025-10-12T23:39:15+02:00
thb_6a30166f72a9,Biesdorfer Parkbühne,biesdorfer-parkbühne,theatre,<NA>,<NA>,no,,https://www.biesdorfer-parkbuehne.de/,,,Nordpromenade 5 12683 Berlin,Nordpromenade,5,12683,Berlin,DE,,,11010010,Marzahn-Hellersdorf,1002,13.559126787706232,52.51172063969167,2025-10-12T23:39:15+02:00
thb_e66567d6d9c5,Kinder- und Jugendzirkus Cabuwazi Tempelhof - Der Kulturflughafen,kinder--und-jugendzirkus-cabuwazi-tempelhof---der-kulturflughafen,theatre,GrenzKultur gemeinnützige GmbH,<NA>,yes,,http://www.cabuwazi.de/Standorte/Tempelhof.php,+49309599990,ylva.queisser@cabuwazi.de,Columbiadamm 84 10965 Berlin,Columbiadamm,84,10965,Berlin,DE,circus,circus,11007007,Tempelhof-Schöneberg,0703,13.401752466932846,52.48196041370343,2025-10-12T23:39:15+02:00
thb_4a5f6775ded8,Freilicht Klassenzimmer,freilicht-klassenzimmer,theatre,<NA>,<NA>,,,,,,,,,,Berlin,DE,,,11006006,Steglitz-Zehlendorf,0605,13.290628798898355,52.459448817842116,2025-10-12T23:39:15+02:00
thb_0b7d60daf678,Juxirkus,juxirkus,theatre,<NA>,<NA>,yes,,https://www.juxirkus.de/,,,,,,,Berlin,DE,circus,circus,11007007,Tempelhof-Schöneberg,0701,13.348080006711086,52.49469894690029,2025-10-12T23:39:15+02:00
thb_3ec09bd40855,Cabuwazi,cabuwazi,theatre,Grenzkultur gGmbH,<NA>,,,https://cabuwazi.de/,+493060969563,buero.treptow@cabuwazi.de,Bouchéstraße 74 12435 Berlin,Bouchéstraße,74,12435,Berlin,DE,circus,circus,11009009,Treptow-Köpenick,0901,13.44817032072963,52.48936505488904,2025-10-12T23:39:15+02:00
thb_488eef9868fd,Kinderzirkus Aron,kinderzirkus-aron,theatre,<NA>,<NA>,,,https://www.kinderzirkus-aron.de/,,,,,,,Berlin,DE,circus,circus,11009009,Treptow-Köpenick,0911,13.616609993685707,52.45667535804086,2025-10-12T23:39:15+02:00
thb_545241c8cf31,Grüne Bühne,grüne-bühne,theatre,<NA>,<NA>,yes,,https://www.gruene-buehne.berlin/,,,Luckenwalder Straße 5 12629 Berlin,Luckenwalder Straße,5,12629,Berlin,DE,,,11010010,Marzahn-Hellersdorf,1005,13.589510626115644,52.54367852597351,2025-10-12T23:39:15+02:00
thb_a5f478c73f85,Freiluftkino Friedrichshain,freiluftkino-friedrichshain,cinema,<NA>,<NA>,yes,1.0,https://freiluftkino-friedrichshain.de/,,,,Volkspark Friedrichshain / Landsberger Allee,15,10249,Berlin,DE,,,11002002,Friedrichshain-Kreuzberg,0201,13.435557958471076,52.52530774666248,2025-10-12T23:39:15+02:00
thb_29c98d44a1bf,Erlebniscircus Neukölln,erlebniscircus-neukölln,theatre,ErlebnisCircus e.V.,<NA>,,,http://www.erlebniscircus-ev.de/,+493063227432,info@erlebniscircus-ev.de,,,,,Berlin,DE,circus,circus,11008008,Neukölln,0802,13.439045640392704,52.43803702398122,2025-10-12T23:39:15+02:00
thb_cbcf8e2e7421,Zirkus Mond,zirkus-mond,theatre,Max Mohr,<NA>,,,https://zirkusmond.de/,+4915770280810,zirkusmond@posteo.de,Lilli-Henoch-Straße Berlin,Lilli-Henoch-Straße,,,Berlin,DE,circus; variety,circus,11003003,Pankow,0301,13.432500433400511,52.542281641466914,2025-10-12T23:39:15+02:00
thb_a99ca9e3b894,Shakespeare Company Berlin,shakespeare-company-berlin,theatre,Shakespeare Company Berlin e.V.,<NA>,,,https://shakespeare-company.de/,,info@shakespeare-company.de,Munsterdamm 80 12169 Berlin,Munsterdamm,80,12169,Berlin,DE,drama,drama,11006006,Steglitz-Zehlendorf,0601,13.349837124507781,52.45650912442611,2025-10-12T23:39:15+02:00
