addr_city,addr_housenumber,addr_postcode,addr_street,capacity_raw,coord_raw,entity_type,lat,lon,name,name_key,operator,owner,phone,source,street,street_norm,website,wikidata_id
Berlin,172,10783,Potsdamer Straße 170-,,Point(13.359166666 52.494722222),cinema,52.494722222,13.359166666,Berliner Sportpalast,berliner-sportpalast,,,,wikidata,"Potsdamer Straße 170–172, 10783 Berlin","Potsdamer Straße 170-172, 10783 Berlin",,Q686156
,,10557,,,Point(13.3648 52.5188),cinema,52.5188,13.3648,Haus der Kulturen der Welt,haus-der-kulturen-der-welt,,,+49 30 39 78 71 75,wikidata,,,https://www.hkw.de/,Q704933
Berlin,7,10997,Cuvrystraße,,Point(13.44506 52.49919),cinema,52.49919,13.44506,Lido,lido,,,,wikidata,"Cuvrystraße 7, 10997 Berlin","Cuvrystraße 7, 10997 Berlin",https://www.lido-berlin.de,Q47155480
Berlin,84,10405,Greifswalder Straße 81-,,Point(13.439105555 52.540927777),cinema,52.540927777,13.439105555,Schaubude Berlin,schaubude-berlin,,,,wikidata,"Greifswalder Straße 81-84, 10405 Berlin","Greifswalder Straße 81-84, 10405 Berlin",,Q43061296
,,,,,Point(13.344690105 52.507417709),cinema,52.507417709,13.344690105,Marmorsaal im Zoologischen Garten Berlin,marmorsaal-im-zoologischen-garten-berlin,,,,wikidata,,,,Q106873768
Berlin,100,12683,Prignitzstraße,,Point(13.5512 52.523),cinema,52.523,13.5512,Bio,bio,,,,wikidata,"Prignitzstraße 100, 12683 Berlin","Prignitzstraße 100, 12683 Berlin",,Q47116902
Berlin,15,12621,Alt-Kaulsdorf,,Point(13.582 52.5054),cinema,52.5054,13.582,Volks-Lichtspiele,volks-lichtspiele,,,,wikidata,"Alt-Kaulsdorf 15, 12621 Berlin","Alt-Kaulsdorf 15, 12621 Berlin",,Q47116930
Berlin,76,12623,Hönower Straße,,Point(13.6125 52.5118),cinema,52.5118,13.6125,Gloria,gloria,,,,wikidata,"Hönower Straße 76, 12623 Berlin","Hönower Straße 76, 12623 Berlin",,Q47117004
Berlin,54,12685,Alt-Marzahn,,Point(13.5611 52.5428),cinema,52.5428,13.5611,Alt-Marzahn 54,alt-marzahn-54,,,,wikidata,"Alt-Marzahn 54, 12685 Berlin","Alt-Marzahn 54, 12685 Berlin",,Q47117121
Berlin,12,12681,Helene-Weigel-Platz,,Point(13.5424 52.5265),cinema,52.5265,13.5424,Sojus,sojus,,,,wikidata,"Helene-Weigel-Platz 12, 12681 Berlin","Helene-Weigel-Platz 12, 12681 Berlin",,Q47117127
Berlin,178,12679,Märkische Allee 176-,,Point(13.5421 52.5417),cinema,52.5417,13.5421,UCI Kinowelt Am Eastgate,uci-kinowelt-am-eastgate,UCI Kinowelt,,,wikidata,"Märkische Allee 176-178, 12679 Berlin","Märkische Allee 176-178, 12679 Berlin",https://www.uci-kinowelt.de/kinoinformation/berlin-am-eastgate/44,Q47117136
Berlin,25,12627,Stendaler Straße,,Point(13.6041151 52.5377975),cinema,52.5377975,13.6041151,CineStar Berlin Hellersdorf,cinestar-berlin-hellersdorf,Cinestar,,,wikidata,"Stendaler Straße 25, 12627 Berlin","Stendaler Straße 25, 12627 Berlin",https://www.cinestar.de/kino-berlin-hellersdorf/,Q47117283
Berlin,10,12627,Heidenauer Straße,,Point(13.6094 52.5361),cinema,52.5361,13.6094,Die Kiste,die-kiste,,,,wikidata,"Heidenauer Straße 10, 12627 Berlin","Heidenauer Straße 10, 12627 Berlin",https://www.kiste.net/,Q47117291
,,,,,Point(13.41333 52.52167),cinema,52.52167,13.41333,Union-Theater,union-theater,,,,wikidata,,,,Q60792612
Berlin,48,12165,Schloßstraße,,Point(13.3181 52.4547),cinema,52.4547,13.3181,Schlosspark Theater,schlosspark-theater,,,,wikidata,"Schloßstraße 48, 12165 Berlin","Schloßstraße 48, 12165 Berlin",,Q2244661
Berlin,6 / 28,12163,Schloßstraße 5- / Gutsmuthsstraße,,Point(13.3267 52.4639),cinema,52.4639,13.3267,Titania-Palast,titania-palast,,,,wikidata,"Schloßstraße 5–6 / Gutsmuthsstraße 28, 12163 Berlin","Schloßstraße 5-6 / Gutsmuthsstraße 28, 12163 Berlin",,Q2436848
Berlin,1,12209,Oberhofer Weg,,Point(13.29526073 52.42759592),cinema,52.42759592,13.29526073,Wohn- und Geschäftshaus Oberhofer Weg 1,wohn-und-gesch-ftshaus-oberhofer-weg-1,,,,wikidata,"Oberhofer Weg 1, 12209 Berlin","Oberhofer Weg 1, 12209 Berlin",,Q32307794
Berlin,18,14169,Teltower Damm / Kirchstraße,,Point(13.259166666 52.433055555),cinema,52.433055555,13.259166666,Rathaus Zehlendorf,rathaus-zehlendorf,,,,wikidata,"Teltower Damm 18 / Kirchstraße, 14169 Berlin","Teltower Damm 18 / Kirchstraße, 14169 Berlin",,Q36692531
Berlin,36,14195,Thielallee,,Point(13.27258394 52.45303),cinema,52.45303,13.27258394,Capitol,capitol,Yorck Kinogruppe,,,wikidata,"Thielallee 36, 14195 Berlin","Thielallee 36, 14195 Berlin",https://www.yorck.de/kinos/capitol-dahlem,Q47046383
Berlin,135,14195,Clayallee,,Point(13.34606456 52.45596991),cinema,52.45596991,13.34606456,Outpost,outpost,,,,wikidata,"Clayallee 135, 14195 Berlin","Clayallee 135, 14195 Berlin",,Q47046631
Berlin,88,12247,Kaiser-Wilhelm-Straße,,Point(13.34301364 52.43673624),cinema,52.43673624,13.34301364,Capitol,capitol,,,,wikidata,"Kaiser-Wilhelm-Straße 88, 12247 Berlin","Kaiser-Wilhelm-Straße 88, 12247 Berlin",,Q47046697
Berlin,51,12247,Leonorenstraße,,Point(13.34301364 52.43673624),cinema,52.43673624,13.34301364,Lichtburg,lichtburg,,,,wikidata,"Leonorenstraße 51, 12247 Berlin","Leonorenstraße 51, 12247 Berlin",,Q47046725
Berlin,27,12249,Dillgesstraße,,Point(13.34301364 52.43673624),cinema,52.43673624,13.34301364,Gemeindehalle Lankwitz,gemeindehalle-lankwitz,,,,wikidata,"Dillgesstraße 27, 12249 Berlin","Dillgesstraße 27, 12249 Berlin",,Q47046836
Berlin,21,12247,Mühlenstraße,,Point(13.34485931 52.43694534),cinema,52.43694534,13.34485931,Mühlen-Lichtspiele,m-hlen-lichtspiele,,,,wikidata,"Mühlenstraße 21, 12247 Berlin","Mühlenstraße 21, 12247 Berlin",,Q47047054
Berlin,71,12249,Kaiser-Wilhelm-Straße,,Point(13.29752433 52.43508667),cinema,52.43508667,13.29752433,Thalia Kino Berlin,thalia-kino-berlin,,,,wikidata,"Kaiser-Wilhelm-Straße 71, 12249 Berlin","Kaiser-Wilhelm-Straße 71, 12249 Berlin",https://thalia-berlin.de/,Q47047390
Berlin,93a,12203,Hindenburgdamm,,Point(13.31566472 52.4427629),cinema,52.4427629,13.31566472,Central-Lichtspiele,central-lichtspiele,,,,wikidata,"Hindenburgdamm 93a, 12203 Berlin","Hindenburgdamm 93a, 12203 Berlin",,Q47047889
Berlin,50,12205,Drakestraße,,Point(13.3154209 52.44180326),cinema,52.44180326,13.3154209,Der Spiegel,der-spiegel,,,,wikidata,"Drakestraße 50, 12205 Berlin","Drakestraße 50, 12205 Berlin",,Q47048017
Berlin,58a,12203,Hindenburgdamm,,Point(13.3153594 52.44770981),cinema,52.44770981,13.3153594,Die Brücke,die-br-cke,,,,wikidata,"Hindenburgdamm 58a, 12203 Berlin","Hindenburgdamm 58a, 12203 Berlin",,Q47048074
Berlin,101a,12203,Hindenburgdamm,,Point(13.3054316 52.4387066),cinema,52.4387066,13.3054316,Paulus-Zentrum,paulus-zentrum,,,,wikidata,"Hindenburgdamm 101a, 12203 Berlin","Hindenburgdamm 101a, 12203 Berlin",,Q47051965
Berlin,78,12207,Ostpreußendamm,,Point(13.32680333 52.4186779),cinema,52.4186779,13.32680333,Odeon-Lichtspiele,odeon-lichtspiele,,,,wikidata,"Ostpreußendamm 78, 12207 Berlin","Ostpreußendamm 78, 12207 Berlin",,Q47052263
Berlin,57,12203,Unter den Eichen,,Point(13.294993 52.446773),cinema,52.446773,13.294993,Rex-Lichtspiele,rex-lichtspiele,,,,wikidata,"Unter den Eichen 57, 12203 Berlin","Unter den Eichen 57, 12203 Berlin",,Q47052647
Berlin,139,12203,Gardeschützenweg,,Point(13.317916 52.44278086),cinema,52.44278086,13.317916,Rio-Lichtspiele,rio-lichtspiele,,,,wikidata,"Gardeschützenweg 139, 12203 Berlin","Gardeschützenweg 139, 12203 Berlin",,Q47052686
Berlin,48,12165,Schloßstraße,,Point(13.321137 52.454724),cinema,52.454724,13.321137,Adria-Filmbühne,adria-filmb-hne,,,,wikidata,"Schloßstraße 48, 12165 Berlin","Schloßstraße 48, 12165 Berlin",https://www.cineplex.de/berlin-titania/,Q47053623
Berlin,1a,12165,Albrechtstraße,,Point(13.3395427 52.4570682),cinema,52.4570682,13.3395427,Albrechtshof-Lichtspiele,albrechtshof-lichtspiele,,,,wikidata,"Albrechtstraße 1a, 12165 Berlin","Albrechtstraße 1a, 12165 Berlin",,Q47053747
Berlin,69,12157,Bismarckstraße,,Point(13.33995849 52.4621795),cinema,52.4621795,13.33995849,Allegro,allegro,,,,wikidata,"Bismarckstraße 69, 12157 Berlin","Bismarckstraße 69, 12157 Berlin",,Q47053775
Berlin,68,12157,Bismarckstraße,,Point(13.34348778 52.46181624),cinema,52.46181624,13.34348778,Apollo-Filmbühne,apollo-filmb-hne,,,,wikidata,"Bismarckstraße 68, 12157 Berlin","Bismarckstraße 68, 12157 Berlin",,Q47053798
Berlin,26,12157,Thorwaldsenstraße,,Point(13.33839828 52.46217778),cinema,52.46217778,13.33839828,Asta-Lichtspiele,asta-lichtspiele,,,,wikidata,"Thorwaldsenstraße 26, 12157 Berlin","Thorwaldsenstraße 26, 12157 Berlin",,Q47053834
Berlin,15,12157,Poschingerstraße,,Point(13.3217753 52.46348288),cinema,52.46348288,13.3217753,Bismarck-Lichtspiele,bismarck-lichtspiele,,,,wikidata,"Poschingerstraße 15, 12157 Berlin","Poschingerstraße 15, 12157 Berlin",,Q47053869
Berlin,132,12165,Albrechtstraße,,Point(13.3216841 52.45747679),cinema,52.45747679,13.3216841,"Deutsches Theater, Steglitz",deutsches-theater-steglitz,,,,wikidata,"Albrechtstraße 132, 12165 Berlin","Albrechtstraße 132, 12165 Berlin",,Q47053909
Berlin,92,12163,Schloßstraße,,Point(13.3259983 52.4581095),cinema,52.4581095,13.3259983,Filmburg,filmburg,,,,wikidata,"Schloßstraße 92, 12163 Berlin","Schloßstraße 92, 12163 Berlin",,Q47053979
Berlin,10,12163,Schloßstraße,,Point(13.325972222 52.462916666),cinema,52.462916666,13.325972222,Flora-Lichtspiele,flora-lichtspiele,,,,wikidata,"Schloßstraße 10, 12163 Berlin","Schloßstraße 10, 12163 Berlin",,Q47054011
Berlin,10,12163,Schloßstraße,,Point(13.34915409 52.44949507),cinema,52.44949507,13.34915409,Globus-Palast Südende,globus-palast-s-dende,,,,wikidata,"Schloßstraße 10, 12163 Berlin","Schloßstraße 10, 12163 Berlin",,Q47054042
Berlin,23,12169,Steglitzer Damm,,Point(13.3243931 52.4510876),cinema,52.4510876,13.3243931,Häsi-Lichtspiele,h-si-lichtspiele,,,,wikidata,"Steglitzer Damm 23, 12169 Berlin","Steglitzer Damm 23, 12169 Berlin",,Q47054074
Berlin,7,12163,Kieler Straße,,Point(13.32515481 52.45809647),cinema,52.45809647,13.32515481,Laterna-Filmtheater,laterna-filmtheater,,,,wikidata,"Kieler Straße 7, 12163 Berlin","Kieler Straße 7, 12163 Berlin",,Q47054157
Berlin,21,14195,Breitenbachplatz,,Point(13.3217145 52.4659952),cinema,52.4659952,13.3217145,Lida-Lichtspiele,lida-lichtspiele,,,,wikidata,"Breitenbachplatz 21, 14195 Berlin","Breitenbachplatz 21, 14195 Berlin",,Q47054181
Berlin,31,12163,Schloßstraße,,Point(13.32195871 52.4584128),cinema,52.4584128,13.32195871,Metropol-Lichtbild-Theater,metropol-lichtbild-theater,,,,wikidata,"Schloßstraße 31, 12163 Berlin","Schloßstraße 31, 12163 Berlin",,Q47054294
Berlin,91,12167,Albrechtstraße,,Point(13.334293 52.4521352),cinema,52.4521352,13.334293,Palast-Theater am Stadtpark,palast-theater-am-stadtpark,,,,wikidata,"Albrechtstraße 91, 12167 Berlin","Albrechtstraße 91, 12167 Berlin",,Q47054321
Berlin,49,12167,Albrechtstraße,,Point(13.317916 52.44849801),cinema,52.44849801,13.317916,Park-Lichtspiele,park-lichtspiele,,,,wikidata,"Albrechtstraße 49, 12167 Berlin","Albrechtstraße 49, 12167 Berlin",,Q47054345
Berlin,49,14109,Königstraße,,Point(13.25970385 52.41839163),cinema,52.41839163,13.25970385,Wannsee-Lichtspiele,wannsee-lichtspiele,,,,wikidata,"Königstraße 49, 14109 Berlin","Königstraße 49, 14109 Berlin",,Q47055006
Berlin,33,14169,Teltower Damm / Gartenstraße,,Point(13.2657633 52.43188086),cinema,52.43188086,13.2657633,Bali,bali,,,,wikidata,"Teltower Damm 33 / Gartenstraße, 14169 Berlin","Teltower Damm 33 / Gartenstraße, 14169 Berlin",http://www.balikino-berlin.de/,Q47055870
Berlin,216,14167,Teltower Damm,,Point(13.21652778 52.4144681),cinema,52.4144681,13.21652778,Elfi-Lichtspiele,elfi-lichtspiele,,,,wikidata,"Teltower Damm 216, 14167 Berlin","Teltower Damm 216, 14167 Berlin",,Q47055927
Berlin,17,14129,Breisgauer Straße,,Point(13.25377542 52.43705642),cinema,52.43705642,13.25377542,Lumina-Filmtheater Schlachtensee,lumina-filmtheater-schlachtensee,,,,wikidata,"Breisgauer Straße 17, 14129 Berlin","Breisgauer Straße 17, 14129 Berlin",,Q47056347
Berlin,47b,14169,Wilskistraße,,Point(13.25358 52.44949),cinema,52.44949,13.25358,Onkel-Tom-Kino,onkel-tom-kino,,,,wikidata,"Wilskistraße 47b, 14169 Berlin","Wilskistraße 47b, 14169 Berlin",,Q47056485
Berlin,83,14169,Sundgauer Straße,,Point(13.26253143 52.43919255),cinema,52.43919255,13.26253143,Panorama,panorama,,,,wikidata,"Sundgauer Straße 83, 14169 Berlin","Sundgauer Straße 83, 14169 Berlin",,Q47056595
Berlin,8,,Berliner Straße / Gartenstraße 14169 Berlin,,Point(13.26259 52.43469),cinema,52.43469,13.26259,Primus-Palast,primus-palast,,,,wikidata,Berliner Straße 8 / Gartenstraße 14169 Berlin,Berliner Straße 8 / Gartenstraße 14169 Berlin,,Q47056688
Berlin,50a,14163,Potsdamer Str.,,Point(13.24654509 52.43529906),cinema,52.43529906,13.24654509,Zeli,zeli,,,,wikidata,"Potsdamer Str. 50a, 14163 Berlin","Potsdamer Str. 50a, 14163 Berlin",,Q47057275
Berlin,80,14163,Wilskistraße,,Point(13.246269 52.44517),cinema,52.44517,13.246269,Zinnowwald-Schule,zinnowwald-schule,,,,wikidata,"Wilskistraße 80, 14163 Berlin","Wilskistraße 80, 14163 Berlin",,Q47058406
Berlin,525,13589,Stadtrandstraße,,Point(13.15443 52.55649),cinema,52.55649,13.15443,Filmbühne Spandau Stadtrand,filmb-hne-spandau-stadtrand,,,,wikidata,"Stadtrandstraße 525, 13589 Berlin","Stadtrandstraße 525, 13589 Berlin",,Q47077666
Berlin,266a,13583,Falkenseer Chaussee,,Point(13.18625923 52.54700258),cinema,52.54700258,13.18625923,Film-Eck Spandau,film-eck-spandau,,,,wikidata,"Falkenseer Chaussee 266a, 13583 Berlin","Falkenseer Chaussee 266a, 13583 Berlin",,Q47077712
Berlin,29 / 35,14089,Alt-Gatow / ,,Point(13.18240271 52.48671533),cinema,52.48671533,13.18240271,Filmtheater Gatow,filmtheater-gatow,,,,wikidata,"Alt-Gatow 29/35, 14089 Berlin","Alt-Gatow 29/35, 14089 Berlin",,Q47078232
Berlin,39,13585,Neuendorfer Straße,,Point(13.2103894 52.5492418),cinema,52.5492418,13.2103894,Filmpalast Schützenhaus,filmpalast-sch-tzenhaus,,,,wikidata,"Neuendorfer Straße 39 (38–42), 13585 Berlin","Neuendorfer Straße 39 , 13585 Berlin",,Q47078283
Berlin,21,13587,Wichernstraße 14-,,Point(13.20641073 52.56760043),cinema,52.56760043,13.20641073,Filmstudio Wichern,filmstudio-wichern,,,,wikidata,"Wichernstraße 14–21, 13587 Berlin","Wichernstraße 14-21, 13587 Berlin",,Q47078305
Berlin,43,13585,Neuendorfer Straße,,Point(13.20618554 52.5430535),cinema,52.5430535,13.20618554,HaKi-Filmtheater,haki-filmtheater,,,,wikidata,"Neuendorfer Straße 43, 13585 Berlin","Neuendorfer Straße 43, 13585 Berlin",,Q47078348
Berlin,10,13587,Streitstraße,,Point(13.20807056 52.55740614),cinema,52.55740614,13.20807056,HaLi-Lichtspiele,hali-lichtspiele,,,,wikidata,"Streitstraße 10, 13587 Berlin","Streitstraße 10, 13587 Berlin",,Q47078379
Berlin,16,13587,Walldürner Weg,,Point(13.20431566 52.56392038),cinema,52.56392038,13.20431566,Tivoli-Lichtspiele,tivoli-lichtspiele,,,,wikidata,"Walldürner Weg 16, 13587 Berlin","Walldürner Weg 16, 13587 Berlin",,Q47078410
Berlin,27,13599,Haselhorster Damm,,Point(13.23793376 52.54479424),cinema,52.54479424,13.23793376,Rex-Filmtheater,rex-filmtheater,,,,wikidata,"Haselhorster Damm 27, 13599 Berlin","Haselhorster Damm 27, 13599 Berlin",,Q47078443
Berlin,182,14089,Kladower Damm,,Point(13.16074053 52.46668738),cinema,52.46668738,13.16074053,Astra Cinema Gatow,astra-cinema-gatow,,,,wikidata,"Kladower Damm 182, 14089 Berlin","Kladower Damm 182, 14089 Berlin",,Q47078509
Berlin,107,13599,Motardstraße,,Point(13.25099861 52.53497066),cinema,52.53497066,13.25099861,Autokino Berlin,autokino-berlin,,,,wikidata,"Motardstraße 107, 13599 Berlin","Motardstraße 107, 13599 Berlin",,Q47078715
Berlin,82,13629,Nonnendammallee,,Point(13.26687931 52.53649026),cinema,52.53649026,13.26687931,Elektra-Lichtspiele,elektra-lichtspiele,,,,wikidata,"Nonnendammallee 82, 13629 Berlin","Nonnendammallee 82, 13629 Berlin",,Q47078756
Berlin,96,13629,Nonnendammallee,,Point(13.26798 52.53701),cinema,52.53701,13.26798,Kammerlichtspiele,kammerlichtspiele,,,,wikidata,"Nonnendammallee 96, 13629 Berlin","Nonnendammallee 96, 13629 Berlin",,Q47078785
Berlin,4,13629,Jugendweg,,Point(13.2662201 52.5376366),cinema,52.5376366,13.2662201,Lichtspiel-Palast,lichtspiel-palast,,,,wikidata,"Jugendweg 4, 13629 Berlin","Jugendweg 4, 13629 Berlin",,Q47078832
Berlin,2,13629,Jungfernheideweg,,Point(13.27235907 52.53714326),cinema,52.53714326,13.27235907,Siesta,siesta,,,,wikidata,"Jungfernheideweg 2, 13629 Berlin","Jungfernheideweg 2, 13629 Berlin",,Q47078865
Berlin,11,13597,Gewerbehof,,Point(13.21497469 52.52890886),cinema,52.52890886,13.21497469,Autokino Gewerbehof,autokino-gewerbehof,,,,wikidata,"Gewerbehof 11, 13597 Berlin","Gewerbehof 11, 13597 Berlin",,Q47079038
Berlin,,13597,Augusta-Ufer,,Point(13.20071395 52.53764892),cinema,52.53764892,13.20071395,Bio-Filmtheater,bio-filmtheater,,,,wikidata,"Augusta-Ufer (17/18), 13597 Berlin","Augusta-Ufer , 13597 Berlin",,Q47079108
Berlin,6,13581,Klosterstraße,,Point(13.1974288 52.5323198),cinema,52.5323198,13.1974288,Biophon-Theater,biophon-theater,,,,wikidata,"Klosterstraße 6, 13581 Berlin","Klosterstraße 6, 13581 Berlin",,Q47079120
Berlin,20,13597,Havelstraße,,Point(13.206239 52.5384784),cinema,52.5384784,13.206239,Cineplex Spandau,cineplex-spandau,Cineplex Deutschland,,,wikidata,"Havelstraße 20, 13597 Berlin","Havelstraße 20, 13597 Berlin",https://www.cineplex.de/berlin-spandau/,Q47079139
Berlin,49,13597,Carl-Schurz-Straße,,Point(13.2046345 52.5380832),cinema,52.5380832,13.2046345,Forum Filmtheater,forum-filmtheater,,,,wikidata,"Carl-Schurz-Straße 49, 13597 Berlin","Carl-Schurz-Straße 49, 13597 Berlin",,Q47079212
Berlin,6,13597,Mauerstraße,,Point(13.20224676 52.53558312),cinema,52.53558312,13.20224676,Kino im Kulturhaus Spandau,kino-im-kulturhaus-spandau,,,,wikidata,"Mauerstraße 6, 13597 Berlin","Mauerstraße 6, 13597 Berlin",,Q47079217
Berlin,98 / 99,13585,Schönwalder Straße / ,,Point(13.20221292 52.54635305),cinema,52.54635305,13.20221292,Metropol-Lichtspiele,metropol-lichtspiele,,,,wikidata,"Schönwalder Straße 98/99, 13585 Berlin","Schönwalder Straße 98/99, 13585 Berlin",,Q47079223
Berlin,24,13597,Carl-Schurz-Straße,,Point(13.202785 52.525363677),cinema,52.525363677,13.202785,Odeon-Lichtspiele,odeon-lichtspiele,,,,wikidata,"Carl-Schurz-Straße 24, 13597 Berlin","Carl-Schurz-Straße 24, 13597 Berlin",,Q47079258
Berlin,13,13597,Carl-Schurz-Straße,,Point(13.2015 52.53642),cinema,52.53642,13.2015,Openair-Kino,openair-kino,,,,wikidata,"Carl-Schurz-Straße 13, 13597 Berlin","Carl-Schurz-Straße 13, 13597 Berlin",,Q47079340
Berlin,13 / 15,13581,Klosterstraße / ,,Point(13.19591957 52.53047471),cinema,52.53047471,13.19591957,Regina-Lichtspiele,regina-lichtspiele,,,,wikidata,"Klosterstraße 13/15, 13581 Berlin","Klosterstraße 13/15, 13581 Berlin",,Q47079456
Berlin,89,13583,Staakener Straße 87-,,Point(13.190281 52.5362455),cinema,52.5362455,13.190281,Savoy,savoy,,,,wikidata,"Staakener Straße 87-89, 13583 Berlin","Staakener Straße 87-89, 13583 Berlin",,Q47079464
Berlin,80,13585,Schönwalder Straße,,Point(13.2003522 52.5490683),cinema,52.5490683,13.2003522,Union-Theater,union-theater,,,,wikidata,"Schönwalder Straße 80, 13585 Berlin","Schönwalder Straße 80, 13585 Berlin",,Q47079473
Berlin,9,13597,Grunewaldstraße,,Point(13.2052671 52.5316165),cinema,52.5316165,13.2052671,Viktoria-Saal,viktoria-saal,,,,wikidata,"Grunewaldstraße 9, 13597 Berlin","Grunewaldstraße 9, 13597 Berlin",,Q47079522
Berlin,2,13585,Schönwalder Straße,,Point(13.20610166 52.54331206),cinema,52.54331206,13.20610166,Walhalla-Lichtspiele,walhalla-lichtspiele,,,,wikidata,"Schönwalder Straße 2, 13585 Berlin","Schönwalder Straße 2, 13585 Berlin",,Q47079552
Berlin,2 / 26,13591,Hackbuschstraße / Eichholzbahn 24-,,Point(13.15046009 52.53758824),cinema,52.53758824,13.15046009,Capitol,capitol,,,,wikidata,"Hackbuschstraße 2 / Eichholzbahn 24-26, 13591 Berlin","Hackbuschstraße 2 / Eichholzbahn 24-26, 13591 Berlin",,Q47079585
Berlin,67,13591,Nennhauser Damm,,Point(13.14118854 52.53117979),cinema,52.53117979,13.14118854,Lichtspiele Staaken,lichtspiele-staaken,,,,wikidata,"Nennhauser Damm 67, 13591 Berlin","Nennhauser Damm 67, 13591 Berlin",,Q47079616
Berlin,13,13591,Zeestower Weg,,Point(13.13939085 52.54607282),cinema,52.54607282,13.13939085,Filmbühne Staaken,filmb-hne-staaken,,,,wikidata,"Zeestower Weg 13, 13591 Berlin","Zeestower Weg 13, 13591 Berlin",,Q47079622
Berlin,378,13593,Heerstraße,,Point(13.171031 52.5188843),cinema,52.5188843,13.171031,Birken-Lichtspiele,birken-lichtspiele,,,,wikidata,"Heerstraße 378, 13593 Berlin","Heerstraße 378, 13593 Berlin",,Q47079653
Berlin,35,13595,Weißenburger Straße,,Point(13.2012485 52.5236143),cinema,52.5236143,13.2012485,Filmbühne Wilhelmstadt,filmb-hne-wilhelmstadt,,,,wikidata,"Weißenburger Straße 35, 13595 Berlin","Weißenburger Straße 35, 13595 Berlin",,Q47079658
Berlin,21,13593,Wilhelmstraße,,Point(13.18687834 52.52112402),cinema,52.52112402,13.18687834,Jerboa-Cinema,jerboa-cinema,,,,wikidata,"Wilhelmstraße 21, 13593 Berlin","Wilhelmstraße 21, 13593 Berlin",,Q47079663
Berlin,116,13595,Pichelsdorfer Straße,,Point(13.19753391 52.52520437),cinema,52.52520437,13.19753391,Regina,regina,,,,wikidata,"Pichelsdorfer Straße 116, 13595 Berlin","Pichelsdorfer Straße 116, 13595 Berlin",,Q47079665
Berlin,49,13595,Pichelsdorfer Straße,,Point(13.19746073 52.51789653),cinema,52.51789653,13.19746073,Tropfstein-Lichtspiele,tropfstein-lichtspiele,,,,wikidata,"Pichelsdorfer Straße 49, 13595 Berlin","Pichelsdorfer Straße 49, 13595 Berlin",,Q47079669
Berlin,29a,10623,Hardenbergstraße,,Point(13.3342 52.5061),cinema,52.5061,13.3342,Zoo Palast,zoo-palast,,,,wikidata,"Hardenbergstraße 29a, 10623 Berlin","Hardenbergstraße 29a, 10623 Berlin",https://www.zoopalast-berlin.de/,Q220069
Berlin,153,10709,Kurfürstendamm,,Point(13.302222222 52.498611111),cinema,52.498611111,13.302222222,Schaubühne am Lehniner Platz,schaub-hne-am-lehniner-platz,,,,wikidata,"Kurfürstendamm 153, 10709 Berlin","Kurfürstendamm 153, 10709 Berlin",,Q569461
Berlin,100,10623,Knesebeckstraße,,Point(13.3234 52.5104),cinema,52.5104,13.3234,Renaissance-Theater,renaissance-theater,,,,wikidata,"Knesebeckstraße 100, 10623 Berlin","Knesebeckstraße 100, 10623 Berlin",,Q876556
Berlin,12A,10623,Kantstraße,,Point(13.32848 52.50595),cinema,52.50595,13.32848,Delphi Filmpalast,delphi-filmpalast,Yorck Kinogruppe,,,wikidata,"Kantstraße 12A, 10623 Berlin","Kantstraße 12A, 10623 Berlin",https://www.yorck.de/kinos/delphi-filmpalast,Q1184623
Berlin,29a-e,10623,Hardenbergstraße,,Point(13.3342 52.5061),cinema,52.5061,13.3342,Ufa-Palast am Zoo,ufa-palast-am-zoo,,,,wikidata,"Hardenbergstraße 29a-e, 10623 Berlin","Hardenbergstraße 29a-e, 10623 Berlin",,Q1285122
Berlin,26,10719,Kurfürstendamm,,Point(13.3287 52.5036),cinema,52.5036,13.3287,Filmbühne Wien,filmb-hne-wien,,,,wikidata,"Kurfürstendamm 26, 10719 Berlin","Kurfürstendamm 26, 10719 Berlin",,Q1414402
,,10719,,,Point(13.333282 52.504572),cinema,52.504572,13.333282,Gloria-Palast,gloria-palast,,,,wikidata,,,,Q1532031
,,,,,Point(13.3286 52.4986),cinema,52.4986,13.3286,Haus der Berliner Festspiele,haus-der-berliner-festspiele,,,,wikidata,,,http://www.berlinerfestspiele.de,Q1590736
Berlin,68,10707,Kurfürstendamm,,Point(13.3084 52.5005),cinema,52.5005,13.3084,Alhambra,alhambra,,,,wikidata,"Kurfürstendamm 68, 10707 Berlin","Kurfürstendamm 68, 10707 Berlin",,Q1637463
Berlin,,10789,Europa Center,,Point(13.3382 52.5041),cinema,52.5041,13.3382,Royal Palast,royal-palast,,,,wikidata,"Europa Center, Tauentzienstraße 9, 10789 Berlin","Europa Center, Tauentzienstraße 9, 10789 Berlin",,Q1687214
,236,10719,Kurfurstendamm,,Point(13.3344 52.5042),cinema,52.5042,13.3344,Marmorhaus,marmorhaus,,,,wikidata,Kurfurstendamm 236,Kurfurstendamm 236,,Q1902249
Berlin,112,10715,Wilhelmsaue,,Point(13.3213 52.4851),cinema,52.4851,13.3213,"Erste Kirche Christi, Wissenschafter, Berlin",erste-kirche-christi-wissenschafter-berlin,,,,wikidata,"Wilhelmsaue 112, 10715 Berlin","Wilhelmsaue 112, 10715 Berlin",,Q11722059
Berlin,10,10719,Kurfürstendamm,,Point(13.3315 52.5041),cinema,52.5041,13.3315,Romanisches Haus,romanisches-haus,,Julius Bodenstein,,wikidata,"Kurfürstendamm 10, 10719 Berlin","Kurfürstendamm 10, 10719 Berlin",,Q14551665
Berlin,46,10623,Budapester Straße 42-,,Point(13.3362132 52.505378),cinema,52.505378,13.3362132,Capitol am Zoo,capitol-am-zoo,,,,wikidata,"Budapester Straße 42–46, 10623 Berlin","Budapester Straße 42-46, 10623 Berlin",,Q19962127
Berlin,18,10713,Blissestraße,,Point(13.320006 52.484682),cinema,52.484682,13.320006,Eva Lichtspiele,eva-lichtspiele,,,,wikidata,"Blissestraße 18, 10713 Berlin","Blissestraße 18, 10713 Berlin",http://www.eva-lichtspiele.de,Q20184003
Berlin,163,10623,Kantstraße,,Point(13.332713 52.504995),cinema,52.504995,13.332713,Prinzeß-Theater,prinze-theater,,,,wikidata,"Kantstraße 163, 10623 Berlin","Kantstraße 163, 10623 Berlin",,Q22693536
Berlin,29,10623,Hardenbergstraße,,Point(13.33333333 52.50611111),cinema,52.50611111,13.33333333,Wilhelmshallen,wilhelmshallen,,,,wikidata,"Hardenbergstraße 29, 10623 Berlin","Hardenbergstraße 29, 10623 Berlin",,Q29417404
Berlin,14,10715,Bundesplatz,,Point(13.3289091 52.4789488),cinema,52.4789488,13.3289091,Bundesplatz Studio,bundesplatz-studio,,,,wikidata,"Bundesplatz 14, 10715 Berlin","Bundesplatz 14, 10715 Berlin",http://www.bundesplatz-kino.de,Q42297608
Berlin,217,10719,Kurfürstendamm,,Point(13.32786 52.5027),cinema,52.5027,13.32786,Astor-Filmtheater,astor-filmtheater,,,,wikidata,"Kurfürstendamm 217, 10719 Berlin","Kurfürstendamm 217, 10719 Berlin",,Q42297611
,,,,,Point(13.32994 52.50325),cinema,52.50325,13.32994,ASTOR Film Lounge,astor-film-lounge,,,,wikidata,,,https://berlin.premiumkino.de,Q42297614
Berlin,1,14052,Heerstraße / Pommernallee,,Point(13.270737 52.508789),cinema,52.508789,13.270737,Berliner Kabarett-Theater,berliner-kabarett-theater,,,,wikidata,"Heerstraße 1  / Pommernallee, 14052 Berlin","Heerstraße 1 / Pommernallee, 14052 Berlin",,Q42297615
Berlin,211,10719,Kurfürstendamm,,Point(13.3249 52.50228),cinema,52.50228,13.3249,Cinema Paris,cinema-paris,,,,wikidata,"Kurfürstendamm 211, 10719 Berlin","Kurfürstendamm 211, 10719 Berlin",http://www.cinema-paris.de,Q42297616
Berlin,4,10629,Giesebrechtstraße,,Point(13.30907 52.50234),cinema,52.50234,13.30907,Kurbel,kurbel,,,,wikidata,"Giesebrechtstraße 4, 10629 Berlin","Giesebrechtstraße 4, 10629 Berlin",,Q42297617
Berlin,14,10629,Sybelstraße,,Point(13.3063855 52.5020887),cinema,52.5020887,13.3063855,Erdbeermund Sex Kino,erdbeermund-sex-kino,,,,wikidata,"Sybelstraße 14, 10629 Berlin","Sybelstraße 14, 10629 Berlin",,Q42297618
Berlin,12,10623,Hardenbergstraße,,Point(13.3269 52.50839),cinema,52.50839,13.3269,Filmbühne am Steinplatz,filmb-hne-am-steinplatz,,,,wikidata,"Hardenbergstraße 12, 10623 Berlin","Hardenbergstraße 12, 10623 Berlin",,Q42297619
Berlin,12,10623,Bleibtreustraße,,Point(13.3195 52.50436),cinema,52.50436,13.3195,Filmkunst 66,filmkunst-66,,,,wikidata,"Bleibtreustraße 12, 10623 Berlin","Bleibtreustraße 12, 10623 Berlin",http://www.filmkunst66.de,Q42297620
Berlin,54,10627,Kantstraße,,Point(13.30834 52.5069),cinema,52.5069,13.30834,Kant Kino,kant-kino,Yorck Kinogruppe,,,wikidata,"Kantstraße 54, 10627 Berlin","Kantstraße 54, 10627 Berlin",https://www.yorck.de/kinos/kant-kino,Q42297621
Berlin,162,10623,Kantstraße,,Point(13.3327408 52.5051829),cinema,52.5051829,13.3327408,Olympia am Zoo,olympia-am-zoo,,,,wikidata,"Kantstraße 162, 10623 Berlin","Kantstraße 162, 10623 Berlin",,Q42297622
Berlin,93,10625,Bismarckstraße,,Point(13.3102557 52.5116496),cinema,52.5116496,13.3102557,Piccadilly Kino,piccadilly-kino,,,,wikidata,"Bismarckstraße 93, 10625 Berlin","Bismarckstraße 93, 10625 Berlin",,Q42297623
Berlin,17,10625,Schlüterstraße,,Point(13.31715 52.50721),cinema,52.50721,13.31715,Schlüter-Lichtspiele,schl-ter-lichtspiele,,,,wikidata,"Schlüterstraße 17, 10625 Berlin","Schlüterstraße 17, 10625 Berlin",,Q42297625
Berlin,16,14193,Lassenstraße,,Point(13.2759307 52.4851157),cinema,52.4851157,13.2759307,Pan Filmtheater,pan-filmtheater,,,,wikidata,"Lassenstraße 16, 14193 Berlin","Lassenstraße 16, 14193 Berlin",,Q47091254
Berlin,35,10709,Westfälische Straße,,Point(13.29631831 52.49607184),cinema,52.49607184,13.29631831,Concordia-Lichtspiele,concordia-lichtspiele,,,,wikidata,"Westfälische Straße 35, 10709 Berlin","Westfälische Straße 35, 10709 Berlin",,Q47091274
Berlin,152,10709,Kurfürstendamm,,Point(13.3163308 52.5014064),cinema,52.5014064,13.3163308,Kammerlichtspiele,kammerlichtspiele,,,,wikidata,"Kurfürstendamm 152, 10709 Berlin","Kurfürstendamm 152, 10709 Berlin",,Q47091276
Berlin,5,10711,Georg-Wilhelm-Straße,,Point(13.290687 52.4985595),cinema,52.4985595,13.290687,Lichtspiele Georg Wilhelm,lichtspiele-georg-wilhelm,,,,wikidata,"Georg-Wilhelm-Straße 5, 10711 Berlin","Georg-Wilhelm-Straße 5, 10711 Berlin",,Q47091277
Berlin,119 / 120,10711,Kurfürstendamm / ,,Point(13.2873351 52.4967393),cinema,52.4967393,13.2873351,Rivoli,rivoli,,,,wikidata,"Kurfürstendamm 119/120, 10711 Berlin","Kurfürstendamm 119/120, 10711 Berlin",,Q47091278
Berlin,122,10711,Kurfürstendamm,,Point(13.28715583 52.49639734),cinema,52.49639734,13.28715583,Rote Mühle,rote-m-hle,,,,wikidata,"Kurfürstendamm 122, 10711 Berlin","Kurfürstendamm 122, 10711 Berlin",,Q47091280
Berlin,140,10709,Kurfürstendamm,,Point(13.3214482 52.5024062),cinema,52.5024062,13.3214482,Saba,saba,,,,wikidata,"Kurfürstendamm 140, 10709 Berlin","Kurfürstendamm 140, 10709 Berlin",,Q47091281
Berlin,8,14199,Warnemünder Straße,,Point(13.2905 52.4731),cinema,52.4731,13.2905,Dedy-Lichtspiele,dedy-lichtspiele,,,,wikidata,"Warnemünder Straße 8, 14199 Berlin","Warnemünder Straße 8, 14199 Berlin",,Q47091288
Berlin,33,14199,Breite Straße,,Point(13.2927781 52.47453431),cinema,52.47453431,13.2927781,Deutsches Lichtspielhaus,deutsches-lichtspielhaus,,,,wikidata,"Breite Straße 33, 14199 Berlin","Breite Straße 33, 14199 Berlin",,Q47091289
Berlin,1,14199,Ruhlaer Straße,,Point(13.28460484 52.47656475),cinema,52.47656475,13.28460484,Germania,germania,,,,wikidata,"Ruhlaer Straße 1, 14199 Berlin","Ruhlaer Straße 1, 14199 Berlin",,Q47091290
Berlin,9,14199,Marienbader Straße,,Point(13.28409688 52.47797497),cinema,52.47797497,13.28409688,Melodie am Roseneck,melodie-am-roseneck,,,,wikidata,"Marienbader Straße 9, 14199 Berlin","Marienbader Straße 9, 14199 Berlin",,Q47091291
Berlin,150,14199,Hohenzollerndamm,,Point(13.29712629 52.48556682),cinema,52.48556682,13.29712629,Melodie-Lichtspiele,melodie-lichtspiele,,,,wikidata,"Hohenzollerndamm 150, 14199 Berlin","Hohenzollerndamm 150, 14199 Berlin",,Q47091292
Berlin,1,,Ahornallee / 2. 14050 Berlin,,Point(13.277868 52.518235),cinema,52.518235,13.277868,Eden-Lichtspiele,eden-lichtspiele,,,,wikidata,Ahornallee 1/2. 14050 Berlin,Ahornallee 1/2. 14050 Berlin,,Q47091295
Berlin,8,14052,Preußenallee 4-,,Point(13.259433 52.509338),cinema,52.509338,13.259433,Olympia-Lichtspiele,olympia-lichtspiele,,,,wikidata,"Preußenallee 4–8, 14052 Berlin","Preußenallee 4-8, 14052 Berlin",,Q47091296
Berlin,5,14050,Steubenplatz 3-,,Point(13.261492 52.516948),cinema,52.516948,13.261492,Puck-Filmtheater,puck-filmtheater,,,,wikidata,"Steubenplatz 3–5, 14050 Berlin","Steubenplatz 3-5, 14050 Berlin",,Q47091297
Berlin,29,14057,Kaiserdamm,,Point(13.280018 52.510214),cinema,52.510214,13.280018,Splendid,splendid,,,,wikidata,"Kaiserdamm 29, 14057 Berlin","Kaiserdamm 29, 14057 Berlin",,Q47091298
Berlin,1,14197,Bergheimer Straße,,Point(13.31896652 52.47040387),cinema,52.47040387,13.31896652,Rheingau-Theater,rheingau-theater,,,,wikidata,"Bergheimer Straße 1, 14197 Berlin","Bergheimer Straße 1, 14197 Berlin",,Q47091324
Berlin,163 / 164,10715,Berliner Straße / ,,Point(13.3353389 52.4877916),cinema,52.4877916,13.3353389,Arkadia-Lichtspiele,arkadia-lichtspiele,,,,wikidata,"Berliner Straße 163/164, 10715 Berlin","Berliner Straße 163/164, 10715 Berlin",,Q47091325
Berlin,166,10715,Berliner Straße,,Point(13.336477 52.4880445),cinema,52.4880445,13.336477,Wittelsbach-Palast,wittelsbach-palast,,,,wikidata,"Berliner Straße 166, 10715 Berlin","Berliner Straße 166, 10715 Berlin",,Q47091326
Berlin,2,10713,Blissestraße,,Point(13.3201311 52.4861541),cinema,52.4861541,13.3201311,Lichtbilderbühne,lichtbilderb-hne,,,,wikidata,"Blissestraße 2, 10713 Berlin","Blissestraße 2, 10713 Berlin",,Q47091327
Berlin,36,10713,Blissestraße,,Point(13.3201056 52.4820561),cinema,52.4820561,13.3201056,Savoy,savoy,,,,wikidata,"Blissestraße 36, 10713 Berlin","Blissestraße 36, 10713 Berlin",,Q47091329
Berlin,178 / 179,10715,Bundesallee / ,,Point(13.33155338 52.48710053),cinema,52.48710053,13.33155338,Atrium,atrium,,,,wikidata,"Bundesallee 178/179, 10715 Berlin","Bundesallee 178/179, 10715 Berlin",,Q47091331
Berlin,21,10717,Bundesallee,,Point(13.3303665 52.493708),cinema,52.493708,13.3303665,Kammerspiele Kaiserallee,kammerspiele-kaiserallee,,,,wikidata,"Bundesallee 21, 10717 Berlin","Bundesallee 21, 10717 Berlin",,Q47091332
Berlin,26,10717,Gasteiner Straße,,Point(13.3240729 52.4872958),cinema,52.4872958,13.3240729,Film-Eck,film-eck,,,,wikidata,"Gasteiner Straße 26, 10717 Berlin","Gasteiner Straße 26, 10717 Berlin",,Q47091333
Berlin,29,10713,Hohenzollerndamm,,Point(13.316537 52.4914912),cinema,52.4914912,13.316537,Kleines Lichtspielhaus,kleines-lichtspielhaus,,,,wikidata,"Hohenzollerndamm 29, 10713 Berlin","Hohenzollerndamm 29, 10713 Berlin",,Q47091336
Berlin,26,14197,Homburger Straße,,Point(13.31400655 52.47421648),cinema,52.47421648,13.31400655,Rüdesheimer Lichtspiele,r-desheimer-lichtspiele,,,,wikidata,"Homburger Straße 26, 14197 Berlin","Homburger Straße 26, 14197 Berlin",,Q47091337
Berlin,1,10717,Landhausstraße,,Point(13.3286591 52.4920203),cinema,52.4920203,13.3286591,Lichtspiele Nikolsburger Platz,lichtspiele-nikolsburger-platz,,,,wikidata,"Landhausstraße 1, 10717 Berlin","Landhausstraße 1, 10717 Berlin",,Q47091338
Berlin,6,10719,Ludwigkirchstraße,,Point(13.32400726 52.49803494),cinema,52.49803494,13.32400726,Ludwig-Kirch-Lichtspiele,ludwig-kirch-lichtspiele,,,,wikidata,"Ludwigkirchstraße 6, 10719 Berlin","Ludwigkirchstraße 6, 10719 Berlin",,Q47091339
Berlin,44,10707,Pariser Straße,,Point(13.31964513 52.49781021),cinema,52.49781021,13.31964513,Graffiti,graffiti,,,,wikidata,"Pariser Straße 44, 10707 Berlin","Pariser Straße 44, 10707 Berlin",,Q47091340
Berlin,20,10777,Spichernstraße,,Point(13.33323061 52.49706184),cinema,52.49706184,13.33323061,Deutsche Lichtspiele,deutsche-lichtspiele,,,,wikidata,"Spichernstraße 20, 10777 Berlin","Spichernstraße 20, 10777 Berlin",,Q47091341
Berlin,3,10777,Spichernstraße,,Point(13.3330285 52.4980452),cinema,52.4980452,13.3330285,Prachtsäle des Westens,prachts-le-des-westens,,,,wikidata,"Spichernstraße 3, 10777 Berlin","Spichernstraße 3, 10777 Berlin",,Q47091342
Berlin,48,10719,Uhlandstraße,,Point(13.32391939 52.49754307),cinema,52.49754307,13.32391939,Corso-Lichtspiele,corso-lichtspiele,,,,wikidata,"Uhlandstraße 48, 10719 Berlin","Uhlandstraße 48, 10719 Berlin",,Q47091349
Berlin,75,10717,Uhlandstraße,,Point(13.3228703 52.4913664),cinema,52.4913664,13.3228703,Astoria-Lichtspiele,astoria-lichtspiele,,,,wikidata,"Uhlandstraße 75, 10717 Berlin","Uhlandstraße 75, 10717 Berlin",,Q47091351
Berlin,81,10717,Uhlandstraße,,Point(13.32264522 52.49000754),cinema,52.49000754,13.32264522,Amor-Lichtspiele,amor-lichtspiele,,,,wikidata,"Uhlandstraße 81, 10717 Berlin","Uhlandstraße 81, 10717 Berlin",,Q47091354
Berlin,83 / 84,10717,Uhlandstraße / ,,Point(13.32256939 52.48942073),cinema,52.48942073,13.32256939,Uhlandtheater,uhlandtheater,,,,wikidata,"Uhlandstraße 83/84, 10717 Berlin","Uhlandstraße 83/84, 10717 Berlin",,Q47091355
Berlin,90,10717,Uhlandstraße,,Point(13.32250466 52.48784918),cinema,52.48784918,13.32250466,Rolandtheater,rolandtheater,,,,wikidata,"Uhlandstraße 90, 10717 Berlin","Uhlandstraße 90, 10717 Berlin",,Q47091356
Berlin,22,10789,Augsburger Straße,,Point(13.310244 52.511669),cinema,52.511669,13.310244,Neues Lichtspielhaus,neues-lichtspielhaus,,,,wikidata,"Augsburger Straße 22, 10789 Berlin","Augsburger Straße 22, 10789 Berlin",,Q47092149
Berlin,24,10585,Behaimstraße 22-,,Point(13.303159 52.516624),cinema,52.516624,13.303159,Schalotte,schalotte,,,,wikidata,"Behaimstraße 22–24, 10585 Berlin","Behaimstraße 22-24, 10585 Berlin",,Q47092773
Berlin,38,10787,Budapester Straße,,Point(13.338243 52.505432),cinema,52.505432,13.338243,Panorama,panorama,,,,wikidata,"Budapester Straße 38, 10787 Berlin","Budapester Straße 38, 10787 Berlin",,Q47092787
Berlin,46,10627,Bismarckstraße,,Point(13.304765 52.511828),cinema,52.511828,13.304765,Atlantic-Lichtspiele,atlantic-lichtspiele,,,,wikidata,"Bismarckstraße 46, 10627 Berlin","Bismarckstraße 46, 10627 Berlin",,Q47092793
Berlin,66,10627,Bismarckstraße,,Point(13.298333 52.511324),cinema,52.511324,13.298333,Lichtspiele des Westens,lichtspiele-des-westens,,,,wikidata,"Bismarckstraße 66, 10627 Berlin","Bismarckstraße 66, 10627 Berlin",,Q47092795
Berlin,84,10627,Bismarckstraße,,Point(13.306461 52.511323),cinema,52.511323,13.306461,Akme-Lichtspiele,akme-lichtspiele,,,,wikidata,"Bismarckstraße 84, 10627 Berlin","Bismarckstraße 84, 10627 Berlin",,Q47092796
Berlin,12,14059,Danckelmannstraße,,Point(13.290474 52.515726),cinema,52.515726,13.290474,Elite-Kino,elite-kino,,,,wikidata,"Danckelmannstraße 12, 14059 Berlin","Danckelmannstraße 12, 14059 Berlin",,Q47092799
Berlin,26,10587,Englische Straße,,Point(13.331976 52.51567),cinema,52.51567,13.331976,Reform-Lichtspiele,reform-lichtspiele,,,,wikidata,"Englische Straße 26, 10587 Berlin","Englische Straße 26, 10587 Berlin",,Q47092803
Berlin,20,10623,Hardenbergstraße,,Point(13.329893 52.507009),cinema,52.507009,13.329893,Film-Studio,film-studio,,,,wikidata,"Hardenbergstraße 20, 10623 Berlin","Hardenbergstraße 20, 10623 Berlin",,Q47092806
Berlin,27a,10623,Hardenbergstraße,,Point(13.333245 52.505629),cinema,52.505629,13.333245,"AKI-Aktualitäten-Kino am Zoo, Hardenbergstraße",aki-aktualit-ten-kino-am-zoo-hardenbergstra-e,,,,wikidata,"Hardenbergstraße 27a, 10623 Berlin","Hardenbergstraße 27a, 10623 Berlin",,Q47092807
Berlin,19,10585,Hebbelstraße 18-,,Point(13.299595 52.515388),cinema,52.515388,13.299595,Panoramik-Lichtspiele,panoramik-lichtspiele,,,,wikidata,"Hebbelstraße 18-19, 10585 Berlin","Hebbelstraße 18-19, 10585 Berlin",,Q47092808
Berlin,20,14057,Holtzendorffstraße,,Point(13.296269 52.506547),cinema,52.506547,13.296269,"Kinematographentheater, Holtzendorffstraße",kinematographentheater-holtzendorffstra-e,,,,wikidata,"Holtzendorffstraße 20, 14057 Berlin","Holtzendorffstraße 20, 14057 Berlin",,Q47092809
Berlin,44,10623,Joachimsthaler Straße 43-,,Point(13.332254 52.505732),cinema,52.505732,13.332254,"AKI-Aktualitäten-Kino am Zoo, Joachimsthaler Straße",aki-aktualit-ten-kino-am-zoo-joachimsthaler-stra-e,,,,wikidata,"Joachimsthaler Straße 43–44, 10623 Berlin","Joachimsthaler Straße 43-44, 10623 Berlin",,Q47092810
Berlin,103,10585,Kaiser-Friedrich-Straße,,Point(13.300478 52.518142),cinema,52.518142,13.300478,Amor-Lichtspiele,amor-lichtspiele,,,,wikidata,"Kaiser-Friedrich-Straße 103, 10585 Berlin","Kaiser-Friedrich-Straße 103, 10585 Berlin",,Q47092820
Berlin,105,14057,Kaiserdamm,,Point(13.288797 52.510199),cinema,52.510199,13.288797,Cinema 105,cinema-105,,,,wikidata,"Kaiserdamm 105, 14057 Berlin","Kaiserdamm 105, 14057 Berlin",,Q47092822
Berlin,88a,10589,Kaiserin-Augusta-Allee,,Point(13.309022 52.52554),cinema,52.52554,13.309022,Augusta-Lichtspiele,augusta-lichtspiele,,,,wikidata,"Kaiserin-Augusta-Allee 88a, 10589 Berlin","Kaiserin-Augusta-Allee 88a, 10589 Berlin",,Q47092823
Berlin,121,10625,Kantstraße 120-,,Point(13.310016 52.506348),cinema,52.506348,13.310016,Schiller-Lichtspiele,schiller-lichtspiele,,,,wikidata,"Kantstraße 120-121, 10625 Berlin","Kantstraße 120-121, 10625 Berlin",,Q47092826
Berlin,10,10623,Kantstraße,,Point(13.33059 52.50605),cinema,52.50605,13.33059,Delphi Lux,delphi-lux,Yorck Kinogruppe,,,wikidata,"Kantstraße 10 (Eingang Yva-Bogen), 10623 Berlin","Kantstraße 10 , 10623 Berlin",https://www.yorck.de/kinos/delphi-lux,Q47092839
Berlin,130b,10625,Kantstraße,,Point(13.3142 52.506092),cinema,52.506092,13.3142,Residenz,residenz,,,,wikidata,"Kantstraße 130b, 10625 Berlin","Kantstraße 130b, 10625 Berlin",,Q47092852
Berlin,155,10623,Kantstraße,,Point(13.328219 52.505339),cinema,52.505339,13.328219,Rialto-Palast,rialto-palast,,,,wikidata,"Kantstraße 155, 10623 Berlin","Kantstraße 155, 10623 Berlin",,Q47092853
Berlin,13,14059,Klausenerplatz 12-,,Point(13.29146 52.517814),cinema,52.517814,13.29146,Orsika-Tonlichtspiele,orsika-tonlichtspiele,,,,wikidata,"Klausenerplatz 12-13, 14059 Berlin","Klausenerplatz 12-13, 14059 Berlin",,Q47092854
Berlin,37,10627,Krumme Straße,,Point(13.309375 52.508733),cinema,52.508733,13.309375,Faunlichtspiele,faunlichtspiele,,,,wikidata,"Krumme Straße 37, 10627 Berlin","Krumme Straße 37, 10627 Berlin",,Q47092855
Berlin,194,10707,Kurfürstendamm 193-,,Point(13.31787 52.50109),cinema,52.50109,13.31787,Filmtheater Berlin,filmtheater-berlin,,,,wikidata,"Kurfürstendamm 193-194, 10707 Berlin","Kurfürstendamm 193-194, 10707 Berlin",,Q47092858
Berlin,198,10719,Kurfürstendamm 197-,,Point(13.319678 52.501393),cinema,52.501393,13.319678,MGM-Theater – Fenster zur Welt,mgm-theater-fenster-zur-welt,,,,wikidata,"Kurfürstendamm 197-198, 10719 Berlin","Kurfürstendamm 197-198, 10719 Berlin",,Q47092859
Berlin,202,10719,Kurfürstendamm,,Point(13.321335 52.501287),cinema,52.501287,13.321335,Lupe 1,lupe-1,,,,wikidata,"Kurfürstendamm 202, 10719 Berlin","Kurfürstendamm 202, 10719 Berlin",,Q47092860
,,,,,Point(13.323435 52.501986),cinema,52.501986,13.323435,"Studio, Kurfürstendamm 206",studio-kurf-rstendamm-206,,,,wikidata,,,,Q47092861
Berlin,210,10719,Kurfürstendamm,,Point(13.324317 52.502084),cinema,52.502084,13.324317,ABC-Kinos,abc-kinos,,,,wikidata,"Kurfürstendamm 210, 10719 Berlin","Kurfürstendamm 210, 10719 Berlin",,Q47092862
Berlin,227,10719,Kurfürstendamm,,Point(13.331604 52.503574),cinema,52.503574,13.331604,Kinos im Ku'damm-Eck,kinos-im-ku-damm-eck,,,,wikidata,"Kurfürstendamm 227, 10719 Berlin","Kurfürstendamm 227, 10719 Berlin",,Q47092863
Berlin,25,10719,Kurfürstendamm,,Point(13.329115 52.503696),cinema,52.503696,13.329115,Bio-Filmtheater,bio-filmtheater,,,,wikidata,"Kurfürstendamm 25, 10719 Berlin","Kurfürstendamm 25, 10719 Berlin",,Q47092864
Berlin,65,10707,Kurfürstendamm 64-,,Point(13.310394 52.500623),cinema,52.500623,13.310394,Hollywood,hollywood,,,,wikidata,"Kurfürstendamm 64-65, 10707 Berlin","Kurfürstendamm 64-65, 10707 Berlin",,Q47092865
,,,,,Point(13.306619 52.50018),cinema,52.50018,13.306619,"Studio, Kurfürstendamm 71",studio-kurf-rstendamm-71,,,,wikidata,,,,Q47092866
Berlin,33,10625,Leibnizstraße,,Point(13.314212 52.50716),cinema,52.50716,13.314212,Licht-Bühne,licht-b-hne,,,,wikidata,"Leibnizstraße 33, 10625 Berlin","Leibnizstraße 33, 10625 Berlin",,Q47092897
Berlin,21,14059,Neufertstraße 19-,,Point(13.293216 52.517685),cinema,52.517685,13.293216,Filmbühne Mali,filmb-hne-mali,,,,wikidata,"Neufertstraße 19–21, 14059 Berlin","Neufertstraße 19-21, 14059 Berlin",,Q47092898
Berlin,15,10707,Olivaer Platz,,Point(13.314673 52.499862),cinema,52.499862,13.314673,Lupe 2,lupe-2,,,,wikidata,"Olivaer Platz 15, 10707 Berlin","Olivaer Platz 15, 10707 Berlin",,Q47092900
Berlin,116,,Berliner Straße,,Point(13.307788 52.516723),cinema,52.516723,13.307788,Union-Lichtspiele,union-lichtspiele,,,,wikidata,"Berliner Straße 116, Charlottenburg, Berlin","Berliner Straße 116, Charlottenburg, Berlin",,Q47092911
Berlin,107,,Berliner Straße,,Point(13.304743 52.517756),cinema,52.517756,13.304743,Biophon-Theater,biophon-theater,,,,wikidata,"Berliner Straße 107, Charlottenburg, Berlin","Berliner Straße 107, Charlottenburg, Berlin",,Q47092915
Berlin,157,,Berliner Straße,,Point(13.316949 52.513862),cinema,52.513862,13.316949,Excelsior-Theater,excelsior-theater,,,,wikidata,"Berliner Straße 157, Charlottenburg, Berlin","Berliner Straße 157, Charlottenburg, Berlin",,Q47092918
Berlin,53,,Berliner Straße,,Point(13.312566 52.515863),cinema,52.515863,13.312566,Orient-Theater,orient-theater,,,,wikidata,"Berliner Straße 53, Charlottenburg, Berlin","Berliner Straße 53, Charlottenburg, Berlin",,Q47092921
Berlin,5,10585,Richard-Wagner-Platz,,Point(13.305783 52.517239),cinema,52.517239,13.305783,Rheingold,rheingold,,,,wikidata,"Richard-Wagner-Platz 5, 10585 Berlin","Richard-Wagner-Platz 5, 10585 Berlin",,Q47092927
Berlin,30 / 31,14059,Schloßstraße / ,,Point(13.297554 52.511831),cinema,52.511831,13.297554,Schloß-Lichtspiele,schlo-lichtspiele,,,,wikidata,"Schloßstraße 30/31, 14059 Berlin","Schloßstraße 30/31, 14059 Berlin",,Q47092928
Berlin,19 / 78,14059,Sophie-Charlotten-Straße / Spandauer Damm,,Point(13.286293 52.519136),cinema,52.519136,13.286293,Westend-Lichtspiele,westend-lichtspiele,,,,wikidata,"Sophie-Charlotten-Straße 19 / Spandauer Damm 78, 14059 Berlin","Sophie-Charlotten-Straße 19 / Spandauer Damm 78, 14059 Berlin",,Q47092929
Berlin,10,10627,Stuttgarter Platz,,Point(13.303459 52.505793),cinema,52.505793,13.303459,Mascotte,mascotte,,,,wikidata,"Stuttgarter Platz 10, 10627 Berlin","Stuttgarter Platz 10, 10627 Berlin",,Q47092933
Berlin,52 / 53a,14057,Suarezstraße / Pestalozzistraße,,Point(13.296244 52.50822),cinema,52.50822,13.296244,Roland-Theater,roland-theater,,,,wikidata,"Suarezstraße 52 / Pestalozzistraße 53a, 14057 Berlin","Suarezstraße 52 / Pestalozzistraße 53a, 14057 Berlin",,Q47092934
Berlin,10,10789,Tauentzienstraße,,Point(13.336924 52.50468),cinema,52.50468,13.336924,TAKI Tageskino am Tauentzien,taki-tageskino-am-tauentzien,,,,wikidata,"Tauentzienstraße 10, 10789 Berlin","Tauentzienstraße 10, 10789 Berlin",,Q47092941
Berlin,8,10789,Tauentzienstraße,,Point(13.338375 52.503845),cinema,52.503845,13.338375,Broadway,broadway,,,,wikidata,"Tauentzienstraße 8, 10789 Berlin","Tauentzienstraße 8, 10789 Berlin",,Q47092942
Berlin,34,10589,Tauroggener Straße,,Point(13.302158 52.526871),cinema,52.526871,13.302158,Comet-Lichtspiele,comet-lichtspiele,,,,wikidata,"Tauroggener Straße 34, 10589 Berlin","Tauroggener Straße 34, 10589 Berlin",,Q47092944
Berlin,36,10589,Tauroggener Straße / Ecke Osnabrücker Straße,,Point(13.301936 52.526417),cinema,52.526417,13.301936,Orpheum-Theater,orpheum-theater,,,,wikidata,"Tauroggener Straße 36 / Ecke Osnabrücker Straße, 10589 Berlin","Tauroggener Straße 36 / Ecke Osnabrücker Straße, 10589 Berlin",,Q47092946
Berlin,97,10589,Tegeler Weg,,Point(13.298157 52.524073),cinema,52.524073,13.298157,ABC-Lichtspiele,abc-lichtspiele,,,,wikidata,"Tegeler Weg 97, 10589 Berlin","Tegeler Weg 97, 10589 Berlin",,Q47092947
Berlin,19,10627,Windscheidstraße,,Point(13.299443 52.50544),cinema,52.50544,13.299443,Klick,klick,,,,wikidata,"Windscheidstraße 19, 10627 Berlin","Windscheidstraße 19, 10627 Berlin",,Q47092950
Berlin,150,10585,Wilmersdorfer Straße,,Point(13.305064 52.514143),cinema,52.514143,13.305064,Wien-Berlin Kino,wien-berlin-kino,,,,wikidata,"Wilmersdorfer Straße 150, 10585 Berlin","Wilmersdorfer Straße 150, 10585 Berlin",,Q47092960
Berlin,53 / 54,10627,Wilmersdorfer Straße / ,,Point(13.306228 52.508743),cinema,52.508743,13.306228,Germania-Palast,germania-palast,,,,wikidata,"Wilmersdorfer Straße 53/54, 10627 Berlin","Wilmersdorfer Straße 53/54, 10627 Berlin",,Q47092961
Berlin,55 / 56,10627,Wilmersdorfer Straße / ,,Point(13.306016 52.508181),cinema,52.508181,13.306016,Lichtspielhaus Charlottenburg,lichtspielhaus-charlottenburg,,,,wikidata,"Wilmersdorfer Straße 55/56, 10627 Berlin","Wilmersdorfer Straße 55/56, 10627 Berlin",,Q47092962
Berlin,75,10629,Wilmersdorfer Straße,,Point(13.307526 52.503017),cinema,52.503017,13.307526,Minerva-Lichtspiele,minerva-lichtspiele,,,,wikidata,"Wilmersdorfer Straße 75, 10629 Berlin","Wilmersdorfer Straße 75, 10629 Berlin",,Q47092963
Berlin,95,10629,Wilmersdorfer Straße,,Point(13.307882 52.501486),cinema,52.501486,13.307882,Regina-Lichtspiele,regina-lichtspiele,,,,wikidata,"Wilmersdorfer Straße 95, 10629 Berlin","Wilmersdorfer Straße 95, 10629 Berlin",,Q47092964
Berlin,21,14167,Stubenrauchstraße,,Point(13.324361 52.472316),cinema,52.472316,13.324361,Baby-Filmtheater,baby-filmtheater,,,,wikidata,"Stubenrauchstraße 21, 14167 Berlin","Stubenrauchstraße 21, 14167 Berlin",,Q47012896
Berlin,14,12159,Rheinstraße,,Point(13.333112 52.4698777),cinema,52.4698777,13.333112,Biophon,biophon,,,,wikidata,"Rheinstraße 14, 12159 Berlin","Rheinstraße 14, 12159 Berlin",,Q47012906
Berlin,111,12161,Bundesallee,,Point(13.328683 52.466896),cinema,52.466896,13.328683,Cinema,cinema,Cineplex Deutschland,,,wikidata,"Bundesallee 111, 12161 Berlin","Bundesallee 111, 12161 Berlin",https://www.cineplex.de/berlin-titania/,Q47012912
Berlin,10,12159,Sieglindestraße,,Point(13.330306 52.476947),cinema,52.476947,13.330306,Cosima-Filmtheater,cosima-filmtheater,,,,wikidata,"Sieglindestraße 10, 12159 Berlin","Sieglindestraße 10, 12159 Berlin",http://cosima-filmtheater-berlin.kino-zeit.de/,Q47012920
Berlin,64,12161,Handjerystraße,,Point(13.331006 52.469265),cinema,52.469265,13.331006,Hohenzollern-Lichtspiele,hohenzollern-lichtspiele,,,,wikidata,"Handjerystraße 64, 12161 Berlin","Handjerystraße 64, 12161 Berlin",,Q47012938
Berlin,22,12161,Büsingstraße,,Point(13.32580393 52.46546435),cinema,52.46546435,13.32580393,"Kinematographentheater, Büsingstraße",kinematographentheater-b-singstra-e,,,,wikidata,"Büsingstraße 22, 12161 Berlin","Büsingstraße 22, 12161 Berlin",,Q47012952
Berlin,18,12161,Goßlerstraße,,Point(13.32431585 52.46890338),cinema,52.46890338,13.32431585,"Kinematographentheater, Goßlerstraße",kinematographentheater-go-lerstra-e,,,,wikidata,"Goßlerstraße 18, 12161 Berlin","Goßlerstraße 18, 12161 Berlin",,Q47012965
Berlin,64,12161,Südwestkorso,,Point(13.322345 52.473351),cinema,52.473351,13.322345,Kleines Theater,kleines-theater,,,,wikidata,"Südwestkorso 64, 12161 Berlin","Südwestkorso 64, 12161 Berlin",http://kleines-theater.de/,Q47012971
Berlin,65,12159,Rheinstraße,,Point(13.335131 52.471003),cinema,52.471003,13.335131,Kronen-Filmtheater,kronen-filmtheater,,,,wikidata,"Rheinstraße 65, 12159 Berlin","Rheinstraße 65, 12159 Berlin",,Q47012976
Berlin,72,12161,Bundesallee,,Point(13.32799 52.474498),cinema,52.474498,13.32799,Pfalzburg-Lichtspiele,pfalzburg-lichtspiele,,,,wikidata,"Bundesallee 72, 12161 Berlin","Bundesallee 72, 12161 Berlin",,Q47012978
Berlin,60,12159,Rheinstraße,,Point(13.334164 52.470038),cinema,52.470038,13.334164,Rheinschloß-Filmtheater,rheinschlo-filmtheater,,,,wikidata,"Rheinstraße 60, 12159 Berlin","Rheinstraße 60, 12159 Berlin",,Q47012982
Berlin,103,12161,Bundesallee 96-,,Point(13.32792 52.466134),cinema,52.466134,13.32792,Thalia-Lichtspiele,thalia-lichtspiele,,,,wikidata,"Bundesallee 96-103, 12161 Berlin","Bundesallee 96-103, 12161 Berlin",,Q47013007
Berlin,5,12307,Zescher Straße,,Point(13.401591 52.38611),cinema,52.38611,13.401591,Bismarck-Lichtspiele,bismarck-lichtspiele,,,,wikidata,"Zescher Straße 5, 12307 Berlin","Zescher Straße 5, 12307 Berlin",,Q47013019
Berlin,22,13129,Königsteinstraße 19-,,Point(13.412689 52.400866),cinema,52.400866,13.412689,Casa-Candida-Lichtspiele,casa-candida-lichtspiele,,,,wikidata,"Königsteinstraße 19–22, 13129 Berlin","Königsteinstraße 19-22, 13129 Berlin",,Q47013032
Berlin,19,12307,Hilbertstraße,,Point(13.398352 52.382598),cinema,52.382598,13.398352,Mozart-Lichtspiele,mozart-lichtspiele,,,,wikidata,"Hilbertstraße 19, 12307 Berlin","Hilbertstraße 19, 12307 Berlin",,Q47013034
Berlin,37a,12307,Goltzstraße,,Point(13.408541 52.38657),cinema,52.38657,13.408541,Roma-Lichtspiele,roma-lichtspiele,,,,wikidata,"Goltzstraße 37a, 12307 Berlin","Goltzstraße 37a, 12307 Berlin",,Q47013042
Berlin,98,12109,Mariendorfer Damm 96-,,Point(13.385825 52.443671111),cinema,52.443671111,13.385825,Adler-Lichtspiele,adler-lichtspiele,,,,wikidata,"Mariendorfer Damm 96–98, 12109 Berlin","Mariendorfer Damm 96-98, 12109 Berlin",,Q47034787
Berlin,44,12105,Kurfürstenstraße,,Point(13.380501944 52.448061111),cinema,52.448061111,13.380501944,Alhambra,alhambra,,,,wikidata,"Kurfürstenstraße 44, 12105 Berlin","Kurfürstenstraße 44, 12105 Berlin",,Q47034795
Berlin,30,12109,Mariendorfer Damm,,Point(13.384595 52.450332),cinema,52.450332,13.384595,Apollo-Lichtspiele,apollo-lichtspiele,,,,wikidata,"Mariendorfer Damm 30, 12109 Berlin","Mariendorfer Damm 30, 12109 Berlin",,Q47034805
Berlin,95,12109,Mariendorfer Damm,,Point(13.38633 52.444293),cinema,52.444293,13.38633,Gaby-Filmtheater,gaby-filmtheater,,,,wikidata,"Mariendorfer Damm 95, 12109 Berlin","Mariendorfer Damm 95, 12109 Berlin",,Q47034807
Berlin,6,12107,Tauernallee,,Point(13.397437 52.42366),cinema,52.42366,13.397437,Lida-Lichtspiele,lida-lichtspiele,,,,wikidata,"Tauernallee 6, 12107 Berlin","Tauernallee 6, 12107 Berlin",,Q47034813
Berlin,47,12109,Mariendorfer Damm,,Point(13.3858553 52.4485),cinema,52.4485,13.3858553,Mali,mali,,,,wikidata,"Mariendorfer Damm 47, 12109 Berlin","Mariendorfer Damm 47, 12109 Berlin",,Q47034817
Berlin,55,12107,Alt-Mariendorf,,Point(13.382376 52.43925),cinema,52.43925,13.382376,Astrid-Theater,astrid-theater,,,,wikidata,"Alt-Mariendorf 55, 12107 Berlin","Alt-Mariendorf 55, 12107 Berlin",,Q47034820
Berlin,21,10781,Eisenacher Str.,,Point(13.349478 52.494801),cinema,52.494801,13.349478,Viktoria-Lichtspiele,viktoria-lichtspiele,,,,wikidata,"Eisenacher Str. 21, 10781 Berlin","Eisenacher Str. 21, 10781 Berlin",,Q47034825
Berlin,8,12277,Kiepertplatz,,Point(13.374034 52.422798),cinema,52.422798,13.374034,"Kinematographentheater, Kiepertplatz",kinematographentheater-kiepertplatz,,,,wikidata,"Kiepertplatz 8, 12277 Berlin","Kiepertplatz 8, 12277 Berlin",,Q47034832
Berlin,146,12279,Marienfelder Allee,,Point(13.36303235 52.4133643),cinema,52.4133643,13.36303235,Monopol-Lichtspiele,monopol-lichtspiele,,,,wikidata,"Marienfelder Allee 146, 12279 Berlin","Marienfelder Allee 146, 12279 Berlin",,Q47034833
Berlin,31,10827,Hauptstraße 30-,,Point(13.353562 52.485148),cinema,52.485148,13.353562,Haus Hauptstraße 30-31,haus-hauptstra-e-30-31,,,,wikidata,"Hauptstraße 30–31, 10827 Berlin","Hauptstraße 30-31, 10827 Berlin",,Q47034847
Berlin,145,10783,Potsdamer Straße,,Point(13.361598 52.49607),cinema,52.49607,13.361598,Astoria-Lichtspiele,astoria-lichtspiele,,,,wikidata,"Potsdamer Straße 145, 10783 Berlin","Potsdamer Straße 145, 10783 Berlin",,Q47034881
Berlin,63,10715,Wexstraße / Innsbrucker Platz,,Point(13.34276468 52.47855327),cinema,52.47855327,13.34276468,Broadway,broadway,,,,wikidata,"Wexstraße 63 / Innsbrucker Platz, 10715 Berlin","Wexstraße 63 / Innsbrucker Platz, 10715 Berlin",,Q47035046
Berlin,45,10783,Bülowstraße,,Point(13.366528 52.494783),cinema,52.494783,13.366528,Bülow-Kinotheater,b-low-kinotheater,,,,wikidata,"Bülowstraße 45, 10783 Berlin","Bülowstraße 45, 10783 Berlin",,Q47035048
Berlin,19,10827,Hauptstraße,,Point(13.356416 52.486737),cinema,52.486737,13.356416,Coelia-Kino,coelia-kino,,,,wikidata,"Hauptstraße 19, 10827 Berlin","Hauptstraße 19, 10827 Berlin",,Q47035051
Berlin,121,10827,Hauptstraße,,Point(13.350347 52.482757),cinema,52.482757,13.350347,Das Lebende Bild,das-lebende-bild,,,,wikidata,"Hauptstraße 121, 10827 Berlin","Hauptstraße 121, 10827 Berlin",,Q47035052
Berlin,19,10823,Grunewaldstraße,,Point(13.351385 52.489898),cinema,52.489898,13.351385,Diana-Lichtspiele,diana-lichtspiele,,,,wikidata,"Grunewaldstraße 19, 10823 Berlin","Grunewaldstraße 19, 10823 Berlin",,Q47035056
Berlin,48,10827,Hauptstraße,,Point(13.348718 52.482449),cinema,52.482449,13.348718,Edda-Lichtspiele,edda-lichtspiele,,,,wikidata,"Hauptstraße 48, 10827 Berlin","Hauptstraße 48, 10827 Berlin",,Q47035060
Berlin,16,10783,Bülowstraße,,Point(13.358939 52.498205),cinema,52.498205,13.358939,Elite-Lichtspiele,elite-lichtspiele,,,,wikidata,"Bülowstraße 16, 10783 Berlin","Bülowstraße 16, 10783 Berlin",,Q47035062
Berlin,144,10783,Potsdamer Straße,,Point(13.361514 52.497463),cinema,52.497463,13.361514,Elite-Theater Lichtspiele,elite-theater-lichtspiele,,,,wikidata,"Potsdamer Straße 144, 10783 Berlin","Potsdamer Straße 144, 10783 Berlin",,Q47035063
Berlin,22,10823,Belziger Straße,,Point(13.353659 52.48733),cinema,52.48733,13.353659,Elvi-Lichtspiele,elvi-lichtspiele,,,,wikidata,"Belziger Straße 22, 10823 Berlin","Belziger Straße 22, 10823 Berlin",,Q47035066
Berlin,53,12157,Cranachstraße,,Point(13.342523 52.467254),cinema,52.467254,13.342523,Fery-Lichtspiele,fery-lichtspiele,,,,wikidata,"Cranachstraße 53, 12157 Berlin","Cranachstraße 53, 12157 Berlin",,Q47035068
Berlin,2,10827,Kaiser-Wilhelm-Platz,,Point(13.356946 52.486213),cinema,52.486213,13.356946,Forum,forum,,,,wikidata,"Kaiser-Wilhelm-Platz 2, 10827 Berlin","Kaiser-Wilhelm-Platz 2, 10827 Berlin",,Q47035070
Berlin,5,10779,Penzberger Straße,,Point(13.342464 52.491163),cinema,52.491163,13.342464,Guckkasten,guckkasten,,,,wikidata,"Penzberger Straße 5, 10779 Berlin","Penzberger Straße 5, 10779 Berlin",,Q47035072
Berlin,119,10783,Potsdamer Straße,,Point(13.36279 52.498785),cinema,52.498785,13.36279,Heine-Lichtspiele,heine-lichtspiele,,,,wikidata,"Potsdamer Straße 119, 10783 Berlin","Potsdamer Straße 119, 10783 Berlin",,Q47035073
Berlin,11,10829,Kolonnenstraße 10-,,Point(13.344305 52.501741),cinema,52.501741,13.344305,Insel-Lichtspiele,insel-lichtspiele,,,,wikidata,"Kolonnenstraße 10–11, 10829 Berlin","Kolonnenstraße 10-11, 10829 Berlin",,Q47035076
Berlin,10,10781,Goltzstraße 9-,,Point(13.353572 52.491739),cinema,52.491739,13.353572,Kammer-Lichtspiele,kammer-lichtspiele,,,,wikidata,"Goltzstraße 9–10, 10781 Berlin","Goltzstraße 9-10, 10781 Berlin",,Q47035087
Berlin,124,10783,Potsdamer Straße,,Point(13.362273 52.499563),cinema,52.499563,13.362273,"Kinematographentheater, Potsdamer Straße",kinematographentheater-potsdamer-stra-e,,,,wikidata,"Potsdamer Straße 124, 10783 Berlin","Potsdamer Straße 124, 10783 Berlin",,Q47035090
Berlin,18,10829,Kolonnenstraße,,Point(13.363819 52.484932),cinema,52.484932,13.363819,Königsspiele,k-nigsspiele,,,,wikidata,"Kolonnenstraße 18, 10829 Berlin","Kolonnenstraße 18, 10829 Berlin",,Q47035093
Berlin,99,10783,Bülowstraße,,Point(13.360658 52.497859),cinema,52.497859,13.360658,Lichtspielhaus Bülowstraße,lichtspielhaus-b-lowstra-e,,,,wikidata,"Bülowstraße 99, 10783 Berlin","Bülowstraße 99, 10783 Berlin",,Q47035847
Berlin,18,10827,Hauptstraße,,Point(13.356632 52.486946),cinema,52.486946,13.356632,Luna-Lichtspiele,luna-lichtspiele,,,,wikidata,"Hauptstraße 18, 10827 Berlin","Hauptstraße 18, 10827 Berlin",,Q47035849
Berlin,13,10777,Martin-Luther-Straße,,Point(13.346465 52.498368),cinema,52.498368,13.346465,Luther-Lichtspiele,luther-lichtspiele,,,,wikidata,"Martin-Luther-Straße 13, 10777 Berlin","Martin-Luther-Straße 13, 10777 Berlin",,Q47035853
Berlin,146,10783,Potsdamer Straße,,Point(13.361381 52.497301),cinema,52.497301,13.361381,Menschners Reise-Lichtspiele,menschners-reise-lichtspiele,,,,wikidata,"Potsdamer Straße 146, 10783 Berlin","Potsdamer Straße 146, 10783 Berlin",,Q47035886
Berlin,19,10825,Meraner Straße,,Point(13.338963 52.485965),cinema,52.485965,13.338963,Meraner Lichtspiele,meraner-lichtspiele,,,,wikidata,"Meraner Straße 19, 10825 Berlin","Meraner Straße 19, 10825 Berlin",,Q47035888
Berlin,1,10823,Vorbergstraße,,Point(13.358071 52.488853),cinema,52.488853,13.358071,Notausgang,notausgang,,,,wikidata,"Vorbergstraße 1, 10823 Berlin","Vorbergstraße 1, 10823 Berlin",,Q47036013
Berlin,116,10827,Hauptstraße,,Point(13.349579 52.482111),cinema,52.482111,13.349579,Odeon,odeon,Yorck Kinogruppe,,,wikidata,"Hauptstraße 116, 10827 Berlin","Hauptstraße 116, 10827 Berlin",,Q47036016
Berlin,180,10783,Potsdamer Straße,,Point(13.360605 52.493868),cinema,52.493868,13.360605,Odeon-Lichtspiele,odeon-lichtspiele,,,,wikidata,"Potsdamer Straße 180, 10783 Berlin","Potsdamer Straße 180, 10783 Berlin",,Q47036022
Berlin,37,10783,Bülowstraße,,Point(13.364992 52.496533),cinema,52.496533,13.364992,Olympia-Lichtspiele,olympia-lichtspiele,,,,wikidata,"Bülowstraße 37, 10783 Berlin","Bülowstraße 37, 10783 Berlin",,Q47036024
Berlin,1,10825,Meraner Straße,,Point(13.339717 52.48804),cinema,52.48804,13.339717,Olympia-Theater,olympia-theater,,,,wikidata,"Meraner Straße 1, 10825 Berlin","Meraner Straße 1, 10825 Berlin",,Q47036135
Berlin,36,10827,Hauptstraße,,Point(13.352251 52.484684),cinema,52.484684,13.352251,Palast-Theater,palast-theater,,,,wikidata,"Hauptstraße 36, 10827 Berlin","Hauptstraße 36, 10827 Berlin",,Q47036144
Berlin,1,12157,Dürerplatz,,Point(13.341171 52.469248),cinema,52.469248,13.341171,Palette-Filmtheater,palette-filmtheater,,,,wikidata,"Dürerplatz 1, 12157 Berlin","Dürerplatz 1, 12157 Berlin",,Q47036151
Berlin,24,10783,Bülowstraße,,Point(13.36159546 52.49758182),cinema,52.49758182,13.36159546,Pamet-Lichtspiele,pamet-lichtspiele,,,,wikidata,"Bülowstraße 24, 10783 Berlin","Bülowstraße 24, 10783 Berlin",,Q47036166
Berlin,139,10827,Hauptstraße,,Point(13.355685 52.485072),cinema,52.485072,13.355685,Passage-Theater,passage-theater,,,,wikidata,"Hauptstraße 139, 10827 Berlin","Hauptstraße 139, 10827 Berlin",,Q47036184
Berlin,20,10827,Hauptstraße,,Point(13.356306 52.486533),cinema,52.486533,13.356306,Prinzeß-Lichtspiele,prinze-lichtspiele,,,,wikidata,"Hauptstraße 20, 10827 Berlin","Hauptstraße 20, 10827 Berlin",,Q47036198
Berlin,30,10777,Martin-Luther-Straße,,Point(13.345802 52.495563),cinema,52.495563,13.345802,Savoy-Lichtspiele,savoy-lichtspiele,,,,wikidata,"Martin-Luther-Straße 30, 10777 Berlin","Martin-Luther-Straße 30, 10777 Berlin",,Q47036204
Berlin,123,10827,Hauptstraße 122-,,Point(13.35094 52.482791),cinema,52.482791,13.35094,Schloßbrauerei-Lichtspiele,schlo-brauerei-lichtspiele,,,,wikidata,"Hauptstraße 122–123, 10827 Berlin","Hauptstraße 122-123, 10827 Berlin",,Q47036294
Berlin,19a,10789,Tauentzienstraße,,Point(13.339968 52.502573),cinema,52.502573,13.339968,Tauentzien-Tageskino,tauentzien-tageskino,,,,wikidata,"Tauentzienstraße 19a, 10789 Berlin","Tauentzienstraße 19a, 10789 Berlin",,Q47036396
Berlin,7,10783,Goebenstraße,,Point(13.363703 52.493663),cinema,52.493663,13.363703,"Thalia-Theater, Goebenstraße",thalia-theater-goebenstra-e,,,,wikidata,"Goebenstraße 7, 10783 Berlin","Goebenstraße 7, 10783 Berlin",,Q47036519
Berlin,49,10827,Hauptstraße,,Point(13.348667 52.482403),cinema,52.482403,13.348667,Titania,titania,,,,wikidata,"Hauptstraße 49, 10827 Berlin","Hauptstraße 49, 10827 Berlin",,Q47036535
Berlin,11,10827,Hauptstraße,,Point(13.359358 52.488928),cinema,52.488928,13.359358,Tonburg,tonburg,,,,wikidata,"Hauptstraße 11, 10827 Berlin","Hauptstraße 11, 10827 Berlin",,Q47036544
Berlin,144,10827,Hauptstraße,,Point(13.356035 52.485586),cinema,52.485586,13.356035,Turma-Flora-Filmtheater,turma-flora-filmtheater,,,,wikidata,"Hauptstraße 144, 10827 Berlin","Hauptstraße 144, 10827 Berlin",,Q47036565
Berlin,57,10777,Motzstraße,,Point(13.340189 52.495003),cinema,52.495003,13.340189,Victoria-Filmtheater,victoria-filmtheater,,,,wikidata,"Motzstraße 57, 10777 Berlin","Motzstraße 57, 10777 Berlin",,Q47036594
Berlin,5,10777,Viktoria-Luise-Platz,,Point(13.341476 52.49623347),cinema,52.49623347,13.341476,Viktoria-Luise-Lichtspiele,viktoria-luise-lichtspiele,,,,wikidata,"Viktoria-Luise-Platz 5, 10777 Berlin","Viktoria-Luise-Platz 5, 10777 Berlin",,Q47036597
Berlin,22,10787,Kleiststraße,,Point(13.344305 52.501741),cinema,52.501741,13.344305,Wittenberg-Kino,wittenberg-kino,,,,wikidata,"Kleiststraße 22, 10787 Berlin","Kleiststraße 22, 10787 Berlin",,Q47036603
Berlin,7a,10789,Tauentzienstraße,,Point(13.339992 52.503293),cinema,52.503293,13.339992,Wochenschau am Tauentzien,wochenschau-am-tauentzien,,,,wikidata,"Tauentzienstraße 7a, 10789 Berlin","Tauentzienstraße 7a, 10789 Berlin",,Q47036607
Berlin,5 / 6,10827,Kolonnenstraße / ,,Point(13.359281 52.486306),cinema,52.486306,13.359281,Xenon,xenon,,,,wikidata,"Kolonnenstraße 5/6, 10827 Berlin","Kolonnenstraße 5/6, 10827 Berlin",http://www.xenon-kino.de/,Q47036615
Berlin,181,12099,Tempelhofer Damm,,Point(13.38508132 52.4603956),cinema,52.4603956,13.38508132,"Berliner Theater, Tempelhofer Damm",berliner-theater-tempelhofer-damm,,,,wikidata,"Tempelhofer Damm 181, 12099 Berlin","Tempelhofer Damm 181, 12099 Berlin",,Q47042808
Berlin,21,12099,Bacharacher Straße,,Point(13.41681108 52.46300393),cinema,52.46300393,13.41681108,Berolina,berolina,,,,wikidata,"Bacharacher Straße 21, 12099 Berlin","Bacharacher Straße 21, 12099 Berlin",,Q47042840
Berlin,11,10965,Columbiadamm 9-,,Point(13.391455 52.484717),cinema,52.484717,13.391455,Columbia,columbia,,,,wikidata,"Columbiadamm 9-11, 10965 Berlin","Columbiadamm 9-11, 10965 Berlin",,Q47042869
Berlin,17,12099,Alt-Tempelhof,,Point(13.386266 52.465362),cinema,52.465362,13.386266,Dorfeck-Kurfürst-Lichtspiele,dorfeck-kurf-rst-lichtspiele,,,,wikidata,"Alt-Tempelhof 17, 12099 Berlin","Alt-Tempelhof 17, 12099 Berlin",,Q47042903
Berlin,183,12099,Tempelhofer Damm,,Point(13.38508132 52.4603956),cinema,52.4603956,13.38508132,"Kinematographentheater, Tempelhofer Damm",kinematographentheater-tempelhofer-damm,,,,wikidata,"Tempelhofer Damm 183, 12099 Berlin","Tempelhofer Damm 183, 12099 Berlin",,Q47043712
Berlin,183,12099,Friedrich-Wilhelm-Straße,,Point(13.38508132 52.4603956),cinema,52.4603956,13.38508132,"Kinematographentheater, Friedrich-Wilhelm-Straße",kinematographentheater-friedrich-wilhelm-stra-e,,,,wikidata,"Friedrich-Wilhelm-Straße 183, 12099 Berlin","Friedrich-Wilhelm-Straße 183, 12099 Berlin",,Q47043823
Berlin,2,12101,Tempelhofer Damm,,Point(13.385555 52.483992),cinema,52.483992,13.385555,Korso-Lichtspiele,korso-lichtspiele,,,,wikidata,"Tempelhofer Damm 2, 12101 Berlin","Tempelhofer Damm 2, 12101 Berlin",,Q47044072
Berlin,46,12103,Manteuffelstraße,,Point(13.376999 52.459339),cinema,52.459339,13.376999,Luxor-Palast,luxor-palast,,,,wikidata,"Manteuffelstraße 46, 12103 Berlin","Manteuffelstraße 46, 12103 Berlin",,Q47044078
Berlin,59,12103,Alt-Tempelhof,,Point(13.37843 52.465741),cinema,52.465741,13.37843,TeFi Filmtheater,tefi-filmtheater,,,,wikidata,"Alt-Tempelhof 59, 12103 Berlin","Alt-Tempelhof 59, 12103 Berlin",,Q47044087
Berlin,3,12103,Friedrich-Karl-Straße 1-,,Point(13.383399 52.455648),cinema,52.455648,13.383399,Tivoli,tivoli,,,,wikidata,"Friedrich-Karl-Straße 1-3, 12103 Berlin","Friedrich-Karl-Straße 1-3, 12103 Berlin",,Q47044113
Berlin,124,12099,Tempelhofer Damm,,Point(13.384932 52.468279),cinema,52.468279,13.384932,Union-Theater,union-theater,,,,wikidata,"Tempelhofer Damm 124, 12099 Berlin","Tempelhofer Damm 124, 12099 Berlin",,Q47044153
Berlin,32,10969,Alte Jakobstraße 30-,,Point(13.4009142 52.5056929),cinema,52.5056929,13.4009142,Central-Theater,central-theater,,,,wikidata,"Alte Jakobstraße 30-32, 10969 Berlin","Alte Jakobstraße 30-32, 10969 Berlin",,Q15616624
Berlin,5,10245,Laskerstraße,,Point(13.46583333 52.50166667),cinema,52.50166667,13.46583333,Zukunft am Ostkreuz,zukunft-am-ostkreuz,,,,wikidata,"Laskerstraße 5, 10245 Berlin","Laskerstraße 5, 10245 Berlin",http://zukunft-ostkreuz.de/,Q15855822
,,,,,Point(13.38198889 52.50506667),cinema,52.50506667,13.38198889,Deutschlandhaus,deutschlandhaus,,,,wikidata,,,,Q20825901
Berlin,126,10999,Dresdener Straße,,Point(13.4308614 52.4952683),cinema,52.4952683,13.4308614,Babylon Kreuzberg,babylon-kreuzberg,Yorck Kinogruppe,,,wikidata,"Dresdener Straße 126, 10999 Berlin","Dresdener Straße 126, 10999 Berlin",http://www.yorck.de/,Q27973374
Berlin,22,10961,Blücherstraße,,Point(13.3984857 52.4941136),cinema,52.4941136,13.3984857,Blücher-Lichtspiele,bl-cher-lichtspiele,,,,wikidata,"Blücherstraße 22, 10961 Berlin","Blücherstraße 22, 10961 Berlin",,Q47125887
Berlin,20,10997,Zeughofstraße,,Point(13.43328 52.50023),cinema,52.50023,13.43328,Kino Eiszeit,kino-eiszeit,,,,wikidata,"Zeughofstraße 20, 10997 Berlin","Zeughofstraße 20, 10997 Berlin",http://eiszeit.berlin/,Q47126040
Berlin,86,10965,Yorckstraße,,Point(13.38514219 52.49282981),cinema,52.49282981,13.38514219,Yorck,yorck,Yorck Kinogruppe,,,wikidata,"Yorckstraße 86, 10965 Berlin","Yorckstraße 86, 10965 Berlin",https://yorck.de/kinos/yorck,Q47126371
Berlin,2,10969,Segitzdamm / Oranienplatz,,Point(13.4145736 52.5017414),cinema,52.5017414,13.4145736,fsk - Kino am Oranienplatz,fsk-kino-am-oranienplatz,,,,wikidata,"Segitzdamm 2 / Oranienplatz, 10969 Berlin","Segitzdamm 2 / Oranienplatz, 10969 Berlin",https://fsk-kino.peripherfilm.de/,Q47126528
Berlin,20,10999,Wiener Straße,,Point(13.4287413 52.49742),cinema,52.49742,13.4287413,fsk,fsk,,,,wikidata,"Wiener Straße 20, 10999 Berlin","Wiener Straße 20, 10999 Berlin",,Q47126595
Berlin,19,10961,Baerwaldstraße 18-,,Point(13.40164 52.49245),cinema,52.49245,13.40164,Palladium-Lichtspiele,palladium-lichtspiele,,,,wikidata,"Baerwaldstraße 18–19, 10961 Berlin","Baerwaldstraße 18-19, 10961 Berlin",,Q47155279
Berlin,70,10961,Baerwaldstraße 69-,,Point(13.40532 52.49564),cinema,52.49564,13.40532,Park-Lichtspiele,park-lichtspiele,,,,wikidata,"Baerwaldstraße 69–70, 10961 Berlin","Baerwaldstraße 69-70, 10961 Berlin",,Q47155300
Berlin,109,10961,Bergmannstraße,,Point(13.3880444 52.4901425),cinema,52.4901425,13.3880444,Allotria-Lichtspiele,allotria-lichtspiele,,,,wikidata,"Bergmannstraße 109, 10961 Berlin","Bergmannstraße 109, 10961 Berlin",,Q47155304
Berlin,7,10961,Bergmannstraße 5-,,Point(13.3886518 52.4893692),cinema,52.4893692,13.3886518,Rivoli-Palast,rivoli-palast,,,,wikidata,"Bergmannstraße 5–7, 10961 Berlin","Bergmannstraße 5-7, 10961 Berlin",,Q47155305
Berlin,12,10961,Blücherstraße,,Point(13.3961655 52.4955309),cinema,52.4955309,13.3961655,Lichtspiele Südwest,lichtspiele-s-dwest,,,,wikidata,"Blücherstraße 12, 10961 Berlin","Blücherstraße 12, 10961 Berlin",,Q47155309
Berlin,5 / 5a / 1,,Belle-Alliance-Straße /  / Teltower Straße,,Point(13.3886913 52.496421),cinema,52.496421,13.3886913,Filmpalast Kammersäle,filmpalast-kammers-le,,,,wikidata,"Belle-Alliance-Straße 5/5a / Teltower Straße 1, Berlin","Belle-Alliance-Straße 5/5a / Teltower Straße 1, Berlin",,Q47155310
Berlin,125,10999,Dresdner Straße,,Point(13.41657 52.50076),cinema,52.50076,13.41657,Kellerkino,kellerkino,,,,wikidata,"Dresdner Straße 125, 10999 Berlin","Dresdner Straße 125, 10999 Berlin",,Q47155316
Berlin,10,10969,Friedrichstraße,,Point(13.3916638 52.5012404),cinema,52.5012404,13.3916638,Vitascope–Theater,vitascope-theater,,,,wikidata,"Friedrichstraße 10, 10969 Berlin","Friedrichstraße 10, 10969 Berlin",,Q47155331
Berlin,209,10969,Friedrichstraße,,Point(13.3902616 52.5069517),cinema,52.5069517,13.3902616,City,city,,,,wikidata,"Friedrichstraße 209, 10969 Berlin","Friedrichstraße 209, 10969 Berlin",,Q47155334
Berlin,22,10969,Friedrichstraße,,Point(13.391139 52.503297),cinema,52.503297,13.391139,Bioscope-Theater,bioscope-theater,,,,wikidata,"Friedrichstraße 22, 10969 Berlin","Friedrichstraße 22, 10969 Berlin",,Q47155339
Berlin,226,10969,Friedrichstraße,,Point(13.39109 52.50349),cinema,52.50349,13.39109,"Kinematographentheater, Friedrichstraße 226",kinematographentheater-friedrichstra-e-226,,,,wikidata,"Friedrichstraße 226, 10969 Berlin","Friedrichstraße 226, 10969 Berlin",,Q47155343
Berlin,233,10969,Friedrichstraße,,Point(13.39008 52.50265),cinema,52.50265,13.39008,Helios,helios,,,,wikidata,"Friedrichstraße 233, 10969 Berlin","Friedrichstraße 233, 10969 Berlin",,Q47155346
Berlin,46,10969,Friedrichstraße,,Point(13.390389 52.5075295),cinema,52.5075295,13.390389,Parade-Theater,parade-theater,,,,wikidata,"Friedrichstraße 46, 10969 Berlin","Friedrichstraße 46, 10969 Berlin",,Q47155348
Berlin,21,10967,Graefestraße,,Point(13.4168584 52.4922573),cinema,52.4922573,13.4168584,Filmbühne Graefestraße,filmb-hne-graefestra-e,,,,wikidata,"Graefestraße 21, 10967 Berlin","Graefestraße 21, 10967 Berlin",,Q47155374
Berlin,57,10965,Großbeerenstraße,,Point(13.38335 52.49241),cinema,52.49241,13.38335,1. Berliner Kinomuseum,1-berliner-kinomuseum,,,,wikidata,"Großbeerenstraße 57, 10965 Berlin","Großbeerenstraße 57, 10965 Berlin",,Q47155376
Berlin,13,10967,Hasenheide,,Point(13.4213306 52.4875389),cinema,52.4875389,13.4213306,Kliems Festsäle,kliems-fests-le,,,,wikidata,"Hasenheide 13, 10967 Berlin","Hasenheide 13, 10967 Berlin",,Q47155387
Berlin,31,10967,Hasenheide 28-,,Point(13.4172885 52.4878852),cinema,52.4878852,13.4172885,Capitol,capitol,,,,wikidata,"Hasenheide 28–31, 10967 Berlin","Hasenheide 28-31, 10967 Berlin",,Q47155389
Berlin,52,10967,Hasenheide,,Point(13.41038 52.48941),cinema,52.48941,13.41038,Hofjäger-Lichtspiele,hofj-ger-lichtspiele,,,,wikidata,"Hasenheide 52, 10967 Berlin","Hasenheide 52, 10967 Berlin",,Q47155391
Berlin,54,10967,Hasenheide,,Point(13.409935 52.488941),cinema,52.488941,13.409935,Sputnik Kino,sputnik-kino,,,,wikidata,"Hasenheide 54, 10967 Berlin","Hasenheide 54, 10967 Berlin",,Q47155393
Berlin,1,10997,Köpenicker Straße,,Point(13.4415284 52.5015244),cinema,52.5015244,13.4415284,Maxim-Lichtspiele,maxim-lichtspiele,,,,wikidata,"Köpenicker Straße 1, 10997 Berlin","Köpenicker Straße 1, 10997 Berlin",,Q47155396
Berlin,14,10997,Köpenicker Straße,,Point(13.43735 52.50384),cinema,52.50384,13.43735,Stella-Palast,stella-palast,,,,wikidata,"Köpenicker Straße 14, 10997 Berlin","Köpenicker Straße 14, 10997 Berlin",,Q47155399
Berlin,3,10967,Kottbuser Damm 2-,,Point(13.41773 52.4984),cinema,52.4984,13.41773,Eden-Palast,eden-palast,,,,wikidata,"Kottbuser Damm 2–3, 10967 Berlin","Kottbuser Damm 2-3, 10967 Berlin",,Q47155412
Berlin,6,10999,Kottbusser Straße,,Point(13.4185 52.49789),cinema,52.49789,13.4185,BBB,bbb,,,,wikidata,"Kottbusser Straße 6, 10999 Berlin","Kottbusser Straße 6, 10999 Berlin",,Q47155413
Berlin,22,10999,Lausitzer Straße,,Point(13.42679 52.49579),cinema,52.49579,13.42679,Regenbogenkino,regenbogenkino,,,,wikidata,"Lausitzer Straße 22, 10999 Berlin","Lausitzer Straße 22, 10999 Berlin",,Q47155416
Berlin,17,10961,Mehringdamm,,Point(13.3888661 52.4946893),cinema,52.4946893,13.3888661,Hallesches-Tor-Lichtspiele,hallesches-tor-lichtspiele,,,,wikidata,"Mehringdamm 17, 10961 Berlin","Mehringdamm 17, 10961 Berlin",,Q47155417
Berlin,41,10961,Mehringdamm,,Point(13.38787 52.49227),cinema,52.49227,13.38787,Prisma-Lichtspiele,prisma-lichtspiele,,,,wikidata,"Mehringdamm 41, 10961 Berlin","Mehringdamm 41, 10961 Berlin",,Q47155418
Berlin,60,10961,Mehringdamm,,Point(13.38637 52.49114),cinema,52.49114,13.38637,Belle-Alliance-Lichtspiele,belle-alliance-lichtspiele,,,,wikidata,"Mehringdamm 60, 10961 Berlin","Mehringdamm 60, 10961 Berlin",,Q47155420
Berlin,2,10969,Mehringplatz,,Point(13.3928172 52.4985945),cinema,52.4985945,13.3928172,Kolibri-Lichtspiele,kolibri-lichtspiele,,,,wikidata,"Mehringplatz 2, 10969 Berlin","Mehringplatz 2, 10969 Berlin",,Q47155423
Berlin,6,10997,Naunynstraße,,Point(13.4259447 52.5007196),cinema,52.5007196,13.4259447,Filmbühne Naunynstraße,filmb-hne-naunynstra-e,,,,wikidata,"Naunynstraße 6, 10997 Berlin","Naunynstraße 6, 10997 Berlin",,Q47155434
Berlin,15,10997,Oppelner Straße,,Point(13.4392142 52.4985257),cinema,52.4985257,13.4392142,Oppelner Lichtspiele,oppelner-lichtspiele,,,,wikidata,"Oppelner Straße 15, 10997 Berlin","Oppelner Straße 15, 10997 Berlin",,Q47155438
Berlin,147,10969,Oranienstraße,,Point(13.4102241 52.503565),cinema,52.503565,13.4102241,TAM,tam,,,,wikidata,"Oranienstraße 147, 10969 Berlin","Oranienstraße 147, 10969 Berlin",,Q47155445
Berlin,161,10969,Oranienstraße,,Point(13.4137626 52.5026093),cinema,52.5026093,13.4137626,Oranien-Theater,oranien-theater,,,,wikidata,"Oranienstraße 161, 10969 Berlin","Oranienstraße 161, 10969 Berlin",,Q47155446
Berlin,170,10999,Oranienstraße,,Point(13.4177 52.5015918),cinema,52.5015918,13.4177,Truxa-Lichtspiele,truxa-lichtspiele,,,,wikidata,"Oranienstraße 170, 10999 Berlin","Oranienstraße 170, 10999 Berlin",,Q47155451
Berlin,190,10999,Oranienstraße,,Point(13.4221016 52.5003921),cinema,52.5003921,13.4221016,Kino am Heinrichplatz,kino-am-heinrichplatz,,,,wikidata,"Oranienstraße 190, 10999 Berlin","Oranienstraße 190, 10999 Berlin",,Q47155458
Berlin,25,10999,Oranienstraße,,Point(13.4206563 52.5010652),cinema,52.5010652,13.4206563,Orania-Lichtspiele,orania-lichtspiele,,,,wikidata,"Oranienstraße 25, 10999 Berlin","Oranienstraße 25, 10999 Berlin",,Q47155460
Berlin,146,10999,Reichenberger Straße 145-,,Point(13.42629 52.49699),cinema,52.49699,13.42629,ABC-Lichtspiele,abc-lichtspiele,,,,wikidata,"Reichenberger Straße 145–146, 10999 Berlin","Reichenberger Straße 145-146, 10999 Berlin",,Q47155464
Berlin,34,10999,Reichenberger Straße,,Point(13.42293 52.49751),cinema,52.49751,13.42293,Luisentheater,luisentheater,,,,wikidata,"Reichenberger Straße 34, 10999 Berlin","Reichenberger Straße 34, 10999 Berlin",,Q47155465
Berlin,80,10999,Reichenberger Straße 79-,,Point(13.432585 52.4948924),cinema,52.4948924,13.432585,Universum-Theater,universum-theater,,,,wikidata,"Reichenberger Straße 79–80, 10999 Berlin","Reichenberger Straße 79-80, 10999 Berlin",,Q47155469
Berlin,26,10997,Schlesische Straße,,Point(13.4496308 52.499361),cinema,52.499361,13.4496308,Casino-Lichtspiele,casino-lichtspiele,,,,wikidata,"Schlesische Straße 26, 10997 Berlin","Schlesische Straße 26, 10997 Berlin",,Q47155482
Berlin,29,10997,Schlesische Straße,,Point(13.446726 52.4987683),cinema,52.4987683,13.446726,WBT-Lichtspiele,wbt-lichtspiele,,,,wikidata,"Schlesische Straße 29, 10997 Berlin","Schlesische Straße 29, 10997 Berlin",,Q47155485
Berlin,42,10997,Schlesische Straße,,Point(13.4433122 52.500491),cinema,52.500491,13.4433122,Kino-Theater,kino-theater,,,,wikidata,"Schlesische Straße 42, 10997 Berlin","Schlesische Straße 42, 10997 Berlin",,Q47155486
Berlin,94,10997,Skalitzer Straße,,Point(13.43288 52.49989),cinema,52.49989,13.43288,Filmeck,filmeck,,,,wikidata,"Skalitzer Straße 94, 10997 Berlin","Skalitzer Straße 94, 10997 Berlin",,Q47155488
Berlin,76,10967,Urbanstraße 72-,,Point(13.4237707 52.4880543),cinema,52.4880543,13.4237707,Primus-Palast am Hermannplatz,primus-palast-am-hermannplatz,,,,wikidata,"Urbanstraße 72–76, 10967 Berlin","Urbanstraße 72-76, 10967 Berlin",,Q47155491
Berlin,6,10999,Wiener Straße 1-,,Point(13.4268042 52.4991091),cinema,52.4991091,13.4268042,Colosseum,colosseum,,,,wikidata,"Wiener Straße 1–6, 10999 Berlin","Wiener Straße 1-6, 10999 Berlin",,Q47155507
Berlin,11,10999,Wiener Straße,,Point(13.4282493 52.4986002),cinema,52.4986002,13.4282493,Luisen-Kino,luisen-kino,,,,wikidata,"Wiener Straße 11, 10999 Berlin","Wiener Straße 11, 10999 Berlin",,Q47155508
Berlin,34,10999,Wiener Straße,,Point(13.4351304 52.4960741),cinema,52.4960741,13.4351304,Wiener Lichtspiele,wiener-lichtspiele,,,,wikidata,"Wiener Straße 34, 10999 Berlin","Wiener Straße 34, 10999 Berlin",,Q47155509
Berlin,11,10997,Wrangelstraße 10-,,Point(13.428529 52.5040745),cinema,52.5040745,13.428529,Urania-Theater,urania-theater,,,,wikidata,"Wrangelstraße 10–11, 10997 Berlin","Wrangelstraße 10-11, 10997 Berlin",,Q47155511
Berlin,53,10997,Wrangelstraße,,Point(13.436471 52.5008505),cinema,52.5008505,13.436471,Lichtspiele,lichtspiele,,,,wikidata,"Wrangelstraße 53, 10997 Berlin","Wrangelstraße 53, 10997 Berlin",,Q47155514
Berlin,9,10997,Wrangelstraße,,Point(13.42801 52.50391),cinema,52.50391,13.42801,Wrangel-Lichtspiele,wrangel-lichtspiele,,,,wikidata,"Wrangelstraße 9, 10997 Berlin","Wrangelstraße 9, 10997 Berlin",,Q47155520
Berlin,,10243,Straße der Pariser Kommune,,Point(13.43539685 52.50973067),cinema,52.50973067,13.43539685,Kino im Hauptbahnhof,kino-im-hauptbahnhof,,,,wikidata,"Straße der Pariser Kommune, 10243 Berlin","Straße der Pariser Kommune, 10243 Berlin",,Q47155741
Berlin,70,10243,Karl-Marx-Allee,,Point(13.43337 52.515173),cinema,52.515173,13.43337,Kulturhaus der Bauarbeiter,kulturhaus-der-bauarbeiter,,,,wikidata,"Karl-Marx-Allee 70, 10243 Berlin","Karl-Marx-Allee 70, 10243 Berlin",,Q47155755
Berlin,64,10243,Andreasstraße,,Point(13.4297389 52.51405358),cinema,52.51405358,13.4297389,Concordia-Palast,concordia-palast,,,,wikidata,"Andreasstraße 64, 10243 Berlin","Andreasstraße 64, 10243 Berlin",,Q47155841
Berlin,22,10243,Andreasstraße vor,,Point(13.43212749 52.51504587),cinema,52.51504587,13.43212749,"Kinematographentheater, Andreasstraße",kinematographentheater-andreasstra-e,,,,wikidata,"Andreasstraße vor 22, 10243 Berlin","Andreasstraße vor 22, 10243 Berlin",,Q47155844
Berlin,73,10247,Bänschstraße,,Point(13.46864954 52.51740747),cinema,52.51740747,13.46864954,Mirbach-Lichtspiele,mirbach-lichtspiele,,,,wikidata,"Bänschstraße 73, 10247 Berlin","Bänschstraße 73, 10247 Berlin",,Q47155850
Berlin,104,10245,Boxhagener Straße,,Point(13.45916997 52.51273082),cinema,52.51273082,13.45916997,Welt-Lichtspiele,welt-lichtspiele,,,,wikidata,"Boxhagener Straße 104, 10245 Berlin","Boxhagener Straße 104, 10245 Berlin",,Q47155854
Berlin,107,10245,Boxhagener Straße,,Point(13.45799755 52.51287673),cinema,52.51287673,13.45799755,Kino Intimes,kino-intimes,,,,wikidata,"Boxhagener Straße 107, 10245 Berlin","Boxhagener Straße 107, 10245 Berlin",,Q47155856
Berlin,39,10245,Boxhagener Straße,,Point(13.46216848 52.51171931),cinema,52.51171931,13.46216848,Wismar-Lichtspiele,wismar-lichtspiele,,,,wikidata,"Boxhagener Straße 39, 10245 Berlin","Boxhagener Straße 39, 10245 Berlin",,Q47155860
Berlin,59,10245,Boxhagener Straße,,Point(13.4693397 52.5064705),cinema,52.5064705,13.4693397,Aboli-Lichtspiele,aboli-lichtspiele,,,,wikidata,"Boxhagener Straße 59, 10245 Berlin","Boxhagener Straße 59, 10245 Berlin",,Q47155861
Berlin,111a,10247,Frankfurter Allee,,Point(13.4746113 52.51395237),cinema,52.51395237,13.4746113,"Kinematographen-Theater, Frankfurter Allee",kinematographen-theater-frankfurter-allee,,,,wikidata,"Frankfurter Allee 111a (Bahnhof Frankfurter Allee), 10247 Berlin","Frankfurter Allee 111a , 10247 Berlin",,Q47155893
Berlin,24,10247,Frankfurter Allee,,Point(13.45895068 52.51507499),cinema,52.51507499,13.45895068,Viktoria-Lichtspiele,viktoria-lichtspiele,,,,wikidata,"Frankfurter Allee 24, 10247 Berlin","Frankfurter Allee 24, 10247 Berlin",,Q47155895
Berlin,26,10247,Frankfurter Allee,,Point(13.45934228 52.51501949),cinema,52.51501949,13.45934228,Plath-Lichtspiele,plath-lichtspiele,,,,wikidata,"Frankfurter Allee 26, 10247 Berlin","Frankfurter Allee 26, 10247 Berlin",,Q47155899
Berlin,91,10247,Frankfurter Allee,,Point(13.4720949 52.51445735),cinema,52.51445735,13.4720949,Kammerlichtspiele,kammerlichtspiele,,,,wikidata,"Frankfurter Allee 91, 10247 Berlin","Frankfurter Allee 91, 10247 Berlin",,Q47155901
Berlin,21,10247,Frankfurter Allee vor,,Point(13.45872802 52.51558339),cinema,52.51558339,13.45872802,Germania-Palast,germania-palast,,,,wikidata,"Frankfurter Allee vor 21, 10247 Berlin","Frankfurter Allee vor 21, 10247 Berlin",,Q47155905
Berlin,3,10247,Frankfurter Allee vor,,Point(13.45565692 52.51595961),cinema,52.51595961,13.45565692,Liebig-Lichtspiele,liebig-lichtspiele,,,,wikidata,"Frankfurter Allee vor 3, 10247 Berlin","Frankfurter Allee vor 3, 10247 Berlin",,Q47155910
Berlin,4,10243,Franz-Mehring-Platz vor,,Point(13.4381951 52.51418175),cinema,52.51418175,13.4381951,Plaza,plaza,,,,wikidata,"Franz-Mehring-Platz vor 4, 10243 Berlin","Franz-Mehring-Platz vor 4, 10243 Berlin",,Q47155913
Berlin,6,10243,Fredersdorfer Straße,,Point(13.44169172 52.51370897),cinema,52.51370897,13.44169172,Königsberger Lichtspiele,k-nigsberger-lichtspiele,,,,wikidata,"Fredersdorfer Straße 6, 10243 Berlin","Fredersdorfer Straße 6, 10243 Berlin",,Q47155919
Berlin,19,10245,Gärtnerstraße,,Point(13.4615156 52.5119038),cinema,52.5119038,13.4615156,b-ware! ladenkino,b-ware-ladenkino,,,,wikidata,"Gärtnerstraße 19, 10245 Berlin","Gärtnerstraße 19, 10245 Berlin",http://ladenkino.de,Q47155923
Berlin,25,10243,Hildegard-Jadamowitz-Straße neben,,Point(13.45118165 52.51547983),cinema,52.51547983,13.45118165,Lido,lido,,,,wikidata,"Hildegard-Jadamowitz-Straße neben 25, 10243 Berlin","Hildegard-Jadamowitz-Straße neben 25, 10243 Berlin",,Q47155942
Berlin,18,10243,Hildegard-Jadamowitz-Straße vor,,Point(13.45037458 52.51575397),cinema,52.51575397,13.45037458,Lasdehner Lichtspiele,lasdehner-lichtspiele,,,,wikidata,"Hildegard-Jadamowitz-Straße vor 18, 10243 Berlin","Hildegard-Jadamowitz-Straße vor 18, 10243 Berlin",,Q47155947
Berlin,7 / 9,10245,Holteistraße / ,,Point(13.46533248 52.5072365),cinema,52.5072365,13.46533248,Städtische Jugendbühne,st-dtische-jugendb-hne,,,,wikidata,"Holteistraße 7/9, 10245 Berlin","Holteistraße 7/9, 10245 Berlin",,Q47155950
Berlin,60,10243,Karl-Marx-Allee,,Point(13.43089006 52.51784988),cinema,52.51784988,13.43089006,Passage,passage,,,,wikidata,"Karl-Marx-Allee 60, 10243 Berlin","Karl-Marx-Allee 60, 10243 Berlin",,Q47155975
Berlin,69a,10243,Karl-Marx-Allee,,Point(13.43312131 52.51809855),cinema,52.51809855,13.43312131,Thalia Lichtspiele,thalia-lichtspiele,,,,wikidata,"Karl-Marx-Allee 69a, 10243 Berlin","Karl-Marx-Allee 69a, 10243 Berlin",,Q47155978
Berlin,70f,10243,Karl-Marx-Allee,,Point(13.43493095 52.51722282),cinema,52.51722282,13.43493095,Luna-Palast,luna-palast,,,,wikidata,"Karl-Marx-Allee 70f, 10243 Berlin","Karl-Marx-Allee 70f, 10243 Berlin",,Q47155981
Berlin,67,10243,Karl-Marx-Allee vor,,Point(13.43258455 52.51823008),cinema,52.51823008,13.43258455,Filmstern,filmstern,,,,wikidata,"Karl-Marx-Allee vor 67, 10243 Berlin","Karl-Marx-Allee vor 67, 10243 Berlin",,Q47155985
Berlin,29,10243,Koppenstraße,,Point(13.43652609 52.51654292),cinema,52.51654292,13.43652609,Alhambra,alhambra,,,,wikidata,"Koppenstraße 29, 10243 Berlin","Koppenstraße 29, 10243 Berlin",,Q47156021
Berlin,11,10245,Krossener Straße,,Point(13.45811888 52.51074626),cinema,52.51074626,13.45811888,Volks-Bilder-Bühne,volks-bilder-b-hne,,,,wikidata,"Krossener Straße 11, 10245 Berlin","Krossener Straße 11, 10245 Berlin",,Q47156025
Berlin,78,10243,Marchlewskistraße,,Point(13.44648335 52.51128772),cinema,52.51128772,13.44648335,Comenius-Lichtspiele,comenius-lichtspiele,,,,wikidata,"Marchlewskistraße (nördlich von) 78, 10243 Berlin","Marchlewskistraße 78, 10243 Berlin",,Q47156030
Berlin,34,10245,Markgrafendamm,,Point(13.46430455 52.49843472),cinema,52.49843472,13.46430455,Stralauer Filmtheater,stralauer-filmtheater,,,,wikidata,"Markgrafendamm 34, 10245 Berlin","Markgrafendamm 34, 10245 Berlin",,Q47156034
Berlin,45,10249,Mühsamstraße,,Point(13.44987277 52.52009449),cinema,52.52009449,13.44987277,Central-Lichtspiele,central-lichtspiele,,,,wikidata,"Mühsamstraße 45, 10249 Berlin","Mühsamstraße 45, 10249 Berlin",,Q47156037
Berlin,2,10247,Oderstraße,,Point(13.47247574 52.50969151),cinema,52.50969151,13.47247574,Reform-Lichtspiele,reform-lichtspiele,,,,wikidata,"Oderstraße 2, 10247 Berlin","Oderstraße 2, 10247 Berlin",,Q47156039
Berlin,30,10243,Palisadenstraße westlich,,Point(13.4301826 52.52042204),cinema,52.52042204,13.4301826,Merkur-Palast-Lichtspiele,merkur-palast-lichtspiele,,,,wikidata,"Palisadenstraße westlich 30, 10243 Berlin","Palisadenstraße westlich 30, 10243 Berlin",,Q47156044
Berlin,15,10249,Volkspark Friedrichshain / Landsberger Allee,,Point(13.43540221 52.52533425),cinema,52.52533425,13.43540221,Freiluftkino Friedrichshain,freiluftkino-friedrichshain,,,,wikidata,"Volkspark Friedrichshain / Landsberger Allee 15, 10249 Berlin","Volkspark Friedrichshain / Landsberger Allee 15, 10249 Berlin",,Q47156065
,,,,,Point(13.44320956 52.52434233),cinema,52.52434233,13.44320956,UCI Kinowelt Friedrichshain,uci-kinowelt-friedrichshain,UCI Kinowelt,,,wikidata,,,https://www.uci-kinowelt.de/kinoinformation/berlin-friedrichshain/42,Q47156068
Berlin,61,10249,Landsberger Allee,,Point(13.443359 52.5255844),cinema,52.5255844,13.443359,Silesia-Lichtspiele,silesia-lichtspiele,,,,wikidata,"Landsberger Allee 61, 10249 Berlin","Landsberger Allee 61, 10249 Berlin",,Q47156072
Berlin,68d,10249,Landsberger Allee,,Point(13.44721332 52.525987),cinema,52.525987,13.44721332,Flora-Lichtspiele,flora-lichtspiele,,,,wikidata,"Landsberger Allee 68d, 10249 Berlin","Landsberger Allee 68d, 10249 Berlin",,Q47156073
Berlin,16,10249,Petersburger Straße,,Point(13.44802469 52.52494423),cinema,52.52494423,13.44802469,Petersburger Lichtspiele,petersburger-lichtspiele,,,,wikidata,"Petersburger Straße 16, 10249 Berlin","Petersburger Straße 16, 10249 Berlin",,Q47156112
Berlin,61,10249,Petersburger Straße,,Point(13.45206141 52.52070598),cinema,52.52070598,13.45206141,Monopol-Lichtspiele,monopol-lichtspiele,,,,wikidata,"Petersburger Straße 61, 10249 Berlin","Petersburger Straße 61, 10249 Berlin",,Q47156115
Berlin,16,,Lichtenberger Straße,,Point(13.43058446 52.52219924),cinema,52.52219924,13.43058446,Capitol,capitol,,,,wikidata,"Lichtenberger Straße 16, Berlin","Lichtenberger Straße 16, Berlin",,Q47156117
Berlin,19,10247,Proskauer Straße,,Point(13.46284988 52.51954503),cinema,52.51954503,13.46284988,Börsen-Lichtspiele,b-rsen-lichtspiele,,,,wikidata,"Proskauer Straße 19, 10247 Berlin","Proskauer Straße 19, 10247 Berlin",,Q47156120
Berlin,,10245,RAW-Gelände,,Point(13.4547984 52.50711028),cinema,52.50711028,13.4547984,Freiluftkino Insel im Cassiopeia,freiluftkino-insel-im-cassiopeia,,,,wikidata,"RAW-Gelände, Revaler Straße 99, 10245 Berlin","RAW-Gelände, Revaler Straße 99, 10245 Berlin",,Q47156124
Berlin,123,,Schönhauser Allee,,Point(13.4125 52.5478),cinema,52.5478,13.4125,Colosseum,colosseum,UCI Kinowelt,,,wikidata,"Schönhauser Allee 123, Berlin","Schönhauser Allee 123, Berlin",https://colosseum.premiumkino.de/,Q32651446
Berlin,5,10407,Bötzowstraße 1-,,Point(13.4304 52.5291),cinema,52.5291,13.4304,Filmtheater am Friedrichshain,filmtheater-am-friedrichshain,Yorck Kinogruppe,,,wikidata,"Bötzowstraße 1–5, 10407 Berlin","Bötzowstraße 1-5, 10407 Berlin",,Q32662590
Berlin,43 / 1,13086,Max-Steinke-Straße / Antonplatz,,Point(13.450898 52.548826),cinema,52.548826,13.450898,Kino Toni & Tonino,kino-toni-tonino,,,+49-30-92791200,wikidata,"Max-Steinke-Straße 43 / Antonplatz 1, 13086 Berlin","Max-Steinke-Straße 43 / Antonplatz 1, 13086 Berlin",http://www.kino-toni.de/,Q40289735
Berlin,18,13129,Alt-Blankenburg,,Point(13.45382755 52.59268186),cinema,52.59268186,13.45382755,Zentral-Lichtspiele Blankenburg,zentral-lichtspiele-blankenburg,,,,wikidata,"Alt-Blankenburg 18, 13129 Berlin","Alt-Blankenburg 18, 13129 Berlin",,Q47085561
Berlin,27,13125,Wiltbergstraße,,Point(13.49287612 52.63628347),cinema,52.63628347,13.49287612,Hubertus-Lichtspiele,hubertus-lichtspiele,,,,wikidata,"Wiltbergstraße 27, 13125 Berlin","Wiltbergstraße 27, 13125 Berlin",,Q47085632
Berlin,92,13125,Viereckweg,,Point(13.50690622 52.64571528),cinema,52.64571528,13.50690622,Lichtspieltheater Buch,lichtspieltheater-buch,,,,wikidata,"Viereckweg 92, 13125 Berlin","Viereckweg 92, 13125 Berlin",,Q47085711
Berlin,1,13125,Karower Straße,,Point(13.49947463 52.63518751),cinema,52.63518751,13.49947463,Schloßkrug-Lichtspiele Buch,schlo-krug-lichtspiele-buch,,,,wikidata,"Karower Straße 1, 13125 Berlin","Karower Straße 1, 13125 Berlin",,Q47085752
Berlin,67,13127,Pasewalker Straße,,Point(13.43234563 52.59610169),cinema,52.59610169,13.43234563,Filmpalast Buchholz,filmpalast-buchholz,,,,wikidata,"Pasewalker Straße 67, 13127 Berlin","Pasewalker Straße 67, 13127 Berlin",,Q47085902
Berlin,39,13127,Berliner Straße,,Point(13.43234563 52.59610169),cinema,52.59610169,13.43234563,Buchholzer Lichtspiele,buchholzer-lichtspiele,,,,wikidata,"Berliner Straße 39, 13127 Berlin","Berliner Straße 39, 13127 Berlin",,Q47085961
Berlin,2,13125,Alt-Karow,,Point(13.481596 52.6093888),cinema,52.6093888,13.481596,Filmeck Alt-Karow,filmeck-alt-karow,,,,wikidata,"Alt-Karow 2, 13125 Berlin","Alt-Karow 2, 13125 Berlin",,Q47085988
Berlin,11,13156,Hermann-Hesse-Straße,,Point(13.4015114 52.5802476),cinema,52.5802476,13.4015114,Blauer Stern,blauer-stern,,,,wikidata,"Hermann-Hesse-Straße 11, 13156 Berlin","Hermann-Hesse-Straße 11, 13156 Berlin",https://www.yorck.de/kinos/blauer-stern,Q47086121
Berlin,134,13158,Hauptstraße,,Point(13.37751583 52.59973023),cinema,52.59973023,13.37751583,Roli-Lichtspiele,roli-lichtspiele,,,,wikidata,"Hauptstraße 134, 13158 Berlin","Hauptstraße 134, 13158 Berlin",,Q47086305
Berlin,19,13158,Tollerstraße,,Point(13.37751583 52.59973023),cinema,52.59973023,13.37751583,Urania-Lichtspiele,urania-lichtspiele,,,,wikidata,"Tollerstraße 19, 13158 Berlin","Tollerstraße 19, 13158 Berlin",,Q47086316
Berlin,40,13158,Hauptstraße,,Point(13.36857 52.5883),cinema,52.5883,13.36857,Lunik,lunik,,,,wikidata,"Hauptstraße 40, 13158 Berlin","Hauptstraße 40, 13158 Berlin",,Q47086328
,76,,Provinzstraße 75-,,Point(13.38050769 52.57343588),cinema,52.57343588,13.38050769,Universum Schönholz,universum-sch-nholz,,,,wikidata,Provinzstraße 75-76,Provinzstraße 75-76,,Q47086359
Berlin,10,13156,Blankenburger Straße,,Point(13.4058257 52.5815701),cinema,52.5815701,13.4058257,Film-Palast,film-palast,,,,wikidata,"Blankenburger Straße 10, 13156 Berlin","Blankenburger Straße 10, 13156 Berlin",,Q47086361
Berlin,21a,13187,Breite Straße,,Point(13.403148 52.569641),cinema,52.569641,13.403148,Palast-Theater,palast-theater,,,,wikidata,"Breite Straße 21a, 13187 Berlin","Breite Straße 21a, 13187 Berlin",,Q47086374
Berlin,113,13187,Wollankstraße,,Point(13.39677445 52.56637267),cinema,52.56637267,13.39677445,Roland-Lichtspiele,roland-lichtspiele,,,,wikidata,"Wollankstraße 113, 13187 Berlin","Wollankstraße 113, 13187 Berlin",,Q47086377
Berlin,4,13187,Kreuzstraße 3-,,Point(13.39810482 52.56911159),cinema,52.56911159,13.39810482,Welt im Licht,welt-im-licht,,,,wikidata,"Kreuzstraße 3–4, 13187 Berlin","Kreuzstraße 3-4, 13187 Berlin",,Q47086383
Berlin,16,13187,Florastraße,,Point(13.4014206 52.5655394),cinema,52.5655394,13.4014206,Zimmer 16,zimmer-16,,,,wikidata,"Florastraße 16, 13187 Berlin","Florastraße 16, 13187 Berlin",https://zimmer16.com/,Q47086388
Berlin,3,13187,Neue Schönholzer Straße,,Point(13.40140417 52.56848664),cinema,52.56848664,13.40140417,Neue Schönholzer Lichtspiele,neue-sch-nholzer-lichtspiele,,,,wikidata,"Neue Schönholzer Straße 3, 13187 Berlin","Neue Schönholzer Straße 3, 13187 Berlin",,Q47086394
Berlin,53,13189,Berliner Straße,,Point(13.41303646 52.55848428),cinema,52.55848428,13.41303646,Odeum-Lichtspiele,odeum-lichtspiele,,,,wikidata,"Berliner Straße 53, 13189 Berlin","Berliner Straße 53, 13189 Berlin",,Q47086397
Berlin,32,13088,Berliner Allee / Antonplatz,,Point(13.4513887 52.5483108),cinema,52.5483108,13.4513887,Anton-Lichtspiele,anton-lichtspiele,,,,wikidata,"Berliner Allee 32 / Antonplatz, 13088 Berlin","Berliner Allee 32 / Antonplatz, 13088 Berlin",,Q47086468
Berlin,55,13086,Charlottenburger Str.,,Point(13.43800271 52.55458086),cinema,52.55458086,13.43800271,Charlotten-Lichtspiele,charlotten-lichtspiele,,,,wikidata,"Charlottenburger Str. 55, 13086 Berlin","Charlottenburger Str. 55, 13086 Berlin",,Q47086480
Berlin,23,13086,Langhansstraße,,Point(13.4449063 52.5505607),cinema,52.5505607,13.4449063,Jugend,jugend,,,,wikidata,"Langhansstraße 23, 13086 Berlin","Langhansstraße 23, 13086 Berlin",,Q47086495
Berlin,143,13086,Langhansstraße,,Point(13.447922 52.54933705),cinema,52.54933705,13.447922,Langhans-Lichtspiele,langhans-lichtspiele,,,,wikidata,"Langhansstraße 143, 13086 Berlin","Langhansstraße 143, 13086 Berlin",,Q47086496
Berlin,111,13088,Bizetstraße,,Point(13.4613002 52.54954086),cinema,52.54954086,13.4613002,Pariser Theater,pariser-theater,,,,wikidata,"Bizetstraße 111, 13088 Berlin","Bizetstraße 111, 13088 Berlin",,Q47086499
Berlin,9,13086,Prenzlauer Promenade 6-,,Point(13.4304067 52.55280652),cinema,52.55280652,13.4304067,Rio-Lichtspiele,rio-lichtspiele,,,,wikidata,"Prenzlauer Promenade 6-9, 13086 Berlin","Prenzlauer Promenade 6-9, 13086 Berlin",,Q47086510
Berlin,1 / 245,13086,Gäblerstraße / Berliner Allee / Antonplatz,,Point(13.45135436 52.54866849),cinema,52.54866849,13.45135436,Uhu-Lichtspiele,uhu-lichtspiele,,,,wikidata,"Gäblerstraße 1 / Berliner Allee 245  / Antonplatz, Berlin-Weißensee","Gäblerstraße 1 / Berliner Allee 245 / Antonplatz, Berlin-Weißensee",,Q47086531
,15,,Belforter Straße,,Point(13.41839 52.53192),cinema,52.53192,13.41839,Bat-Studiotheater,bat-studiotheater,,,,wikidata,Belforter Straße 15,Belforter Straße 15,,Q47088861
Berlin,80,10439,Schönhauser Allee,,Point(13.41523045 52.54984019),cinema,52.54984019,13.41523045,Skala-Lichtspiele,skala-lichtspiele,,,,wikidata,"Schönhauser Allee 80, 10439 Berlin","Schönhauser Allee 80, 10439 Berlin",,Q47088864
Berlin,110,10439,Schönhauser Allee,,Point(13.4134255 52.5513756),cinema,52.5513756,13.4134255,Apollo-Theater,apollo-theater,,,,wikidata,"Schönhauser Allee 110, 10439 Berlin","Schönhauser Allee 110, 10439 Berlin",,Q47088898
,,,,,Point(13.4093124 52.5509032),cinema,52.5509032,13.4093124,Arnim-Lichtspiele,arnim-lichtspiele,,,,wikidata,,,,Q47088899
Berlin,47,10405,Prenzlauer Allee,,Point(13.4233449 52.5369074),cinema,52.5369074,13.4233449,Berolina-Lichtspiele,berolina-lichtspiele,,,,wikidata,"Prenzlauer Allee 47, 10405 Berlin","Prenzlauer Allee 47, 10405 Berlin",,Q47088900
Berlin,61,10437,Schönhauser Allee,,Point(13.4134702 52.5455344),cinema,52.5455344,13.4134702,Bilderbühne Metropol,bilderb-hne-metropol,,,,wikidata,"Schönhauser Allee 61, 10437 Berlin","Schönhauser Allee 61, 10437 Berlin",,Q47088901
Berlin,115,10439,Schönhauser Allee,,Point(13.4130233 52.55015555),cinema,52.55015555,13.4130233,Biophon-Theater,biophon-theater,,,,wikidata,"Schönhauser Allee 115, 10439 Berlin","Schönhauser Allee 115, 10439 Berlin",,Q47088902
Berlin,14,10405,Immanuelkirchstraße,,Point(13.42578956 52.53159454),cinema,52.53159454,13.42578956,Blow Up,blow-up,,,,wikidata,"Immanuelkirchstraße 14, 10405 Berlin","Immanuelkirchstraße 14, 10405 Berlin",,Q47088903
Berlin,15,10437,Schliemannstraße,,Point(13.4198467 52.5436282),cinema,52.5436282,13.4198467,Downstairs Kino im Filmcafé,downstairs-kino-im-filmcaf,,,,wikidata,"Schliemannstraße 15, 10437 Berlin","Schliemannstraße 15, 10437 Berlin",,Q47088904
Berlin,206,10405,Greifswalder Straße,,Point(13.4285602 52.5329834),cinema,52.5329834,13.4285602,Elite-Theater,elite-theater,,,,wikidata,"Greifswalder Straße 206, 10405 Berlin","Greifswalder Straße 206, 10405 Berlin",,Q47088905
Berlin,56,10405,Prenzlauer Allee,,Point(13.4246415 52.5396956),cinema,52.5396956,13.4246415,Elysium-Lichtspiele,elysium-lichtspiele,,,,wikidata,"Prenzlauer Allee 56, 10405 Berlin","Prenzlauer Allee 56, 10405 Berlin",,Q47088906
Berlin,87,10405,Prenzlauer Allee,,Point(13.42798364 52.54481),cinema,52.54481,13.42798364,Erra-Lichtspiele,erra-lichtspiele,,,,wikidata,"Prenzlauer Allee 87, 10405 Berlin","Prenzlauer Allee 87, 10405 Berlin",,Q47088907
Berlin,15,,Franseckystraße,,Point(13.4171801 52.5382046),cinema,52.5382046,13.4171801,Fransecky-Theater,fransecky-theater,,,,wikidata,"Franseckystraße 15, Prenzlauer Berg, Berlin","Franseckystraße 15, Prenzlauer Berg, Berlin",,Q47088909
Berlin,48,10405,Greifswalder Straße,,Point(13.4338474 52.5364173),cinema,52.5364173,13.4338474,Greifswalder Filmbühne,greifswalder-filmb-hne,,,,wikidata,"Greifswalder Straße 48, 10405 Berlin","Greifswalder Straße 48, 10405 Berlin",,Q47088912
Berlin,14,10437,Raumerstraße,,Point(13.41968161 52.5421282),cinema,52.5421282,13.41968161,Helmholtz-Lichtspiele,helmholtz-lichtspiele,,,,wikidata,"Raumerstraße 14, 10437 Berlin","Raumerstraße 14, 10437 Berlin",,Q47088913
Berlin,35,10437,Gleimstraße 32-,,Point(13.41228488 52.54766859),cinema,52.54766859,13.41228488,Hofkino,hofkino,,,,wikidata,"Gleimstraße 32–35, 10437 Berlin","Gleimstraße 32-35, 10437 Berlin",,Q47088914
Berlin,86,10437,Dunckerstraße,,Point(13.41949688 52.54135405),cinema,52.54135405,13.41949688,Kasino-Kino,kasino-kino,,,,wikidata,"Dunckerstraße 86, 10437 Berlin","Dunckerstraße 86, 10437 Berlin",,Q47088915
Berlin,22,10435,Danziger Straße,,Point(13.4166665 52.5401238),cinema,52.5401238,13.4166665,"Kinematographentheater, Danziger Straße",kinematographentheater-danziger-stra-e,,,,wikidata,"Danziger Straße 22, 10435 Berlin","Danziger Straße 22, 10435 Berlin",,Q47088916
Berlin,147,10407,Danziger Straße,,Point(13.43742 52.53457),cinema,52.53457,13.43742,Komet-Lichtspiele,komet-lichtspiele,,,,wikidata,"Danziger Straße 147, 10407 Berlin","Danziger Straße 147, 10407 Berlin",,Q47088917
Berlin,85,10405,Otto-Braun-Straße,,Point(13.42213064 52.52738548),cinema,52.52738548,13.42213064,Königstor-Lichtspiele,k-nigstor-lichtspiele,,,,wikidata,"Otto-Braun-Straße 85, 10405 Berlin","Otto-Braun-Straße 85, 10405 Berlin",,Q47088919
,,,,,Point(13.40506292 52.54899738),cinema,52.54899738,13.40506292,Kopenhagener Kinotheater,kopenhagener-kinotheater,,,,wikidata,,,,Q47088920
Berlin,49,10405,Prenzlauer Allee,,Point(13.42366542 52.53732831),cinema,52.53732831,13.42366542,Korso-Lichtspiele,korso-lichtspiele,,,,wikidata,"Prenzlauer Allee 49, 10405 Berlin","Prenzlauer Allee 49, 10405 Berlin",,Q47088921
Berlin,32,10437,Greifenhagener Straße,,Point(13.4194181 52.5522633),cinema,52.5522633,13.4194181,Krokodil,krokodil,,,,wikidata,"Greifenhagener Straße 32, 10437 Berlin","Greifenhagener Straße 32, 10437 Berlin",http://www.kino-krokodil.de/,Q47088923
Berlin,78 / 79,10437,Pappelallee / ,,Point(13.4141502 52.5430556),cinema,52.5430556,13.4141502,Libelle-Filmtheater,libelle-filmtheater,,,,wikidata,"Pappelallee 78/79, 10437 Berlin","Pappelallee 78/79, 10437 Berlin",,Q47088929
Berlin,157,10435,Schönhauser Allee,,Point(13.41176937 52.53716243),cinema,52.53716243,13.41176937,"Kinematographentheater, Schönhauser Allee 157",kinematographentheater-sch-nhauser-allee-157,,,,wikidata,"Schönhauser Allee 157, 10435 Berlin","Schönhauser Allee 157, 10435 Berlin",,Q47088930
Berlin,32,10407,Am Friedrichshain 29-,,Point(13.427175 52.5284257),cinema,52.5284257,13.427175,Märchenbrunnen-Lichtspiele,m-rchenbrunnen-lichtspiele,,,,wikidata,"Am Friedrichshain 29–32, 10407 Berlin","Am Friedrichshain 29-32, 10407 Berlin",,Q47088931
,,,,,Point(13.41602536 52.53861305),cinema,52.53861305,13.41602536,Metropol-Lichtspiele,metropol-lichtspiele,,,,wikidata,,,,Q47088932
Berlin,130,10437,Schönhauser Allee,,Point(13.4121447 52.5454984),cinema,52.5454984,13.4121447,Mila-Lichtspielpalast,mila-lichtspielpalast,,,,wikidata,"Schönhauser Allee 130, 10437 Berlin","Schönhauser Allee 130, 10437 Berlin",,Q47088933
Berlin,42,10405,Winsstraße,,Point(13.4277347 52.5368672),cinema,52.5368672,13.4277347,Nord-Ost-Kino,nord-ost-kino,,,,wikidata,"Winsstraße 42, 10405 Berlin","Winsstraße 42, 10405 Berlin",,Q47088934
Berlin,93,10407,Landsberger Allee,,Point(13.44994292 52.52749736),cinema,52.52749736,13.44994292,Reform-Lichtspiele,reform-lichtspiele,,,,wikidata,"Landsberger Allee 93, 10407 Berlin","Landsberger Allee 93, 10407 Berlin",,Q47088935
,,,,,Point(13.4079535 52.5515819),cinema,52.5515819,13.4079535,Schauburg am Arnimplatz,schauburg-am-arnimplatz,,,,wikidata,,,,Q47088936
Berlin,101,10439,Schönhauser Allee,,Point(13.4139246 52.553339),cinema,52.553339,13.4139246,Schönhauser Lichtbild-Theater,sch-nhauser-lichtbild-theater,,,,wikidata,"Schönhauser Allee 101, 10439 Berlin","Schönhauser Allee 101, 10439 Berlin",,Q47088938
Berlin,65 / 66,10437,Stargarder Straße / ,,Point(13.4197998 52.54613911),cinema,52.54613911,13.4197998,Stargarder Lichtspiele,stargarder-lichtspiele,,,,wikidata,"Stargarder Straße 65/66, 10437 Berlin","Stargarder Straße 65/66, 10437 Berlin",,Q47088939
Berlin,10 / 11,10405,Schönhauser Allee / ,,Point(13.41168314 52.53079611),cinema,52.53079611,13.41168314,Ufa-Palast Königstadt,ufa-palast-k-nigstadt,,,,wikidata,"Schönhauser Allee 10/11, 10405 Berlin","Schönhauser Allee 10/11, 10405 Berlin",,Q47088941
,,,,,Point(13.42612644 52.53088557),cinema,52.53088557,13.42612644,Union-Festsäle,union-fests-le,,,,wikidata,,,,Q47088942
Berlin,41,10405,Metzer Straße,,Point(13.4143041 52.5322794),cinema,52.5322794,13.4143041,"Union-Theater, Metzer Straße",union-theater-metzer-stra-e,,,,wikidata,"Metzer Straße 41, 10405 Berlin","Metzer Straße 41, 10405 Berlin",,Q47088943
Berlin,45,10409,Naugarder Straße,,Point(13.43829146 52.54276348),cinema,52.54276348,13.43829146,"Union-Theater, Naugarder Straße",union-theater-naugarder-stra-e,,,,wikidata,"Naugarder Straße 45, 10409 Berlin","Naugarder Straße 45, 10409 Berlin",,Q47088944
Berlin,144,10435,Schönhauser Allee,,Point(13.4117344 52.5413491),cinema,52.5413491,13.4117344,Welttheater „Das lebende Bild“,welttheater-das-lebende-bild,,,,wikidata,"Schönhauser Allee 144, 10435 Berlin","Schönhauser Allee 144, 10435 Berlin",,Q47088945
Berlin,7,10119,Schönhauser Allee 6-,,Point(13.4104549 52.5296452),cinema,52.5296452,13.4104549,White Trash,white-trash,,,,wikidata,"Schönhauser Allee 6-7, 10119 Berlin","Schönhauser Allee 6-7, 10119 Berlin",,Q47088946
,,,,,Point(13.42765 52.52946),cinema,52.52946,13.42765,Schweizer Garten,schweizer-garten,,,,wikidata,,,,Q105436919
,,,,,Point(13.366027777 52.546305555),cinema,52.546305555,13.366027777,Arsenal,arsenal,Arsenal Institut für Film und Videokunst,,,wikidata,,,,Q47034859
Berlin,4,10785,Potsdamer Straße,,Point(13.37268 52.51008),cinema,52.51008,13.37268,CineStar IMAX im Sony Center,cinestar-imax-im-sony-center,Cinestar,,,wikidata,"Potsdamer Straße 4, 10785 Berlin","Potsdamer Straße 4, 10785 Berlin",https://www.cinestar.de/kino-berlin-imax-im-sony-center/,Q47164545
Berlin,4,10785,Potsdamer Straße,,Point(13.37268 52.51008),cinema,52.51008,13.37268,CineStar Original im Sony Center,cinestar-original-im-sony-center,Cinestar,,,wikidata,"Potsdamer Straße 4, 10785 Berlin","Potsdamer Straße 4, 10785 Berlin",https://www.cinestar.de/kino-berlin-original-im-sony-center/,Q47164559
Berlin,41,10178,Rosenthaler Straße 40-,,Point(13.401836 52.524096),cinema,52.524096,13.401836,Hackesche Höfe Kino,hackesche-h-fe-kino,,,,wikidata,"Rosenthaler Straße 40-41, 10178 Berlin","Rosenthaler Straße 40-41, 10178 Berlin",https://www.hoefekino.de/,Q47164843
Berlin,1,10178,Rathausstraße,,Point(13.41208 52.52018),cinema,52.52018,13.41208,CineStar Berlin Cubix am Alexanderplatz,cinestar-berlin-cubix-am-alexanderplatz,Cinestar,,,wikidata,"Rathausstraße 1, 10178 Berlin","Rathausstraße 1, 10178 Berlin",https://www.cinestar.de/kino-berlin-cubix-am-alexanderplatz/,Q47164876
Berlin,55,,Große Frankfurter Straße,,Point(13.426 52.51953),cinema,52.51953,13.426,Berolina,berolina,,,,wikidata,"Große Frankfurter Straße 55, Berlin","Große Frankfurter Straße 55, Berlin",,Q47165269
,,,,,Point(13.395719 52.529467),cinema,52.529467,13.395719,Z-inema,z-inema,,,,wikidata,,,http://www.z-bar.de/,Q47165287
,,,,,Point(13.400724 52.530841),cinema,52.530841,13.400724,Alexandra-Palast,alexandra-palast,,,,wikidata,,,,Q47168271
Berlin,,10178,Bahnhof Alexanderplatz,,Point(13.411211 52.521537),cinema,52.521537,13.411211,Zeitkino Alexanderplatz,zeitkino-alexanderplatz,,,,wikidata,"Bahnhof Alexanderplatz, 10178 Berlin","Bahnhof Alexanderplatz, 10178 Berlin",,Q47168286
Berlin,,10117,Bahnhof Friedrichstraße,,Point(13.386978 52.520289),cinema,52.520289,13.386978,Zeitkino Friedrichstraße,zeitkino-friedrichstra-e,,,,wikidata,"Bahnhof Friedrichstraße, 10117 Berlin","Bahnhof Friedrichstraße, 10117 Berlin",,Q47168321
,,,,,Point(13.406493 52.521446),cinema,52.521446,13.406493,Haus Ungarn,haus-ungarn,,,,wikidata,,,http://hausungarn.de/,Q47192501
Berlin,1,10117,Am Festungsgraben,,Point(13.395597 52.518605),cinema,52.518605,13.395597,Clubkino Felix,clubkino-felix,,,,wikidata,"Am Festungsgraben 1, 10117 Berlin","Am Festungsgraben 1, 10117 Berlin",,Q47303779
,,,,,Point(13.405652 52.532521),cinema,52.532521,13.405652,Alfa-Lichtspiele,alfa-lichtspiele,,,,wikidata,,,,Q47304458
,,,,,Point(13.395827 52.532765),cinema,52.532765,13.395827,"Bio-Lichtspiele, Ackerstraße",bio-lichtspiele-ackerstra-e,,,,wikidata,,,,Q47304501
,,,,,Point(13.412648 52.521334),cinema,52.521334,13.412648,Ufa-Theater Alexanderplatz,ufa-theater-alexanderplatz,,,,wikidata,,,,Q47304524
Berlin,1,,Alexanderstraße,,Point(13.416476 52.521),cinema,52.521,13.416476,Biophon-Theater-Lichtspiele,biophon-theater-lichtspiele,,,,wikidata,"Alexanderstraße 1, Berlin","Alexanderstraße 1, Berlin",,Q47304549
Berlin,37,10179,Alexanderstraße,,Point(13.417957 52.51776),cinema,52.51776,13.417957,Kakadu-Lichtspiele,kakadu-lichtspiele,,,,wikidata,"Alexanderstraße 37, 10179 Berlin","Alexanderstraße 37, 10179 Berlin",,Q47304556
Berlin,3,10178,Bernhard-Weiß-Straße,,Point(13.417494 52.524151),cinema,52.524151,13.417494,Königshaus-Lichtspiele,k-nigshaus-lichtspiele,,,,wikidata,"Bernhard-Weiß-Straße 3, 10178 Berlin","Bernhard-Weiß-Straße 3, 10178 Berlin",,Q47304568
Berlin,2,10179,Brückenstraße,,Point(13.417127 52.511986),cinema,52.511986,13.417127,Orpheum,orpheum,,,,wikidata,"Brückenstraße 2, 10179 Berlin","Brückenstraße 2, 10179 Berlin",,Q47304966
,,,,,Point(13.397366 52.535736),cinema,52.535736,13.397366,Filmtheater Berlin,filmtheater-berlin,,,,wikidata,,,,Q47307127
,,,,,Point(13.397418 52.535629),cinema,52.535629,13.397418,Amor-Lichtspiele,amor-lichtspiele,,,,wikidata,,,,Q47307135
,,,,,Point(13.399636 52.531889),cinema,52.531889,13.399636,Noack-Lichtspiele,noack-lichtspiele,,,,wikidata,,,,Q47307143
,,,,,Point(13.399331 52.531697),cinema,52.531697,13.399331,Elite-Lichtspiele,elite-lichtspiele,,,,wikidata,,,,Q47307150
,,,,,Point(13.398857 52.533512),cinema,52.533512,13.398857,Moderne Lichtspiele,moderne-lichtspiele,,,,wikidata,,,,Q47307157
,,,,,Point(13.400808 52.521464),cinema,52.521464,13.400808,Progreß Studiokino,progre-studiokino,,,,wikidata,,,,Q47307166
,,,,,Point(13.384722 52.529046),cinema,52.529046,13.384722,Lichtspiele Chausseestraße,lichtspiele-chausseestra-e,,,,wikidata,,,,Q47307194
,,,,,Point(13.384399 52.529762),cinema,52.529762,13.384399,Astra-Lichtspiele,astra-lichtspiele,,,,wikidata,,,,Q47307201
,,,,,Point(13.383052 52.530831),cinema,52.530831,13.383052,"Kinematographen-Theater, Chausseestraße",kinematographen-theater-chausseestra-e,,,,wikidata,,,,Q47307207
,,,,,Point(13.381201 52.532321),cinema,52.532321,13.381201,Metro-Palast,metro-palast,,,,wikidata,,,,Q47307213
,,,,,Point(13.375651 52.536821),cinema,52.536821,13.375651,Corso-Lichtspiele,corso-lichtspiele,,,,wikidata,,,,Q47307221
,,,,,Point(13.387769 52.525559),cinema,52.525559,13.387769,Scala,scala,,,,wikidata,,,,Q47307355
,,,,,Point(13.387568 52.522832),cinema,52.522832,13.387568,Weidenhof-Lichtspiele,weidenhof-lichtspiele,,,,wikidata,,,,Q47307362
,,,,,Point(13.388376 52.518476),cinema,52.518476,13.388376,Fata Morgana Lichtspiele,fata-morgana-lichtspiele,,,,wikidata,,,,Q47307370
Berlin,165,10117,Friedrichstraße,,Point(13.3889 52.515432),cinema,52.515432,13.3889,Stattkino,stattkino,,,,wikidata,"Friedrichstraße 165, 10117 Berlin","Friedrichstraße 165, 10117 Berlin",,Q47307374
,,,,,Point(13.388995 52.513322),cinema,52.513322,13.388995,Biophon Varieté,biophon-variet,,,,wikidata,,,,Q47307381
Berlin,180,10117,Friedrichstraße,,Point(13.389277 52.512809),cinema,52.512809,13.389277,Ufa-Theater Friedrichstraße,ufa-theater-friedrichstra-e,,,,wikidata,"Friedrichstraße 180, 10117 Berlin","Friedrichstraße 180, 10117 Berlin",,Q47307388
,,,,,Point(13.389453 52.511684),cinema,52.511684,13.389453,Empire-Theater,empire-theater,,,,wikidata,,,,Q47307394
Berlin,187 / 188,10117,Friedrichstraße / ,,Point(13.389401 52.511913),cinema,52.511913,13.389401,Pathéphon Salon Theater,path-phon-salon-theater,,,,wikidata,"Friedrichstraße 187/188, 10117 Berlin","Friedrichstraße 187/188, 10117 Berlin",,Q47307402
,,,,,Point(13.389766 52.510705),cinema,52.510705,13.389766,"Kinotheater, Friedrichstraße",kinotheater-friedrichstra-e,,,,wikidata,,,,Q47307410
Berlin,203 / 78,10969,Friedrichstraße / Schützenstraße,,Point(13.390152 52.508735),cinema,52.508735,13.390152,City-Lichtspiele,city-lichtspiele,,,,wikidata,"Friedrichstraße 203 / Schützenstraße 78, 10969 Berlin","Friedrichstraße 203 / Schützenstraße 78, 10969 Berlin",,Q47307419
Berlin,85,10117,Friedrichstraße,,Point(13.389153 52.516461),cinema,52.516461,13.389153,Edison-Theater,edison-theater,,,,wikidata,"Friedrichstraße 85, 10117 Berlin","Friedrichstraße 85, 10117 Berlin",,Q47307427
,,,,,Point(13.389503 52.52011),cinema,52.52011,13.389503,Stern,stern,,,,wikidata,,,,Q47307712
,,,,,Point(13.401963 52.523822),cinema,52.523822,13.401963,"Bio-Lichtspiele, Hackerscher Markt",bio-lichtspiele-hackerscher-markt,,,,wikidata,,,,Q47307719
Berlin,10,10179,Heinrich-Heine-Straße,,Point(13.414561 52.509652),cinema,52.509652,13.414561,Lichtspiele Das lebende Bild,lichtspiele-das-lebende-bild,,,,wikidata,"Heinrich-Heine-Straße 10, 10179 Berlin","Heinrich-Heine-Straße 10, 10179 Berlin",,Q47307728
,,,,,Point(13.382914 52.530412),cinema,52.530412,13.382914,Lichtspiel-Theater,lichtspiel-theater,,,,wikidata,,,,Q47307828
,,,,,Point(13.387678 52.531484),cinema,52.531484,13.387678,Lichtspiele am Stettiner Bahnhof,lichtspiele-am-stettiner-bahnhof,,,,wikidata,,,,Q47307834
,,,,,Point(13.398188 52.532665),cinema,52.532665,13.398188,Harmonie-Kino,harmonie-kino,,,,wikidata,,,,Q47307841
,,,,,Point(13.423348 52.519549),cinema,52.519549,13.423348,Ira-Palast,ira-palast,,,,wikidata,,,,Q47307897
Berlin,,10179,Fischerinsel,,Point(13.40582 52.51413),cinema,52.51413,13.40582,Lichtspiele Alt-Berlin,lichtspiele-alt-berlin,,,,wikidata,"Fischerinsel, 10179 Berlin","Fischerinsel, 10179 Berlin",,Q47307903
,,,,,Point(13.427619 52.507598),cinema,52.507598,13.427619,Taunus-Lichtspiele,taunus-lichtspiele,,,,wikidata,,,,Q47311520
Berlin,38,10179,Köpenicker Straße 36-,,Point(13.426279 52.50845),cinema,52.50845,13.426279,Odeon-Filmtheater,odeon-filmtheater,,,,wikidata,"Köpenicker Straße 36–38, 10179 Berlin","Köpenicker Straße 36-38, 10179 Berlin",,Q47311528
,,,,,Point(13.414342 52.511189),cinema,52.511189,13.414342,Neue Philharmonie-Lichtspiele,neue-philharmonie-lichtspiele,,,,wikidata,,,,Q47311541
Berlin,,10178,Berolinastraße,,Point(13.422569 52.52277),cinema,52.52277,13.422569,Kristall-Palast,kristall-palast,,,,wikidata,"Berolinastraße, 10178 Berlin","Berolinastraße, 10178 Berlin",,Q47311547
Berlin,,10178,Berolinastraße,,Point(13.423255 52.52226),cinema,52.52226,13.423255,Landsberger Lichtspiele,landsberger-lichtspiele,,,,wikidata,"Berolinastraße, 10178 Berlin","Berolinastraße, 10178 Berlin",,Q47311554
Berlin,50,10117,Leipziger Straße 48-,,Point(13.400776 52.51101),cinema,52.51101,13.400776,Kolonnaden Kino,kolonnaden-kino,,,,wikidata,"Leipziger Straße 48–50, 10117 Berlin","Leipziger Straße 48-50, 10117 Berlin",,Q47311624
Berlin,55,10117,Leipziger Straße,,Point(13.399289 52.511479),cinema,52.511479,13.399289,Checkpoint am Spittelmarkt,checkpoint-am-spittelmarkt,,,,wikidata,"Leipziger Straße 55, 10117 Berlin","Leipziger Straße 55, 10117 Berlin",,Q47311631
Berlin,55,10117,Leipziger Straße,,Point(13.398189 52.511382),cinema,52.511382,13.398189,Dönhoff-Lichtspiele,d-nhoff-lichtspiele,,,,wikidata,"Leipziger Straße 55, 10117 Berlin","Leipziger Straße 55, 10117 Berlin",,Q47311638
Berlin,60,10117,Leipziger Straße,,Point(13.396176 52.51127),cinema,52.51127,13.396176,Astrada,astrada,,,,wikidata,"Leipziger Straße 60, 10117 Berlin","Leipziger Straße 60, 10117 Berlin",,Q47311645
Berlin,43,,Elsasser Straße,,Point(13.388042 52.527009),cinema,52.527009,13.388042,Patria-Lichtspiele,patria-lichtspiele,,,,wikidata,"Elsasser Straße 43, Berlin","Elsasser Straße 43, Berlin",,Q47315771
,,,,,Point(13.399581 52.528824),cinema,52.528824,13.399581,Nordlicht-Lichtspiele,nordlicht-lichtspiele,,,,wikidata,,,,Q47315777
Berlin,54,10179,Märkisches Ufer,,Point(13.416578 52.514009),cinema,52.514009,13.416578,"Imperial, Märkisches Ufer",imperial-m-rkisches-ufer,,,,wikidata,"Märkisches Ufer 54, 10179 Berlin","Märkisches Ufer 54, 10179 Berlin",,Q47315783
Berlin,55,,Alexanderstraße,,Point(13.41184 52.522873),cinema,52.522873,13.41184,Filmburg,filmburg,,,,wikidata,"Alexanderstraße 55, Berlin","Alexanderstraße 55, Berlin",,Q47315791
Berlin,3,10178,Memhardtstraße,,Point(13.410343 52.523752),cinema,52.523752,13.410343,Münz-Lichtspiele,m-nz-lichtspiele,,,,wikidata,"Memhardtstraße 3, 10178 Berlin","Memhardtstraße 3, 10178 Berlin",,Q47315796
Berlin,13,10178,Neue Schönhauser Straße,,Point(13.404404 52.524455),cinema,52.524455,13.404404,Capitol,capitol,,,,wikidata,"Neue Schönhauser Straße 13, 10178 Berlin","Neue Schönhauser Straße 13, 10178 Berlin",,Q47315804
,,,,,Point(13.408517 52.520383),cinema,52.520383,13.408517,Filmtheater im Fernsehturm,filmtheater-im-fernsehturm,,,,wikidata,,,,Q47315982
,,,,,Point(13.408275 52.524259),cinema,52.524259,13.408275,Biograph-Theater,biograph-theater,,,,wikidata,,,,Q47316085
,,,,,Point(13.406403 52.524887),cinema,52.524887,13.406403,Zentrum-Lichtspiele,zentrum-lichtspiele,,,,wikidata,,,,Q47316091
,,,,,Point(13.408706 52.524118),cinema,52.524118,13.408706,Filmtheater Münz,filmtheater-m-nz,,,,wikidata,,,,Q47316097
,,,,,Point(13.388778 52.525792),cinema,52.525792,13.388778,High End 54,high-end-54,,,,wikidata,,,,Q47316117
Berlin,5a,,Karlstraße,,Point(13.378322 52.522213),cinema,52.522213,13.378322,Karl Kino,karl-kino,,,,wikidata,"Karlstraße 5a, Berlin","Karlstraße 5a, Berlin",,Q47316163
,,,,,Point(13.409968 52.528387),cinema,52.528387,13.409968,"Toneck-Lichtspiele, Rosa-Luxemburg-Straße",toneck-lichtspiele-rosa-luxemburg-stra-e,,,,wikidata,,,,Q47340538
,,,,,Point(13.40195 52.528596),cinema,52.528596,13.40195,Union,union,,,,wikidata,,,,Q47340587
,,,,,Point(13.402266 52.523878),cinema,52.523878,13.402266,"Imperial, Rosenthaler Straße",imperial-rosenthaler-stra-e,,,,wikidata,,,,Q47340594
,,,,,Point(13.403774 52.526196),cinema,52.526196,13.403774,"Bioskop-Theater, Rosenthaler Straße",bioskop-theater-rosenthaler-stra-e,,,,wikidata,,,,Q47340601
,,,,,Point(13.403169 52.527441),cinema,52.527441,13.403169,Kronen-Lichtspiele,kronen-lichtspiele,,,,wikidata,,,,Q47340606
Berlin,20,10179,Rungestraße,,Point(13.419615 52.512611),cinema,52.512611,13.419615,Dokument-Kino,dokument-kino,,,,wikidata,"Rungestraße 20, 10179 Berlin","Rungestraße 20, 10179 Berlin",,Q47340615
,,,,,Point(13.378954 52.507243),cinema,52.507243,13.378954,Schauburg,schauburg,,,,wikidata,,,,Q47340620
Berlin,88,,Elsasser Straße 86-,,Point(13.398996 52.529329),cinema,52.529329,13.398996,Phönix-Lichtspiele,ph-nix-lichtspiele,,,,wikidata,"Elsasser Straße 86-88, Berlin","Elsasser Straße 86-88, Berlin",,Q47340728
Berlin,15,,Elsasser Straße,,Point(13.395866 52.529196),cinema,52.529196,13.395866,Trumpf,trumpf,,,,wikidata,"Elsasser Straße 15, Berlin","Elsasser Straße 15, Berlin",,Q47340734
,,,,,Point(13.390299 52.527627),cinema,52.527627,13.390299,Nickelodeon,nickelodeon,,,,wikidata,,,,Q47340743
Berlin,22 / 86,10117,Unter den Linden / Friedrichstraße,,Point(13.388912 52.51731),cinema,52.51731,13.388912,Filmpavillon der Jugend,filmpavillon-der-jugend,,,,wikidata,"Unter den Linden 22 /  Friedrichstraße 86, 10117 Berlin","Unter den Linden 22 / Friedrichstraße 86, 10117 Berlin",,Q47340897
Berlin,22,,Unter den Linden,,Point(13.388384 52.516646),cinema,52.516646,13.388384,Passage-Lichtspiele,passage-lichtspiele,,,,wikidata,"Unter den Linden 22, Berlin","Unter den Linden 22, Berlin",,Q47340904
Berlin,37,10117,Unter den Linden,,Point(13.38819 52.51629),cinema,52.51629,13.38819,Kino im Centre Culturel Français,kino-im-centre-culturel-fran-ais,,,,wikidata,"Unter den Linden 37, 10117 Berlin","Unter den Linden 37, 10117 Berlin",,Q47340913
Berlin,21,,Unter den Linden,,Point(13.387946 52.516676),cinema,52.516676,13.387946,Union-Theater Unter den Linden,union-theater-unter-den-linden,,,,wikidata,"Unter den Linden 21, Berlin","Unter den Linden 21, Berlin",,Q47340918
Berlin,121,13405,Kurt-Schumacher-Damm,,Point(13.314671 52.558987),cinema,52.558987,13.314671,L’Aiglon,l-aiglon,,,,wikidata,"Kurt-Schumacher-Damm 121, 13405 Berlin","Kurt-Schumacher-Damm 121, 13405 Berlin",,Q47459581
Berlin,207,13405,Kurt-Schumacher-Damm,,Point(13.30968 52.55014),cinema,52.55014,13.30968,Autokino auf dem Festplatz,autokino-auf-dem-festplatz,,,,wikidata,"Kurt-Schumacher-Damm 207, 13405 Berlin","Kurt-Schumacher-Damm 207, 13405 Berlin",,Q47459584
Berlin,26,13347,Liebenwalder Straße,,Point(13.359551 52.552336),cinema,52.552336,13.359551,Gong-Lichtspiele,gong-lichtspiele,,,,wikidata,"Liebenwalder Straße 26, 13347 Berlin","Liebenwalder Straße 26, 13347 Berlin",,Q47459600
Berlin,15,13347,Maxstraße,,Point(13.362776 52.55102),cinema,52.55102,13.362776,Thalia,thalia,,,,wikidata,"Maxstraße 15, 13347 Berlin","Maxstraße 15, 13347 Berlin",,Q47459601
Berlin,113,13347,Reinickendorfer Straße,,Point(13.365365 52.550016),cinema,52.550016,13.365365,Sputnik,sputnik,,,,wikidata,"Reinickendorfer Straße 113, 13347 Berlin","Reinickendorfer Straße 113, 13347 Berlin",,Q47459602
Berlin,37,13347,Schulstraße,,Point(13.366574 52.550773),cinema,52.550773,13.366574,Metropol-Kino,metropol-kino,,,,wikidata,"Schulstraße 37, 13347 Berlin","Schulstraße 37, 13347 Berlin",,Q47459603
Berlin,36,13353,Seestraße,,Point(13.350134 52.548887),cinema,52.548887,13.350134,"Kinematographentheater, Seestraße",kinematographentheater-seestra-e,,,,wikidata,"Seestraße 36, 13353 Berlin","Seestraße 36, 13353 Berlin",,Q47459604
,,,,545,Point(13.369875 52.539983),cinema,52.539983,13.369875,Theater des Weddings,theater-des-weddings,,,,wikidata,,,,Q47459606
Berlin,18,13353,Sparrstraße,,Point(13.359327 52.542547),cinema,52.542547,13.359327,Sparr-Lichtspiele,sparr-lichtspiele,,,,wikidata,"Sparrstraße 18, 13353 Berlin","Sparrstraße 18, 13353 Berlin",,Q47459607
Berlin,76,13351,Togostraße,,Point(13.346691 52.549509),cinema,52.549509,13.346691,"Kinematographentheater, Togostraße",kinematographentheater-togostra-e,,,,wikidata,"Togostraße 76, 13351 Berlin","Togostraße 76, 13351 Berlin",,Q47459612
Berlin,28a,13353,Torfstraße,,Point(13.359367 52.543865),cinema,52.543865,13.359367,Amor-Lichtspiele,amor-lichtspiele,,,,wikidata,"Torfstraße 28a, 13353 Berlin","Torfstraße 28a, 13353 Berlin",,Q47459613
Berlin,33,13347,Utrechter Straße,,Point(13.360107 52.551033),cinema,52.551033,13.360107,Mercedes-Palast,mercedes-palast,,,,wikidata,"Utrechter Straße 33, 13347 Berlin","Utrechter Straße 33, 13347 Berlin",,Q47459614
Berlin,37,13353,Triftstraße,,Point(13.350479 52.541927),cinema,52.541927,13.350479,Virchow-Kino,virchow-kino,,,,wikidata,"Triftstraße 37, 13353 Berlin","Triftstraße 37, 13353 Berlin",,Q47459615
Berlin,46,13353,Triftstraße,,Point(13.352768 52.542266),cinema,52.542266,13.352768,Tivoli,tivoli,,,,wikidata,"Triftstraße 46, 13353 Berlin","Triftstraße 46, 13353 Berlin",,Q47459617
Berlin,67,13353,Triftstraße,,Point(13.359367 52.543865),cinema,52.543865,13.359367,Alhambra Too,alhambra-too,,,,wikidata,"Triftstraße 67, 13353 Berlin","Triftstraße 67, 13353 Berlin",,Q47459618
Berlin,1,10785,Potsdamer Platz,,Point(13.375047 52.508826),cinema,52.508826,13.375047,Aladin & Camera,aladin-camera,,,,wikidata,"Potsdamer Platz 1, 10785 Berlin","Potsdamer Platz 1, 10785 Berlin",,Q47459850
Berlin,5,10785,Potsdamer Straße,,Point(13.373789 52.508773),cinema,52.508773,13.373789,CinemaxX Berlin Potsdamer Platz,cinemaxx-berlin-potsdamer-platz,Cinemaxx,,,wikidata,"Potsdamer Straße 5, 10785 Berlin","Potsdamer Straße 5, 10785 Berlin",https://www.cinemaxx.de/berlin,Q47459889
Berlin,2,10787,Lichtensteinallee,,Point(13.344622 52.510862),cinema,52.510862,13.344622,Freilichtkino im Tiergarten,freilichtkino-im-tiergarten,,,,wikidata,"Lichtensteinallee 2, 10787 Berlin","Lichtensteinallee 2, 10787 Berlin",,Q47459917
Berlin,112,10785,Lützowstraße 111-,,Point(13.370421 52.501867),cinema,52.501867,13.370421,Lützow-Palast,l-tzow-palast,,,,wikidata,"Lützowstraße 111-112, 10785 Berlin","Lützowstraße 111-112, 10785 Berlin",,Q47459922
Berlin,14,,Potsdamer Straße,,Point(13.372272 52.507776),cinema,52.507776,13.372272,Universum,universum,,,,wikidata,"Potsdamer Straße 14, Berlin","Potsdamer Straße 14, Berlin",,Q47459932
,,10785,,,Point(13.371226 52.507414),cinema,52.507414,13.371226,P.P.P.,p-p-p,,,,wikidata,,,,Q47459933
Berlin,31a,,Potsdamer Straße,,Point(13.365761 52.50373),cinema,52.50373,13.365761,Atlantik-Lichtspiele,atlantik-lichtspiele,,,,wikidata,"Potsdamer Straße 31a, Berlin","Potsdamer Straße 31a, Berlin",,Q47459934
Berlin,108,,Potsdamer Straße,,Point(13.364377 52.501239),cinema,52.501239,13.364377,Viktoria-Lichtspiele,viktoria-lichtspiele,,,,wikidata,"Potsdamer Straße 108, Berlin","Potsdamer Straße 108, Berlin",,Q47459935
Berlin,96,10785,Potsdamer Straße,,Point(13.364598 52.502217),cinema,52.502217,13.364598,Kino im Quartier Latin,kino-im-quartier-latin,,,,wikidata,"Potsdamer Straße 96, 10785 Berlin","Potsdamer Straße 96, 10785 Berlin",,Q47459936
,96,10785,Potsdamer Straße,,Point(13.364598 52.502217),cinema,52.502217,13.364598,Kino im Quartier Latin,kino-im-quartier-latin,,,,wikidata,"Potsdamer Straße 96, 10785 (ehemals: 38)","Potsdamer Straße 96, 10785",,Q47459967
Berlin,80,10555,Alt-Moabit,,Point(13.335221 52.524526),cinema,52.524526,13.335221,Stern-Lichtspiele,stern-lichtspiele,,,,wikidata,"Alt-Moabit 80, 10555 Berlin","Alt-Moabit 80, 10555 Berlin",,Q47459970
Berlin,103,10559,Alt-Moabit 99-,,Point(13.347904 52.524625),cinema,52.524625,13.347904,Bolle Festsäle,bolle-fests-le,,,,wikidata,"Alt-Moabit 99–103, 10559 Berlin","Alt-Moabit 99-103, 10559 Berlin",http://www.bolle-meierei.com/,Q47459972
Berlin,22,10553,Beusselstraße,,Point(13.329119 52.528856),cinema,52.528856,13.329119,Beussel-Lichtspiele,beussel-lichtspiele,,,,wikidata,"Beusselstraße 22, 10553 Berlin","Beusselstraße 22, 10553 Berlin",,Q47459973
Berlin,41,10553,Beusselstraße,,Point(13.328815 52.532185),cinema,52.532185,13.328815,"Kinematographentheater, Beusselstraße",kinematographentheater-beusselstra-e,,,,wikidata,"Beusselstraße 41, 10553 Berlin","Beusselstraße 41, 10553 Berlin",,Q47459975
Berlin,61,10553,Beusselstraße,,Point(13.328408 52.529777),cinema,52.529777,13.328408,Volks-Kino-Theater,volks-kino-theater,,,,wikidata,"Beusselstraße 61, 10553 Berlin","Beusselstraße 61, 10553 Berlin",,Q47459976
Berlin,9,10553,Beusselstraße,,Point(13.328561 52.526403),cinema,52.526403,13.328561,Orion-Lichtspiele,orion-lichtspiele,,,,wikidata,"Beusselstraße 9, 10553 Berlin","Beusselstraße 9, 10553 Berlin",,Q47459978
Berlin,9,10555,Bundesratufer,,Point(13.338364 52.52078),cinema,52.52078,13.338364,B.U.K.-Palast,b-u-k-palast,,,,wikidata,"Bundesratufer 9, 10555 Berlin","Bundesratufer 9, 10555 Berlin",,Q47459982
Berlin,5,10555,Levetzowstraße 3-,,Point(13.33204 52.521787),cinema,52.521787,13.33204,Union,union,,,,wikidata,"Levetzowstraße 3–5, 10555 Berlin","Levetzowstraße 3-5, 10555 Berlin",,Q47459984
Berlin,29 / 18,10559,Perleberger Straße / Sendaler Straße,,Point(13.348874 52.531934),cinema,52.531934,13.348874,Corso-Lichtspiele,corso-lichtspiele,,,,wikidata,"Perleberger Straße 29 / Sendaler Straße 18, 10559 Berlin","Perleberger Straße 29 / Sendaler Straße 18, 10559 Berlin",,Q47459992
,,,,,Point(13.351404 52.532732),cinema,52.532732,13.351404,Bambi-Lichtspiele,bambi-lichtspiele,,,,wikidata,,,,Q47459996
Berlin,12,10553,Rostocker Straße,,Point(13.326939 52.529621),cinema,52.529621,13.326939,Domela-Lichtspiele,domela-lichtspiele,,,,wikidata,"Rostocker Straße 12, 10553 Berlin","Rostocker Straße 12, 10553 Berlin",,Q47459997
,,,,,Point(13.353793 52.534652),cinema,52.534652,13.353793,Stephan-Lichtspiele,stephan-lichtspiele,,,,wikidata,,,,Q47459999
Berlin,40,10551,Stromstraße,,Point(13.342977 52.53071),cinema,52.53071,13.342977,Strom-Lichtspiele,strom-lichtspiele,,,,wikidata,"Stromstraße 40, 10551 Berlin","Stromstraße 40, 10551 Berlin",,Q47460000
Berlin,6 / 20,10555,Solinger Straße / Tile-Wardenberg-Straße,,Point(13.333885 52.519088),cinema,52.519088,13.333885,Kammer-Lichtspiele Hansa,kammer-lichtspiele-hansa,,,,wikidata,"Solinger Straße 6 / Tile-Wardenberg-Straße 20, 10555 Berlin","Solinger Straße 6 / Tile-Wardenberg-Straße 20, 10555 Berlin",,Q47460002
Berlin,12,10559,Turmstraße,,Point(13.350889 52.526548),cinema,52.526548,13.350889,BTL-Lichtspiele,btl-lichtspiele,,,,wikidata,"Turmstraße 12, 10559 Berlin","Turmstraße 12, 10559 Berlin",,Q47460005
Berlin,19,10559,Turmstraße,,Point(13.348856 52.526492),cinema,52.526492,13.348856,Arena-Lichtspiele,arena-lichtspiele,,,,wikidata,"Turmstraße 19, 10559 Berlin","Turmstraße 19, 10559 Berlin",,Q47460006
Berlin,26,10559,Turmstraße 25-,,Point(13.344447 52.526466),cinema,52.526466,13.344447,Turmpalast,turmpalast,,,,wikidata,"Turmstraße 25-26, 10559 Berlin","Turmstraße 25-26, 10559 Berlin",,Q47460008
Berlin,70,10551,Turmstraße,,Point(13.331989 52.526893),cinema,52.526893,13.331989,Turm-Lichtspiele,turm-lichtspiele,,,,wikidata,"Turmstraße 70, 10551 Berlin","Turmstraße 70, 10551 Berlin",,Q47460011
Berlin,72 / 73,10551,Turmstraße / ,,Point(13.332513 52.526822),cinema,52.526822,13.332513,Maxim,maxim,,,,wikidata,"Turmstraße 72/73, 10551 Berlin","Turmstraße 72/73, 10551 Berlin",,Q47460012
Berlin,8,10551,Waldstraße,,Point(13.331123 52.528773),cinema,52.528773,13.331123,Thalia-Lichtspiele,thalia-lichtspiele,,,,wikidata,"Waldstraße 8, 10551 Berlin","Waldstraße 8, 10551 Berlin",,Q47460014
Berlin,24,10551,Wiclefstraße,,Point(13.332921 52.530818),cinema,52.530818,13.332921,Tivoli,tivoli,,,,wikidata,"Wiclefstraße 24, 10551 Berlin","Wiclefstraße 24, 10551 Berlin",,Q47460017
Berlin,48,10551,Wiclefstraße,,Point(13.333203 52.530604),cinema,52.530604,13.333203,Moabiter Lichtspiele,moabiter-lichtspiele,,,,wikidata,"Wiclefstraße 48, 10551 Berlin","Wiclefstraße 48, 10551 Berlin",,Q47460018
Berlin,28,10551,Wilhelmshavener Straße,,Point(13.341532 52.531877),cinema,52.531877,13.341532,Birken-Lichtspiele,birken-lichtspiele,,,,wikidata,"Wilhelmshavener Straße 28, 10551 Berlin","Wilhelmshavener Straße 28, 10551 Berlin",,Q47460019
Berlin,84,10555,Alt-Moabit,,Point(13.339712 52.525575),cinema,52.525575,13.339712,Hansa-Theater,hansa-theater,,,,wikidata,"Alt-Moabit 84, 10555 Berlin","Alt-Moabit 84, 10555 Berlin",,Q47460035
Berlin,15 / 16,13357,Badstraße / ,,Point(13.38452 52.551017),cinema,52.551017,13.38452,Ballschmieder-Lichtspiele,ballschmieder-lichtspiele,,,,wikidata,"Badstraße 15/16, 13357 Berlin","Badstraße 15/16, 13357 Berlin",,Q47497577
Berlin,19,13357,Badstraße,,Point(13.383375 52.551684),cinema,52.551684,13.383375,Humboldt-Lichtspiele,humboldt-lichtspiele,,,,wikidata,"Badstraße 19, 13357 Berlin","Badstraße 19, 13357 Berlin",,Q47497609
Berlin,35 / 36,13357,Badstraße / ,,Point(13.37931 52.553503),cinema,52.553503,13.37931,Marienbad-Lichtspiele,marienbad-lichtspiele,,,,wikidata,"Badstraße 35/36, 13357 Berlin","Badstraße 35/36, 13357 Berlin",,Q47497614
Berlin,58a,13357,Badstraße,,Point(13.382725 52.551508),cinema,52.551508,13.382725,Neues Alhambra,neues-alhambra,,,,wikidata,"Badstraße 58a, 13357 Berlin","Badstraße 58a, 13357 Berlin",,Q47497618
Berlin,64,13357,Badstraße,,Point(13.38432 52.550505),cinema,52.550505,13.38432,"Kinematographentheater, Badstraße",kinematographentheater-badstra-e,,,,wikidata,"Badstraße 64, 13357 Berlin","Badstraße 64, 13357 Berlin",,Q47497623
Berlin,4,13357,Bellermannstraße,,Point(13.384317 52.554416),cinema,52.554416,13.384317,"Kinematographentheater, Bellermannstraße",kinematographentheater-bellermannstra-e,,,,wikidata,"Bellermannstraße 4, 13357 Berlin","Bellermannstraße 4, 13357 Berlin",,Q47497627
Berlin,82 / 83,13357,Bellermannstraße / ,,Point(13.387229 52.553143),cinema,52.553143,13.387229,Bella-Lichtspiele,bella-lichtspiele,,,,wikidata,"Bellermannstraße 82/83, 13357 Berlin","Bellermannstraße 82/83, 13357 Berlin",,Q47497632
,,,,,Point(13.403982 52.540487),cinema,52.540487,13.403982,"Kinematographentheater, Bernauer Straße",kinematographentheater-bernauer-stra-e,,,,wikidata,,,,Q47497643
,,,,,Point(13.392484 52.537267),cinema,52.537267,13.392484,Vox-Lichtspiele,vox-lichtspiele,,,,wikidata,,,,Q47497647
,,,,,Point(13.392315 52.542712),cinema,52.542712,13.392315,Record-Lichtspiele,record-lichtspiele,,,,wikidata,,,,Q47497715
,,,,,Point(13.394977 52.53913),cinema,52.53913,13.394977,Atlantic,atlantic,,,,wikidata,,,,Q47497720
,,,,,Point(13.395311 52.53988),cinema,52.53988,13.395311,"Kinematographentheater, Brunnenstraße",kinematographentheater-brunnenstra-e,,,,wikidata,,,,Q47497724
Berlin,71,13355,Gleimstraße,,Point(13.395649 52.5463),cinema,52.5463,13.395649,Roxy-Lichtspiele,roxy-lichtspiele,,,,wikidata,"Gleimstraße 71, 13355 Berlin","Gleimstraße 71, 13355 Berlin",,Q47497728
Berlin,27 / 28,13357,Grünthaler Straße / ,,Point(13.390526 52.554319),cinema,52.554319,13.390526,"Kinematographentheater, Grünthaler Straße",kinematographentheater-gr-nthaler-stra-e,,,,wikidata,"Grünthaler Straße 27/28, 13357 Berlin","Grünthaler Straße 27/28, 13357 Berlin",,Q47497733
Berlin,2,13355,Gustav-Mayer-Allee,,Point(13.389761 52.544563),cinema,52.544563,13.389761,Hifa-Freilichtkino,hifa-freilichtkino,,,,wikidata,"Gustav-Mayer-Allee 2, 13355 Berlin","Gustav-Mayer-Allee 2, 13355 Berlin",,Q47497738
,,,,,Point(13.383959 52.540996),cinema,52.540996,13.383959,Rio-Lichtspiele,rio-lichtspiele,,,,wikidata,,,,Q47497741
,,,,,Point(13.388986 52.538698),cinema,52.538698,13.388986,Lichtspiel-Theater,lichtspiel-theater,,,,wikidata,,,,Q47497745
,,,,,Point(13.376172 52.545082),cinema,52.545082,13.376172,Tivoli,tivoli,,,,wikidata,,,,Q47497748
Berlin,112,13359,Koloniestraße,,Point(13.380901 52.561311),cinema,52.561311,13.380901,Faun-Lichtspiele,faun-lichtspiele,,,,wikidata,"Koloniestraße 112, 13359 Berlin","Koloniestraße 112, 13359 Berlin",,Q47497753
Berlin,3 / 4,13357,Koloniestraße / ,,Point(13.377829 52.554677),cinema,52.554677,13.377829,Kolonie-Lichtspiele,kolonie-lichtspiele,,,,wikidata,"Koloniestraße 3/4, 13357 Berlin","Koloniestraße 3/4, 13357 Berlin",,Q47497758
Berlin,70,13359,Koloniestraße,,Point(13.384971 52.566623),cinema,52.566623,13.384971,Lichtbild-Theater,lichtbild-theater,,,,wikidata,"Koloniestraße 70, 13359 Berlin","Koloniestraße 70, 13359 Berlin",,Q47497763
Berlin,8,13357,Kösliner Straße,,Point(13.371339 52.548106),cinema,52.548106,13.371339,Elektra Kino-Palast,elektra-kino-palast,,,,wikidata,"Kösliner Straße 8, 13357 Berlin","Kösliner Straße 8, 13357 Berlin",,Q47497767
Berlin,12,13359,Osloer Straße,,Point(13.385966 52.556163),cinema,52.556163,13.385966,Eisenstein,eisenstein,,,,wikidata,"Osloer Straße 12, 13359 Berlin","Osloer Straße 12, 13359 Berlin",,Q47497772
Berlin,6,13357,Prinzenallee 1-,,Point(13.382143 52.552422),cinema,52.552422,13.382143,Kristall-Palast,kristall-palast,,,,wikidata,"Prinzenallee 1–6, 13357 Berlin","Prinzenallee 1-6, 13357 Berlin",,Q47497843
Berlin,17,13357,Prinzenallee,,Point(13.383644 52.554546),cinema,52.554546,13.383644,"Kinematographentheater, Prinzenallee",kinematographentheater-prinzenallee,,,,wikidata,"Prinzenallee 17, 13357 Berlin","Prinzenallee 17, 13357 Berlin",,Q47497848
Berlin,42 / 43,13359,Prinzenallee / ,,Point(13.386891 52.559341),cinema,52.559341,13.386891,Prinzen-Palast,prinzen-palast,,,,wikidata,"Prinzenallee 42/43, 13359 Berlin","Prinzenallee 42/43, 13359 Berlin",,Q47497852
Berlin,72 / 73,13357,Prinzenallee / ,,Point(13.383672 52.55546),cinema,52.55546,13.383672,Prinzen-Lichtspielhaus,prinzen-lichtspielhaus,,,,wikidata,"Prinzenallee 72/73, 13357 Berlin","Prinzenallee 72/73, 13357 Berlin",,Q47497858
Berlin,83,13357,Prinzenallee,,Point(13.382602 52.553798),cinema,52.553798,13.382602,Phönix-Lichtspiele,ph-nix-lichtspiele,,,,wikidata,"Prinzenallee 83, 13357 Berlin","Prinzenallee 83, 13357 Berlin",,Q47497862
Berlin,30,13409,Provinzstraße,,Point(13.3782 52.5651979),cinema,52.5651979,13.3782,Provinz-Kino,provinz-kino,,,,wikidata,"Provinzstraße 30, 13409 Berlin","Provinzstraße 30, 13409 Berlin",,Q47497866
Berlin,54,13355,Putbusser Straße,,Point(13.395059 52.542371),cinema,52.542371,13.395059,Fortuna-Lichtspiele,fortuna-lichtspiele,,,,wikidata,"Putbusser Straße 54, 13355 Berlin","Putbusser Straße 54, 13355 Berlin",,Q47497937
Berlin,14,13347,Reinickendorfer Straße,,Point(13.370036 52.5427),cinema,52.5427,13.370036,Rialto-Palast,rialto-palast,,,,wikidata,"Reinickendorfer Straße 14, 13347 Berlin","Reinickendorfer Straße 14, 13347 Berlin",,Q47497941
Berlin,26 / 27,13347,Reinickendorfer Straße / ,,Point(13.369769 52.546487),cinema,52.546487,13.369769,"Lichtspiele, Reinickendorfer Straße",lichtspiele-reinickendorfer-stra-e,,,,wikidata,"Reinickendorfer Straße 26/27, 13347 Berlin","Reinickendorfer Straße 26/27, 13347 Berlin",,Q47497946
Berlin,38,13347,Reinickendorfer Straße,,Point(13.369363 52.548753),cinema,52.548753,13.369363,Baldur-Lichtspiele,baldur-lichtspiele,,,,wikidata,"Reinickendorfer Straße 38, 13347 Berlin","Reinickendorfer Straße 38, 13347 Berlin",,Q47497951
Berlin,47,13347,Reinickendorfer Straße,,Point(13.368617 52.549895),cinema,52.549895,13.368617,Roland-Lichtspiele,roland-lichtspiele,,,,wikidata,"Reinickendorfer Straße 47, 13347 Berlin","Reinickendorfer Straße 47, 13347 Berlin",,Q47497955
Berlin,16,13357,Schwedenstraße,,Point(13.375325 52.555134),cinema,52.555134,13.375325,Schauburg,schauburg,,,,wikidata,"Schwedenstraße 16, 13357 Berlin","Schwedenstraße 16, 13357 Berlin",,Q47497960
Berlin,3b,13357,Schwedenstraße,,Point(13.375916 52.55529),cinema,52.55529,13.375916,Komet-Lichtspiele,komet-lichtspiele,,,,wikidata,"Schwedenstraße 3b, 13357 Berlin","Schwedenstraße 3b, 13357 Berlin",,Q47497964
Berlin,14,13359,Soldiner Straße,,Point(13.389945 52.557866),cinema,52.557866,13.389945,Monopol-Lichtspiele,monopol-lichtspiele,,,,wikidata,"Soldiner Straße 14, 13359 Berlin","Soldiner Straße 14, 13359 Berlin",,Q47497968
Berlin,44 / 14,13355,Swinemünder Straße / Lortzingstraße,,Point(13.397607 52.54359),cinema,52.54359,13.397607,Globus-Lichtspiele,globus-lichtspiele,,,,wikidata,"Swinemünder Straße 44 / Lortzingstraße 14, 13355 Berlin","Swinemünder Straße 44 / Lortzingstraße 14, 13355 Berlin",,Q47497976
Berlin,72 / 15,13355,Swinemünder Straße / Rügener Straße,,Point(13.39532 52.54575),cinema,52.54575,13.39532,Union-Kino,union-kino,,,,wikidata,"Swinemünder Straße 72 / Rügener Straße 15, 13355 Berlin","Swinemünder Straße 72 / Rügener Straße 15, 13355 Berlin",,Q47497981
Berlin,12,13357,Uferstraße,,Point(13.373489 52.551176),cinema,52.551176,13.373489,Kino & Café am Ufer,kino-caf-am-ufer,,,,wikidata,"Uferstraße 12, 13357 Berlin","Uferstraße 12, 13357 Berlin",,Q47497985
,,,,,Point(13.38782 52.53961),cinema,52.53961,13.38782,Gala Lichtbühne,gala-lichtb-hne,,,,wikidata,,,,Q47497989
,,,,,Point(13.391364 52.540711),cinema,52.540711,13.391364,Usedom-Lichtspiele,usedom-lichtspiele,,,,wikidata,,,,Q47497993
,,,,,Point(13.400648 52.540643),cinema,52.540643,13.400648,Volks-Kino-Vinetaplatz,volks-kino-vinetaplatz,,,,wikidata,,,,Q47498051
,,,,,Point(13.39933 52.541666),cinema,52.541666,13.39933,Vineta-Lichtspiele,vineta-lichtspiele,,,,wikidata,,,,Q47498055
Berlin,41 / 42,13357,Wiesenstraße / ,,Point(13.371327 52.548414),cinema,52.548414,13.371327,Colosseum am Wedding,colosseum-am-wedding,,,,wikidata,"Wiesenstraße 41/42, 13357 Berlin","Wiesenstraße 41/42, 13357 Berlin",,Q47498060
,,,,,Point(13.38693 52.52633),cinema,52.52633,13.38693,"Kinematographentheater, Friedrichstraße 122/23",kinematographentheater-friedrichstra-e-122-23,,,,wikidata,,,,Q70000175
,,,,,Point(13.420194444 52.510555555),cinema,52.510555555,13.420194444,Buntes Theater,buntes-theater,,,,wikidata,,,,Q106301256
Berlin,25,10367,Parkaue,,Point(13.4772 52.5169),cinema,52.5169,13.4772,Theater an der Parkaue,theater-an-der-parkaue,,,,wikidata,"Parkaue 25, 10367 Berlin","Parkaue 25, 10367 Berlin",,Q2416046
Berlin,9,13053,Degnerstraße,,Point(13.4995 52.5479),cinema,52.5479,13.4995,Venus,venus,,,,wikidata,"Degnerstraße 9, 13053 Berlin","Degnerstraße 9, 13053 Berlin",,Q25964547
Berlin,22,13055,Werneuchener Straße,,Point(13.494769 52.540736),cinema,52.540736,13.494769,Hohenschönhausener Lichtspiele,hohensch-nhausener-lichtspiele,,,,wikidata,"Werneuchener Straße 22, 13055 Berlin","Werneuchener Straße 22, 13055 Berlin",,Q47118294
Berlin,94,13055,Konrad-Wolf-Straße,,Point(13.486414 52.540854),cinema,52.540854,13.486414,Hohenschönhauser Ton-Lichtspiele,hohensch-nhauser-ton-lichtspiele,,,,wikidata,"Konrad-Wolf-Straße 94, 13055 Berlin","Konrad-Wolf-Straße 94, 13055 Berlin",,Q47118301
Berlin,76,13055,Konrad-Wolf-Straße,,Point(13.4817 52.5385),cinema,52.5385,13.4817,Reform-Theater,reform-theater,,,,wikidata,"Konrad-Wolf-Straße 76, 13055 Berlin","Konrad-Wolf-Straße 76, 13055 Berlin",,Q47118306
Berlin,277,13055,Landsberger Allee,,Point(13.496364 52.534912),cinema,52.534912,13.496364,Solita,solita,,,,wikidata,"Landsberger Allee 277, 13055 Berlin","Landsberger Allee 277, 13055 Berlin",,Q47118312
Berlin,119,10315,Einbecker Straße,,Point(13.5136 52.5057),cinema,52.5057,13.5136,Schloß-Lichtspiele,schlo-lichtspiele,,,,wikidata,"Einbecker Straße 119, 10315 Berlin","Einbecker Straße 119, 10315 Berlin",,Q47118528
Berlin,112,10318,Treskowallee,,Point(13.5252 52.482),cinema,52.482,13.5252,Kulturhaus Karlshorst,kulturhaus-karlshorst,,,,wikidata,"Treskowallee 112, 10318 Berlin","Treskowallee 112, 10318 Berlin",,Q47118590
Berlin,115,10318,Treskowallee,,Point(13.525 52.4788),cinema,52.4788,13.525,Filmtheater Vorwärts,filmtheater-vorw-rts,,,,wikidata,"Treskowallee 115, 10318 Berlin","Treskowallee 115, 10318 Berlin",,Q47118747
Berlin,174,13053,Wartenberger Straße,,Point(13.50924164 52.5659284),cinema,52.5659284,13.50924164,CineMotion Berlin-Hohenschönhausen,cinemotion-berlin-hohensch-nhausen,Cinemotion,,,wikidata,"Wartenberger Straße 174, 13053 Berlin","Wartenberger Straße 174, 13053 Berlin",http://www.cinemotion-kino.de/berlin/,Q47118867
Berlin,250,10365,Frankfurter Allee 244-,,Point(13.497634 52.511763),cinema,52.511763,13.497634,Elite-Theater,elite-theater,,,,wikidata,"Frankfurter Allee 244–250, 10365 Berlin","Frankfurter Allee 244-250, 10365 Berlin",,Q47119037
Berlin,117,10365,Frankfurter Allee 115-,,Point(13.5136 52.5057),cinema,52.5057,13.5136,Ringbahn-Theater,ringbahn-theater,,,,wikidata,"Frankfurter Allee 115-117, 10365 Berlin","Frankfurter Allee 115-117, 10365 Berlin",,Q47119125
Berlin,124,10365,Frankfurter Allee 120- / Ecke Gürtelstraße,,Point(13.5136 52.5057),cinema,52.5057,13.5136,Schwarzer Adler,schwarzer-adler,,,,wikidata,"Frankfurter Allee 120–124 / Ecke Gürtelstraße, 10365 Berlin","Frankfurter Allee 120-124 / Ecke Gürtelstraße, 10365 Berlin",,Q47119131
Berlin,14,10367,Möllendorffstraße,,Point(13.480406 52.51763),cinema,52.51763,13.480406,Rio-Lichtspiele,rio-lichtspiele,,,,wikidata,"Möllendorffstraße 14, 10367 Berlin","Möllendorffstraße 14, 10367 Berlin",,Q47119298
Berlin,14,10367,Normannenstraße,,Point(13.4859 52.5156),cinema,52.5156,13.4859,Toni-Lichtspiele,toni-lichtspiele,,,,wikidata,"Normannenstraße 14, 10367 Berlin","Normannenstraße 14, 10367 Berlin",,Q47119305
Berlin,3,10315,Alt-Friedrichsfelde,,Point(13.5056 52.5104),cinema,52.5104,13.5056,Volkshaus,volkshaus,,,,wikidata,"Alt-Friedrichsfelde 3, 10315 Berlin","Alt-Friedrichsfelde 3, 10315 Berlin",,Q47119313
Berlin,5,10317,Emanuelstraße / Ecke Leopoldstraße,,Point(13.4914 52.5023),cinema,52.5023,13.4914,Emanuel-Lichtspiele,emanuel-lichtspiele,,,,wikidata,"Emanuelstraße 5 / Ecke Leopoldstraße, 10317 Berlin","Emanuelstraße 5 / Ecke Leopoldstraße, 10317 Berlin",,Q47119487
Berlin,2,10317,Hauptstraße,,Point(13.4743 52.5016),cinema,52.5016,13.4743,Film-Palast,film-palast,,,,wikidata,"Hauptstraße 2, 10317 Berlin","Hauptstraße 2, 10317 Berlin",,Q47119496
Berlin,2 / 3,10317,Marktstraße / ,,Point(13.4747 52.503),cinema,52.503,13.4747,Jahn-Lichtspiele,jahn-lichtspiele,,,,wikidata,"Marktstraße 2/3, 10317 Berlin","Marktstraße 2/3, 10317 Berlin",,Q47119501
Berlin,33,10317,Weitlingstraße,,Point(13.4973 52.5076),cinema,52.5076,13.4973,Kammerspiele,kammerspiele,,,,wikidata,"Weitlingstraße 33, 10317 Berlin","Weitlingstraße 33, 10317 Berlin",,Q47119518
Berlin,70,10317,Lückstraße,,Point(13.4875 52.5025),cinema,52.5025,13.4875,Kosmos-Lichtspiele,kosmos-lichtspiele,,,,wikidata,"Lückstraße 70, 10317 Berlin","Lückstraße 70, 10317 Berlin",,Q47119545
Berlin,5,10317,Stadthausstraße,,Point(13.4815 52.5024),cinema,52.5024,13.4815,Mila-Lichtspiele,mila-lichtspiele,,,,wikidata,"Stadthausstraße 5, 10317 Berlin","Stadthausstraße 5, 10317 Berlin",,Q47119549
Berlin,107,10967,Hasenheide,,Point(13.42147 52.486452),cinema,52.486452,13.42147,Neue Welt,neue-welt,,,,wikidata,"Hasenheide 107, 10967 Berlin","Hasenheide 107, 10967 Berlin",,Q1979838
Berlin,141,12043,Karl-Marx-Straße,,Point(13.4391 52.4769),cinema,52.4769,13.4391,Saalbau Neukölln,saalbau-neuk-lln,,,,wikidata,"Karl-Marx-Straße 141, 12043 Berlin","Karl-Marx-Straße 141, 12043 Berlin",,Q2208948
Berlin,133,12043,Karl-Marx-Straße 131-,,Point(13.43952749 52.47757668),cinema,52.47757668,13.43952749,Passage-Kino,passage-kino,,,,wikidata,"Karl-Marx-Straße 131-133, 12043 Berlin","Karl-Marx-Straße 131-133, 12043 Berlin",,Q47089203
Berlin,115,12347,Britzer Damm,,Point(13.438966 52.452339),cinema,52.452339,13.438966,Filmeck Britz,filmeck-britz,,,,wikidata,"Britzer Damm 115, 12347 Berlin","Britzer Damm 115, 12347 Berlin",,Q47089214
Berlin,91,12359,Buschkrugallee,,Point(13.45017706 52.45571625),cinema,52.45571625,13.45017706,Kammerspiele,kammerspiele,,,,wikidata,"Buschkrugallee 91, 12359 Berlin","Buschkrugallee 91, 12359 Berlin",,Q47089220
Berlin,184,12359,Fritz-Reuter-Allee,,Point(13.44609376 52.4372068),cinema,52.4372068,13.44609376,Panorama,panorama,,,,wikidata,"Fritz-Reuter-Allee 184, 12359 Berlin","Fritz-Reuter-Allee 184, 12359 Berlin",,Q47089221
Berlin,17 / 19,12351,Rudower Straße / ,,Point(13.457917 52.44168371),cinema,52.44168371,13.457917,Echo,echo,,,,wikidata,"Rudower Straße 17/19, 12351 Berlin","Rudower Straße 17/19, 12351 Berlin",,Q47089223
Berlin,222 / 224,12349,Buckower Damm / ,,Point(13.43611519 52.4238873),cinema,52.4238873,13.43611519,Olympia-Lichtspiele,olympia-lichtspiele,,,,wikidata,"Buckower Damm 222/224, 12349 Berlin","Buckower Damm 222/224, 12349 Berlin",,Q47089224
Berlin,307,12351,Johannisthaler Chaussee,,Point(13.45616651 52.42998301),cinema,52.42998301,13.45616651,UCI Kinowelt Gropius Passagen,uci-kinowelt-gropius-passagen,UCI Kinowelt,,,wikidata,"Johannisthaler Chaussee 307, 12351 Berlin","Johannisthaler Chaussee 307, 12351 Berlin",https://www.uci-kinowelt.de/kinoinformation/berlin-gropius-passagen/43,Q47089227
Berlin,172,12355,Waltersdorfer Chaussee,,Point(13.511351 52.402968),cinema,52.402968,13.511351,Autokino Rudow,autokino-rudow,,,,wikidata,"Waltersdorfer Chaussee 172, 12355 Berlin","Waltersdorfer Chaussee 172, 12355 Berlin",,Q47089233
Berlin,24,12357,Alt-Rudow,,Point(13.49193321 52.42017108),cinema,52.42017108,13.49193321,Mars-Lichtspiele,mars-lichtspiele,,,,wikidata,"Alt-Rudow 24, 12357 Berlin","Alt-Rudow 24, 12357 Berlin",,Q47089239
Berlin,32,12357,Prierosser Straße,,Point(13.4947806 52.4209292),cinema,52.4209292,13.4947806,Ru-To-Li,ru-to-li,,,,wikidata,"Prierosser Straße 32, 12357 Berlin","Prierosser Straße 32, 12357 Berlin",,Q47089240
Berlin,66,12053,Karl-Marx-Straße,,Point(13.43234154 52.48203702),cinema,52.48203702,13.43234154,Cineplex Neukölln,cineplex-neuk-lln,Cineplex Deutschland,,,wikidata,"Karl-Marx-Straße 66, 12053 Berlin","Karl-Marx-Straße 66, 12053 Berlin",https://www.cineplex.de/berlin-neukoelln/,Q47089242
Berlin,,10178,Volkspark Hasenheide,,Point(13.4164202 52.48312651),cinema,52.48312651,13.4164202,Freiluftkino Hasenheide,freiluftkino-hasenheide,,,,wikidata,"Volkspark Hasenheide, 10178 Berlin","Volkspark Hasenheide, 10178 Berlin",http://freiluftkino-hasenheide.de/,Q47089247
Berlin,22,12047,Nansenstraße,,Point(13.43303792 52.49164396),cinema,52.49164396,13.43303792,Il Kino,il-kino,,,,wikidata,"Nansenstraße 22, 12047 Berlin","Nansenstraße 22, 12047 Berlin",http://ilkino.de/,Q47089250
Berlin,20,12049,Hermannstraße,,Point(13.42448927 52.48340956),cinema,52.48340956,13.42448927,Neues Off,neues-off,Yorck Kinogruppe,,,wikidata,"Hermannstraße 20, 12049 Berlin","Hermannstraße 20, 12049 Berlin",https://www.yorck.de/kinos/neues-off,Q47089254
Berlin,70,12053,Rollbergstraße,,Point(13.42742597 52.47884426),cinema,52.47884426,13.42742597,Rollberg-Kinos,rollberg-kinos,,,,wikidata,"Rollbergstraße 70, 12053 Berlin","Rollbergstraße 70, 12053 Berlin",https://www.yorck.de/kinos/rollberg,Q47089256
Berlin,24,12043,Donaustraße,,Point(13.43473493 52.48268041),cinema,52.48268041,13.43473493,Donau-Lichtspiele,donau-lichtspiele,,,,wikidata,"Donaustraße 24, 12043 Berlin","Donaustraße 24, 12043 Berlin",,Q47089261
Berlin,5,12053,Flughafenstraße,,Point(13.43327 52.48166),cinema,52.48166,13.43327,Atlas-Palast,atlas-palast,,,,wikidata,"Flughafenstraße 5, 12053 Berlin","Flughafenstraße 5, 12053 Berlin",,Q47089262
Berlin,30,12047,Friedelstraße,,Point(13.42836409 52.49286243),cinema,52.49286243,13.42836409,Friedel-Lichtspiele,friedel-lichtspiele,,,,wikidata,"Friedelstraße 30, 12047 Berlin","Friedelstraße 30, 12047 Berlin",,Q47089263
Berlin,120,12051,Hermannstraße,,Point(13.4320544 52.46569789),cinema,52.46569789,13.4320544,Central-Theater,central-theater,,,,wikidata,"Hermannstraße 120, 12051 Berlin","Hermannstraße 120, 12051 Berlin",,Q47089267
Berlin,146,12051,Hermannstraße,,Point(13.43322053 52.4645838),cinema,52.4645838,13.43322053,Globus-Palast,globus-palast,,,,wikidata,"Hermannstraße 146, 12051 Berlin","Hermannstraße 146, 12051 Berlin",,Q47089268
Berlin,167,12051,Hermannstraße 166-,,Point(13.43031567 52.46965314),cinema,52.46965314,13.43031567,Hermann-Lichtspiele,hermann-lichtspiele,,,,wikidata,"Hermannstraße 166-167, 12051 Berlin","Hermannstraße 166-167, 12051 Berlin",,Q47089269
Berlin,214 / 216,12049,Hermannstraße / ,,Point(13.42622849 52.47854872),cinema,52.47854872,13.42622849,Mercedes-Palast,mercedes-palast,,,,wikidata,"Hermannstraße 214/216, 12049 Berlin","Hermannstraße 214/216, 12049 Berlin",,Q47089270
Berlin,233,12049,Hermannstraße,,Point(13.42514344 52.48211179),cinema,52.48211179,13.42514344,Wien Berlin,wien-berlin,,,,wikidata,"Hermannstraße 233, 12049 Berlin","Hermannstraße 233, 12049 Berlin",,Q47089272
Berlin,35,12049,Hermannstraße,,Point(13.4248651 52.48063364),cinema,52.48063364,13.4248651,Elite-Lichtspiele,elite-lichtspiele,,,,wikidata,"Hermannstraße 35, 12049 Berlin","Hermannstraße 35, 12049 Berlin",,Q47089273
Berlin,49,12049,Hermannstraße,,Point(13.42562673 52.47824686),cinema,52.47824686,13.42562673,Palast-Kino Stern,palast-kino-stern,,,,wikidata,"Hermannstraße 49, 12049 Berlin","Hermannstraße 49, 12049 Berlin",,Q47089274
Berlin,35,12045,Innstraße,,Point(13.44392006 52.48111541),cinema,52.48111541,13.44392006,Ili-Lichtspiele,ili-lichtspiele,,,,wikidata,"Innstraße 35, 12045 Berlin","Innstraße 35, 12045 Berlin",,Q47089276
Berlin,163,12043,Karl-Marx-Straße,,Point(13.44003 52.475507),cinema,52.475507,13.44003,AKI Neukölln,aki-neuk-lln,,,,wikidata,"Karl-Marx-Straße 163, 12043 Berlin","Karl-Marx-Straße 163, 12043 Berlin",,Q47089278
Berlin,2,12043,Karl-Marx-Straße,,Point(13.42452805 52.48601627),cinema,52.48601627,13.42452805,Rollkrug-Lichtspiele,rollkrug-lichtspiele,,,,wikidata,"Karl-Marx-Straße 2, 12043 Berlin","Karl-Marx-Straße 2, 12043 Berlin",,Q47089279
Berlin,204 / 206,12055,Karl-Marx-Straße / ,,Point(13.44093357 52.4717773),cinema,52.4717773,13.44093357,Universal-Theater,universal-theater,,,,wikidata,"Karl-Marx-Straße 204/206, 12055 Berlin","Karl-Marx-Straße 204/206, 12055 Berlin",,Q47089280
Berlin,222,12055,Karl-Marx-Straße,,Point(13.441281 52.470345),cinema,52.470345,13.441281,Apollo-Theater Rixdorf,apollo-theater-rixdorf,,,,wikidata,"Karl-Marx-Straße 222, 12055 Berlin","Karl-Marx-Straße 222, 12055 Berlin",,Q47089281
Berlin,231,12055,Karl-Marx-Straße,,Point(13.44233852 52.46860293),cinema,52.46860293,13.44233852,Central-Theater-Lichtspiele,central-theater-lichtspiele,,,,wikidata,"Karl-Marx-Straße 231, 12055 Berlin","Karl-Marx-Straße 231, 12055 Berlin",,Q47089282
Berlin,55,12043,Karl-Marx-Straße,,Point(13.43184927 52.48318287),cinema,52.48318287,13.43184927,Weichsel-Lichtspiele,weichsel-lichtspiele,,,,wikidata,"Karl-Marx-Straße 55, 12043 Berlin","Karl-Marx-Straße 55, 12043 Berlin",,Q47089283
Berlin,92,12043,Karl-Marx-Straße,,Point(13.435699 52.480233),cinema,52.480233,13.435699,Gala-Lichtspiele,gala-lichtspiele,,,,wikidata,"Karl-Marx-Straße 92, 12043 Berlin","Karl-Marx-Straße 92, 12043 Berlin",,Q47089284
Berlin,85,12053,Kienitzer Straße,,Point(13.4276081 52.47594316),cinema,52.47594316,13.4276081,Union,union,,,,wikidata,"Kienitzer Straße 85 (Flachbau hinter Hermannstraße 202), 12053 Berlin","Kienitzer Straße 85 , 12053 Berlin",,Q47089287
Berlin,75,10967,Kottbusser Damm,,Point(13.42400776 52.49054078),cinema,52.49054078,13.42400776,Grotten-Kino,grotten-kino,,,,wikidata,"Kottbusser Damm 75, 10967 Berlin","Kottbusser Damm 75, 10967 Berlin",,Q47089289
Berlin,76,10967,Kottbusser Damm,,Point(13.4245928 52.49082322),cinema,52.49082322,13.4245928,Weltfilmbühne,weltfilmb-hne,,,,wikidata,"Kottbusser Damm 76, 10967 Berlin","Kottbusser Damm 76, 10967 Berlin",,Q47089290
Berlin,92,10967,Kottbusser Damm,,Point(13.42209781 52.49350224),cinema,52.49350224,13.42209781,Kukuk-Lichtspielhaus,kukuk-lichtspielhaus,,,,wikidata,"Kottbusser Damm 92, 10967 Berlin","Kottbusser Damm 92, 10967 Berlin",,Q47089291
Berlin,95,10967,Kottbusser Damm,,Point(13.42180198 52.4940102),cinema,52.4940102,13.42180198,Heli-Filmtheater,heli-filmtheater,,,,wikidata,"Kottbusser Damm 95, 10967 Berlin","Kottbusser Damm 95, 10967 Berlin",,Q47089292
Berlin,52,12057,Neuköllnische Allee,,Point(13.46190219 52.46710327),cinema,52.46710327,13.46190219,Orion,orion,,,,wikidata,"Neuköllnische Allee 52, 12057 Berlin","Neuköllnische Allee 52, 12057 Berlin",,Q47089293
Berlin,37,12051,Siegfriedstraße 36-,,Point(13.42749344 52.46754712),cinema,52.46754712,13.42749344,Bambi-Filmtheater,bambi-filmtheater,,,,wikidata,"Siegfriedstraße 36-37, 12051 Berlin","Siegfriedstraße 36-37, 12051 Berlin",,Q47089294
Berlin,77,12051,Silbersteinstraße,,Point(13.43019682 52.46607471),cinema,52.46607471,13.43019682,Süd-Palast,s-d-palast,,,,wikidata,"Silbersteinstraße 77, 12051 Berlin","Silbersteinstraße 77, 12051 Berlin",,Q47089295
Berlin,92 / 94,12051,Silbersteinstraße / ,,Point(13.42834735 52.46630131),cinema,52.46630131,13.42834735,Panorama,panorama,,,,wikidata,"Silbersteinstraße 92/94, 12051 Berlin","Silbersteinstraße 92/94, 12051 Berlin",,Q47089297
Berlin,111,12045,Sonnenallee,,Point(13.44109719 52.48151051),cinema,52.48151051,13.44109719,Excelsior-Lichtspiele,excelsior-lichtspiele,,,,wikidata,"Sonnenallee 111, 12045 Berlin","Sonnenallee 111, 12045 Berlin",,Q47089304
Berlin,149,12059,Sonnenallee,,Point(13.44652262 52.47910029),cinema,52.47910029,13.44652262,Luna-Lichtspiele,luna-lichtspiele,,,,wikidata,"Sonnenallee 149, 12059 Berlin","Sonnenallee 149, 12059 Berlin",,Q47089305
Berlin,164,12059,Sonnenallee,250,Point(13.4474219 52.47781757),cinema,52.47781757,13.4474219,Kamera,kamera,,,,wikidata,"Sonnenallee 164, 12059 Berlin","Sonnenallee 164, 12059 Berlin",,Q47089306
Berlin,210,12059,Sonnenallee,,Point(13.45428324 52.47443626),cinema,52.47443626,13.45428324,Lux-Filmtheater,lux-filmtheater,,,,wikidata,"Sonnenallee 210, 12059 Berlin","Sonnenallee 210, 12059 Berlin",,Q47089307
Berlin,57,12045,Sonnenallee,,Point(13.43367878 52.48512347),cinema,52.48512347,13.43367878,Maxim-Lichtspiele,maxim-lichtspiele,,,,wikidata,"Sonnenallee 57, 12045 Berlin","Sonnenallee 57, 12045 Berlin",,Q47089308
Berlin,59 / 6,12045,Weserstraße / Wildenbruchstraße,,Point(13.44189 52.48266),cinema,52.48266,13.44189,Wolf,wolf,,,,wikidata,"Weserstraße 59 / Wildenbruchstraße 6, 12045 Berlin","Weserstraße 59 / Wildenbruchstraße 6, 12045 Berlin",https://wolfberlin.org/,Q47164663
Berlin,1a,12555,Friedrichshagener Straße,,Point(13.57572329 52.45268262),cinema,52.45268262,13.57572329,Apollo-Theater Köpenick,apollo-theater-k-penick,,,,wikidata,"Friedrichshagener Straße 1a, 12555 Berlin","Friedrichshagener Straße 1a, 12555 Berlin",,Q34766982
Berlin,82C,12459,Wilhelminenhofstraße,,Point(13.51841661 52.46126779),cinema,52.46126779,13.51841661,Apollo-Theater Oberschöneweide,apollo-theater-obersch-neweide,,,,wikidata,"Wilhelminenhofstraße 82C, 12459 Berlin","Wilhelminenhofstraße 82C, 12459 Berlin",,Q34767000
Berlin,69,12487,Sterndamm,,Point(13.50715563 52.44653166),cinema,52.44653166,13.50715563,Astra,astra,,,,wikidata,"Sterndamm 69, 12487 Berlin","Sterndamm 69, 12487 Berlin",,Q34767022
Berlin,10,12559,Gosener Damm,,Point(13.66577881 52.41002236),cinema,52.41002236,13.66577881,AVO-Lichtspiele,avo-lichtspiele,,,,wikidata,"Gosener Damm 10, 12559 Berlin","Gosener Damm 10, 12559 Berlin",,Q34780215
Berlin,29,12489,Dörpfeldstraße,,Point(13.54677091 52.43727471),cinema,52.43727471,13.54677091,Capitol,capitol,,,,wikidata,"Dörpfeldstraße 29, 12489 Berlin","Dörpfeldstraße 29, 12489 Berlin",,Q34781331
Berlin,35,12555,Bahnhofstraße,,Point(13.57862816 52.45808118),cinema,52.45808118,13.57862816,Bali,bali,,,,wikidata,"Bahnhofstraße 35, 12555 Berlin","Bahnhofstraße 35, 12555 Berlin",,Q34783432
Berlin,12,12489,Friedenstraße,,Point(13.54801601 52.43576827),cinema,52.43576827,13.54801601,Casablanca,casablanca,,,,wikidata,"Friedenstraße 12, 12489 Berlin","Friedenstraße 12, 12489 Berlin",http://www.casablanca-berlin.de/,Q34965979
Berlin,115,12435,Elsenstraße,,Point(13.45857248 52.49196342),cinema,52.49196342,13.45857248,CineStar Berlin Treptower Park,cinestar-berlin-treptower-park,Cinestar,,,wikidata,"Elsenstraße 115, 12435 Berlin","Elsenstraße 115, 12435 Berlin",http://www.cinestar.de/de/kino/berlin-cinestar-treptower-park/,Q34966421
Berlin,4,12489,Rudower Chaussee,,Point(13.53768557 52.43476448),cinema,52.43476448,13.53768557,Come In JKZ,come-in-jkz,,,,wikidata,"Rudower Chaussee 4, 12489 Berlin","Rudower Chaussee 4, 12489 Berlin",,Q34967140
Berlin,8,12524,Semmelweisstraße,,Point(13.53851073 52.42186309),cinema,52.42186309,13.53851073,Corso-Lichtspiele,corso-lichtspiele,,,,wikidata,"Semmelweisstraße 8, 12524 Berlin","Semmelweisstraße 8, 12524 Berlin",,Q34969138
Berlin,54,12524,Rudower Str.,,Point(13.53654417 52.42083555),cinema,52.42083555,13.53654417,Deutsche Lichtschauspiele,deutsche-lichtschauspiele,,,,wikidata,"Rudower Str. 54, 12524 Berlin","Rudower Str. 54, 12524 Berlin",,Q34969329
Berlin,5,12435,Puschkinallee,,Point(13.45526688 52.49476286),cinema,52.49476286,13.45526688,Mietvilla Puschkinallee 5,mietvilla-puschkinallee-5,,,,wikidata,"Puschkinallee 5, 12435 Berlin","Puschkinallee 5, 12435 Berlin",,Q34969892
Berlin,23E,12526,Schulzendorfer Str.,,Point(13.57979653 52.39959762),cinema,52.39959762,13.57979653,Elster-Lichtspiele,elster-lichtspiele,,,,wikidata,"Schulzendorfer Str. 23E, 12526 Berlin","Schulzendorfer Str. 23E, 12526 Berlin",,Q34970801
Berlin,16,12439,Hasselwerderstraße,,Point(13.51915367 52.45697455),cinema,52.45697455,13.51915367,Elysium,elysium,,,,wikidata,"Hasselwerderstraße 16, 12439 Berlin","Hasselwerderstraße 16, 12439 Berlin",,Q34971154
Berlin,4,12527,Büxensteinallee,,Point(13.58156907 52.41478711),cinema,52.41478711,13.58156907,Europa-Lichtspiele,europa-lichtspiele,,,,wikidata,"Büxensteinallee 4, 12527 Berlin","Büxensteinallee 4, 12527 Berlin",,Q34972360
Berlin,43,12435,Kiefholzstraße,,Point(13.45665075 52.48734236),cinema,52.48734236,13.45665075,Filmbühne Treptow,filmb-hne-treptow,,,,wikidata,"Kiefholzstraße 43, 12435 Berlin","Kiefholzstraße 43, 12435 Berlin",,Q34972987
Berlin,250,12487,Königsheideweg,,Point(13.50431053 52.44677019),cinema,52.44677019,13.50431053,Filmstern Johannisthal,filmstern-johannisthal,,,,wikidata,"Königsheideweg 250, 12487 Berlin","Königsheideweg 250, 12487 Berlin",,Q34973303
Berlin,14,12555,Parrisiusstraße 12-,,Point(13.50431053 52.44677019),cinema,52.44677019,13.50431053,Forum-Lichtspiele,forum-lichtspiele,,,,wikidata,"Parrisiusstraße 12–14, 12555 Berlin","Parrisiusstraße 12-14, 12555 Berlin",,Q34976725
Berlin,29 / 30,12435,Karl-Kunger-Straße / ,,Point(13.45063047 52.48880407),cinema,52.48880407,13.45063047,Filmtheater Gérard Philipe,filmtheater-g-rard-philipe,,,,wikidata,"Karl-Kunger-Straße 29/30, 12435 Berlin","Karl-Kunger-Straße 29/30, 12435 Berlin",,Q34977464
Berlin,6,12435,Alt-Treptow,,Point(13.48114332 52.4868584),cinema,52.4868584,13.48114332,Insel-Kino,insel-kino,,,,wikidata,"Alt-Treptow 6, 12435 Berlin","Alt-Treptow 6, 12435 Berlin",,Q34977694
Berlin,39,12589,Erknerstraße,,Point(13.72184411 52.43802811),cinema,52.43802811,13.72184411,Kamera-Lichtspiele Wilhelmshagen,kamera-lichtspiele-wilhelmshagen,,,,wikidata,"Erknerstraße 39, 12589 Berlin","Erknerstraße 39, 12589 Berlin",,Q34978282
Berlin,9,12439,Brückenstraße,,Point(13.51180851 52.45801931),cinema,52.45801931,13.51180851,Kinematographentheater,kinematographentheater,,,,wikidata,"Brückenstraße 9, 12439 Berlin","Brückenstraße 9, 12439 Berlin",,Q34986973
Berlin,68,12459,Wilhelminenhofstraße,,Point(13.52800023 52.45766745),cinema,52.45766745,13.52800023,Kulturhaus des Werks für Fernsehelektronik,kulturhaus-des-werks-f-r-fernsehelektronik,BAE Batterien,,,wikidata,"Wilhelminenhofstraße 68, 12459 Berlin","Wilhelminenhofstraße 68, 12459 Berlin",,Q34987626
Berlin,89,12459,Wilhelminenhofstraße,,Point(13.51215029 52.46204883),cinema,52.46204883,13.51215029,Kino Spreehöfe,kino-spreeh-fe,,,,wikidata,"Wilhelminenhofstraße 89, 12459 Berlin","Wilhelminenhofstraße 89, 12459 Berlin",,Q34991764
Berlin,1,12435,Alt-Treptow,,Point(13.47634417 52.48583097),cinema,52.48583097,13.47634417,Kino in der Sternwarte,kino-in-der-sternwarte,,,,wikidata,"Alt-Treptow 1, 12435 Berlin","Alt-Treptow 1, 12435 Berlin",,Q34992208
Berlin,18,12555,Alt-Köpenick,,Point(13.57464749 52.44612638),cinema,52.44612638,13.57464749,Lichtbild Theater,lichtbild-theater,,,,wikidata,"Alt-Köpenick 18, 12555 Berlin","Alt-Köpenick 18, 12555 Berlin",,Q34993572
Berlin,10,12555,Grünstraße,,Point(13.57615925 52.44480157),cinema,52.44480157,13.57615925,Lichtpalast,lichtpalast,,,,wikidata,"Grünstraße 10, 12555 Berlin","Grünstraße 10, 12555 Berlin",,Q34993738
Berlin,8,12589,Am Mühlenfließ,,Point(13.6891537 52.44406194),cinema,52.44406194,13.6891537,Lyra-Lichtspiele,lyra-lichtspiele,,,,wikidata,"Am Mühlenfließ 8, 12589 Berlin","Am Mühlenfließ 8, 12589 Berlin",,Q34994059
Berlin,1,12439,Flutstraße,,Point(13.51331563 52.45574559),cinema,52.45574559,13.51331563,Niederschöneweider Lichtspiele,niedersch-neweider-lichtspiele,,,,wikidata,"Flutstraße 1, 12439 Berlin","Flutstraße 1, 12439 Berlin",,Q34994229
Berlin,51,12459,Wilhelminenhofstraße,,Point(13.52575981 52.45900019),cinema,52.45900019,13.52575981,Oberschöneweider Lichtspiele,obersch-neweider-lichtspiele,,,,wikidata,"Wilhelminenhofstraße 51, 12459 Berlin","Wilhelminenhofstraße 51, 12459 Berlin",,Q35006754
Berlin,51,12459,Wilhelminenhofstraße,,Point(13.56744633 52.40304508),cinema,52.40304508,13.56744633,Paradies-Lichtspiele,paradies-lichtspiele,,,,wikidata,"Wilhelminenhofstraße 51, 12459 Berlin","Wilhelminenhofstraße 51, 12459 Berlin",,Q35006876
Berlin,100,12526,Waltersdorfer Str.,,Point(13.56744633 52.39950217),cinema,52.39950217,13.56744633,Saalkino Bohnsdorf,saalkino-bohnsdorf,,,,wikidata,"Waltersdorfer Str. 100, 12526 Berlin","Waltersdorfer Str. 100, 12526 Berlin",,Q35009249
Berlin,33,12555,Alt-Köpenick 31-,,Point(13.5743405 52.44504202),cinema,52.44504202,13.5743405,Schlossplatztheater,schlossplatztheater,,,,wikidata,"Alt-Köpenick 31–33, 12555 Berlin","Alt-Köpenick 31-33, 12555 Berlin",,Q35010272
Berlin,78,12437,Baumschulenstraße,,Point(13.48478168 52.46423485),cinema,52.46423485,13.48478168,Silvana,silvana,,,,wikidata,"Baumschulenstraße 78, 12437 Berlin","Baumschulenstraße 78, 12437 Berlin",,Q35010623
Berlin,69,12587,Bölschestraße,,Point(13.62587841 52.45632674),cinema,52.45632674,13.62587841,Union-Filmtheater,union-filmtheater,,,,wikidata,"Bölschestraße 69, 12587 Berlin","Bölschestraße 69, 12587 Berlin",,Q35013869
Berlin,34,12459,Wilhelminenhofstraße,,Point(13.51885076 52.46156467),cinema,52.46156467,13.51885076,UT-Lichtspiele,ut-lichtspiele,,,,wikidata,"Wilhelminenhofstraße 34, 12459 Berlin","Wilhelminenhofstraße 34, 12459 Berlin",,Q35014108
Berlin,2 / 4,12351,Rudower Str. / ,,Point(13.52510866 52.42288937),cinema,52.42288937,13.52510866,Union-Theater,union-theater,,,,wikidata,"Rudower Str. 2/4, 12351 Berlin","Rudower Str. 2/4, 12351 Berlin",,Q35014293
Berlin,80,12557,Grünauer Str.,,Point(13.57115005 52.43870324),cinema,52.43870324,13.57115005,Völkerbund-Lichtspiele,v-lkerbund-lichtspiele,,,,wikidata,"Grünauer Str. 80, 12557 Berlin","Grünauer Str. 80, 12557 Berlin",,Q35014409
Berlin,18,12459,Siemensstraße,,Point(13.51312 52.46468),cinema,52.46468,13.51312,W.B.T.-Lichtspiele,w-b-t-lichtspiele,,,,wikidata,"Siemensstraße 18, 12459 Berlin","Siemensstraße 18, 12459 Berlin",,Q35014630
Berlin,7,12459,Reinbeckstraße,,Point(13.5184654 52.45967386),cinema,52.45967386,13.5184654,Wilhelminenhof-Lichtspiele,wilhelminenhof-lichtspiele,,,,wikidata,"Reinbeckstraße 7, 12459 Berlin","Reinbeckstraße 7, 12459 Berlin",,Q35014758
Berlin,25,10777,Welserstraße,,Point(13.341946 52.498903),cinema,52.498903,13.341946,Arsenal,arsenal,Arsenal Institut für Film und Videokunst,,,wikidata,"Welserstraße 25, 10777 Berlin","Welserstraße 25, 10777 Berlin",,Q704465
,,,,,Point(13.3481 52.5014),cinema,52.5014,13.3481,Urania,urania,,,,wikidata,,,https://www.urania.de/,Q896211
Berlin,79,12159,Hauptstraße 78-,,Point(13.3367 52.4731),cinema,52.4731,13.3367,Roxy-Palast,roxy-palast,,,,wikidata,"Hauptstraße 78-79, 12159 Berlin","Hauptstraße 78-79, 12159 Berlin",,Q1311000
,,,,,Point(13.3527 52.4989),cinema,52.4989,13.3527,Metropol,metropol,,,,wikidata,,,,Q1724204
Berlin,18,10777,Martin-Luther-Straße 14-,,Point(13.3451 52.4981),cinema,52.4981,13.3451,Scala,scala,,,,wikidata,"Martin-Luther-Straße 14–18, 10777 Berlin","Martin-Luther-Straße 14-18, 10777 Berlin",,Q2228722
,,,,,Point(13.3525 52.49944444),cinema,52.49944444,13.3525,UFA-Pavillon am Nollendorfplatz,ufa-pavillon-am-nollendorfplatz,,,,wikidata,,,,Q21035819
Berlin,19,10789,Tauentzienstraße,,Point(13.33938889 52.50275),cinema,52.50275,13.33938889,Tauentzienpalast,tauentzienpalast,,,,wikidata,"Tauentzienstraße 19, 10789 Berlin","Tauentzienstraße 19, 10789 Berlin",,Q25089244
Berlin,52,10789,Nürnberger Straße 50-,,Point(13.337484 52.501096),cinema,52.501096,13.337484,Cinema am Tauentzien,cinema-am-tauentzien,,,,wikidata,"Nürnberger Straße 50–52, 10789 Berlin","Nürnberger Straße 50-52, 10789 Berlin",,Q34158266
Berlin,131a,10243,Karl-Marx-Allee,,Point(13.45 52.5172),cinema,52.5172,13.45,Kosmos,kosmos,,UFA,,wikidata,"Karl-Marx-Allee 131a, 10243 Berlin","Karl-Marx-Allee 131a, 10243 Berlin",https://www.kosmos-berlin.de/,Q386565
Berlin,7,10963,Niederkirchnerstraße,,Point(13.3818 52.5066),cinema,52.5066,13.3818,Martin-Gropius-Bau,martin-gropius-bau,,,,wikidata,"Niederkirchnerstraße 7, 10963 Berlin","Niederkirchnerstraße 7, 10963 Berlin",,Q569445
Berlin,218,10969,Friedrichstraße,,Point(13.3906 52.5047),cinema,52.5047,13.3906,Apollo-Theater,apollo-theater,,Wilhelm Riehmer,,wikidata,"Friedrichstraße 218, 10969 Berlin","Friedrichstraße 218, 10969 Berlin",,Q618959
Berlin,38,10963,Köthener Straße,,Point(13.377 52.5062),cinema,52.5062,13.377,Meistersaal,meistersaal,,,,wikidata,"Köthener Straße 38, 10963 Berlin","Köthener Straße 38, 10963 Berlin",,Q1372342
Berlin,25,10249,Richard-Sorge-Straße,,Point(13.4473 52.5207),cinema,52.5207,13.4473,Tilsiter Lichtspiele,tilsiter-lichtspiele,,,,wikidata,"Richard-Sorge-Straße 25, 10249 Berlin","Richard-Sorge-Straße 25, 10249 Berlin",http://www.tilsiter-lichtspiele.de,Q1483262
Berlin,22,10967,Kottbusser Damm,,Point(13.4235 52.4903),cinema,52.4903,13.4235,Moviemento,moviemento,,,,wikidata,"Kottbusser Damm 22, 10967 Berlin","Kottbusser Damm 22, 10967 Berlin",http://www.moviemento.de/,Q1657924
Berlin,37,13509,Schubartstraße 35-,,Point(13.30329391 52.58332288),cinema,52.58332288,13.30329391,Kurmark-Lichtspiele,kurmark-lichtspiele,,,,wikidata,"Schubartstraße 35–37, 13509 Berlin","Schubartstraße 35-37, 13509 Berlin",,Q47081214
Berlin,6,13465,Ludolfingerplatz,,Point(13.28706086 52.63291026),cinema,52.63291026,13.28706086,Capitol Frohnau,capitol-frohnau,,,,wikidata,"Ludolfingerplatz 6, 13465 Berlin","Ludolfingerplatz 6, 13465 Berlin",,Q47082599
Berlin,1,13465,Staehleweg,,Point(13.28462873 52.65526842),cinema,52.65526842,13.28462873,Stadtrand-Lichtspiele,stadtrand-lichtspiele,,,,wikidata,"Staehleweg 1 (Haus 46), 13465 Berlin","Staehleweg 1 , 13465 Berlin",,Q47082605
Berlin,24,13503,Bekassinenweg,,Point(13.2352079 52.60839886),cinema,52.60839886,13.2352079,Capitol Heiligensee,capitol-heiligensee,,,,wikidata,"Bekassinenweg 24, 13503 Berlin","Bekassinenweg 24, 13503 Berlin",,Q47082808
Berlin,91,13503,Alt-Heiligensee,,Point(13.20985612 52.6050738),cinema,52.6050738,13.20985612,Seeschloss-Lichtspiele,seeschloss-lichtspiele,,,,wikidata,"Alt-Heiligensee 91, 13503 Berlin","Alt-Heiligensee 91, 13503 Berlin",,Q47082815
Berlin,2,13467,Glienicker Straße,,Point(13.30936172 52.61760046),cinema,52.61760046,13.30936172,"Lichtbildtheater, Hermsdorf",lichtbildtheater-hermsdorf,,,,wikidata,"Glienicker Straße 2, 13467 Berlin","Glienicker Straße 2, 13467 Berlin",,Q47082836
Berlin,133,13467,Berliner Straße,,Point(13.31686679 52.6149646),cinema,52.6149646,13.31686679,Linden-Lichtspiele,linden-lichtspiele,,,,wikidata,"Berliner Straße 133, 13467 Berlin","Berliner Straße 133, 13467 Berlin",,Q47082862
Berlin,19,13467,Schloßstraße,,Point(13.3079456 52.6189027),cinema,52.6189027,13.3079456,Palast-Lichtspiele,palast-lichtspiele,,,,wikidata,"Schloßstraße 19, 13467 Berlin","Schloßstraße 19, 13467 Berlin",,Q47082867
Berlin,20 / 22,13505,Scharfenberger Straße / ,,Point(13.23286 52.56857),cinema,52.56857,13.23286,Filmtheater am Tegeler See,filmtheater-am-tegeler-see,,,,wikidata,"Scharfenberger Straße 20/22, 13505 Berlin","Scharfenberger Straße 20/22, 13505 Berlin",,Q47082906
Berlin,8,13469,Alt-Lübars,,Point(13.35597388 52.62007603),cinema,52.62007603,13.35597388,Fortuna-Filmtheater,fortuna-filmtheater,,,,wikidata,"Alt-Lübars 8, 13469 Berlin","Alt-Lübars 8, 13469 Berlin",,Q47082922
Berlin,128,13439,Wilhelmsruher Damm,,Point(13.35521 52.59622),cinema,52.59622,13.35521,Manhattan,manhattan,,,,wikidata,"Wilhelmsruher Damm 128, 13439 Berlin","Wilhelmsruher Damm 128, 13439 Berlin",,Q47082968
Berlin,67 / 68,13405,Scharnweberstraße / ,,Point(13.3102449 52.5682246),cinema,52.5682246,13.3102449,Ala-Filmpalast,ala-filmpalast,,,,wikidata,"Scharnweberstraße 67/68, 13405 Berlin","Scharnweberstraße 67/68, 13405 Berlin",,Q47083060
Berlin,104,13405,Scharnweberstraße 101-,,Point(13.3175967 52.5663451),cinema,52.5663451,13.3175967,Astoria,astoria,,,,wikidata,"Scharnweberstraße 101–104, 13405 Berlin","Scharnweberstraße 101-104, 13405 Berlin",,Q47083065
Berlin,38,13403,Eichborndamm,,Point(13.31351 52.57166),cinema,52.57166,13.31351,Atlas-Filmtheater,atlas-filmtheater,,,,wikidata,"Eichborndamm 38, 13403 Berlin","Eichborndamm 38, 13403 Berlin",,Q47083071
Berlin,81,13409,Provinzstraße,,Point(13.3799586 52.5717849),cinema,52.5717849,13.3799586,Bali,bali,,,,wikidata,"Provinzstraße 81, 13409 Berlin","Provinzstraße 81, 13409 Berlin",,Q47083076
Berlin,124,13409,Residenzstraße,,Point(13.3629459 52.5671298),cinema,52.5671298,13.3629459,Beba-Lichtspiele,beba-lichtspiele,,,,wikidata,"Residenzstraße 124, 13409 Berlin","Residenzstraße 124, 13409 Berlin",,Q47083083
Berlin,73,13403,Ollenhauerstraße,,Point(13.33229 52.57757),cinema,52.57757,13.33229,Camera,camera,,,,wikidata,"Ollenhauerstraße 73, 13403 Berlin","Ollenhauerstraße 73, 13403 Berlin",,Q47083091
Berlin,33a,13405,Scharnweberstraße,,Point(13.3220745 52.5657447),cinema,52.5657447,13.3220745,Capitol Reinickendorf,capitol-reinickendorf,,,,wikidata,"Scharnweberstraße 33a, 13405 Berlin","Scharnweberstraße 33a, 13405 Berlin",,Q47083097
Berlin,20,13409,Markstraße,,Point(13.3656779 52.5583116),cinema,52.5583116,13.3656779,Filmeck,filmeck,,,,wikidata,"Markstraße 20, 13409 Berlin","Markstraße 20, 13409 Berlin",,Q47083104
Berlin,142,13409,Residenzstraße,,Point(13.36051 52.57181),cinema,52.57181,13.36051,Residenz-Theater,residenz-theater,,,,wikidata,"Residenzstraße 142,  13409 Berlin","Residenzstraße 142, 13409 Berlin",,Q47083111
Berlin,50 / 51,13407,Alt-Reinickendorf / ,,Point(13.35539708 52.57471561),cinema,52.57471561,13.35539708,Rex,rex,,,,wikidata,"Alt-Reinickendorf 50/51, 13407 Berlin","Alt-Reinickendorf 50/51, 13407 Berlin",,Q47083118
Berlin,72,13403,Eichborndamm,,Point(13.31462 52.57439),cinema,52.57439,13.31462,West-Reinickendorfer Lichtspielhaus,west-reinickendorfer-lichtspielhaus,,,,wikidata,"Eichborndamm 72, 13403 Berlin","Eichborndamm 72, 13403 Berlin",,Q47083127
Berlin,47,13507,Brunowstraße,,Point(13.2837254 52.5874628),cinema,52.5874628,13.2837254,Central-Lichtspiele,central-lichtspiele,,,,wikidata,"Brunowstraße 47, 13507 Berlin","Brunowstraße 47, 13507 Berlin",,Q47083247
Berlin,2,13507,Am Borsigturm,,Point(13.2870153 52.5854278),cinema,52.5854278,13.2870153,Cinestar Berlin Tegel,cinestar-berlin-tegel,Cinestar,,,wikidata,"Am Borsigturm 2, 13507 Berlin","Am Borsigturm 2, 13507 Berlin",https://www.cinestar.de/kino-berlin-tegel/,Q47083255
Berlin,2,13507,Grußdorfstraße,,Point(13.2875 52.5891),cinema,52.5891,13.2875,Filmpalast,filmpalast,,,,wikidata,"Grußdorfstraße 2, 13507 Berlin","Grußdorfstraße 2, 13507 Berlin",,Q47083360
Berlin,16,13507,Schlieperstraße,,Point(13.2843 52.58705),cinema,52.58705,13.2843,"Kinematographen-Theater, Tegel",kinematographen-theater-tegel,,,,wikidata,"Schlieperstraße 16, 13507 Berlin","Schlieperstraße 16, 13507 Berlin",,Q47083545
Berlin,16,13507,Alt-Tegel 14-,,Point(13.2803 52.58925),cinema,52.58925,13.2803,Kosmos Filmbühne,kosmos-filmb-hne,,,,wikidata,"Alt-Tegel 14-16, 13507 Berlin","Alt-Tegel 14-16, 13507 Berlin",,Q47083552
Berlin,13a,13507,Bernstorffstraße,,Point(13.286312 52.591327),cinema,52.591327,13.286312,Teli,teli,,,,wikidata,"Bernstorffstraße 13a, 13507 Berlin","Bernstorffstraße 13a, 13507 Berlin",,Q47083559
Berlin,8,13507,Alt-Tegel,,Point(13.28122 52.58977),cinema,52.58977,13.28122,Union-Theater Tegel,union-theater-tegel,,,,wikidata,"Alt-Tegel 8, 13507 Berlin","Alt-Tegel 8, 13507 Berlin",,Q47083567
Berlin,139,13507,Bernauer Straße,,Point(13.2705076 52.5757127),cinema,52.5757127,13.2705076,Waldkater-Lichtspiele,waldkater-lichtspiele,,,,wikidata,"Bernauer Straße 139, 13507 Berlin","Bernauer Straße 139, 13507 Berlin",,Q47083574
Berlin,167,13469,Waidmannsluster Damm,,Point(13.31747 52.60671),cinema,52.60671,13.31747,Hubertus-Lichtspiele,hubertus-lichtspiele,,,,wikidata,"Waidmannsluster Damm 167, 13469 Berlin","Waidmannsluster Damm 167, 13469 Berlin",,Q47083591
Berlin,88 / 90,13437,Roedernallee / ,,Point(13.33473 52.5943),cinema,52.5943,13.33473,Astra-Filmtheater,astra-filmtheater,,,,wikidata,"Roedernallee 88/90, 13437 Berlin","Roedernallee 88/90, 13437 Berlin",,Q47083641
Berlin,10,13469,Avenue Charles de Gaulle,,Point(13.32194 52.60288),cinema,52.60288,13.32194,Le Flambeau,le-flambeau,,,,wikidata,"Avenue Charles de Gaulle 10, 13469 Berlin","Avenue Charles de Gaulle 10, 13469 Berlin",,Q47083649
Berlin,89,13437,Oranienburger Straße,,Point(13.33326 52.59606),cinema,52.59606,13.33326,Roxy-Palast,roxy-palast,,,,wikidata,"Oranienburger Straße 89, 13437 Berlin","Oranienburger Straße 89, 13437 Berlin",,Q47083657
Berlin,12,10245,Simon-Dach-Straße,,Point(13.45622785 52.51056454),cinema,52.51056454,13.45622785,Tempo-Lichtspiele,tempo-lichtspiele,,,,wikidata,"Simon-Dach-Straße 12, 10245 Berlin","Simon-Dach-Straße 12, 10245 Berlin",,Q47156154
Berlin,80,10405,Prenzlauer Allee,,Point(13.42777778 52.54333333),cinema,52.54333333,13.42777778,Zeiss-Großplanetarium,zeiss-gro-planetarium,,,,wikidata,"Prenzlauer Allee 80, 10405 Berlin","Prenzlauer Allee 80, 10405 Berlin",,Q184985
,,10435,,,Point(13.4136 52.5389),cinema,52.5389,13.4136,Kulturbrauerei (Kulturzentrum),kulturbrauerei-kulturzentrum,,,,wikidata,,,http://kulturbrauerei.de/,Q467867
Berlin,9,10435,Kastanienallee 7-,,Point(13.4094 52.5403),cinema,52.5403,13.4094,Prater,prater,,,,wikidata,"Kastanienallee 7-9, 10435 Berlin","Kastanienallee 7-9, 10435 Berlin",,Q873829
Berlin,1,13086,Caligariplatz,,Point(13.4303 52.5527),cinema,52.5527,13.4303,Brotfabrik,brotfabrik,,,,wikidata,"Caligariplatz 1, 13086 Berlin","Caligariplatz 1, 13086 Berlin",http://brotfabrik-berlin.de/,Q990769
Berlin,27,13189,Berliner Straße,,Point(13.4122 52.5636),cinema,52.5636,13.4122,Tivoli,tivoli,,,,wikidata,"Berliner Straße 27, 13189 Berlin","Berliner Straße 27, 13189 Berlin",,Q1167477
Berlin,2,13086,Gustav-Adolf-Straße,,Point(13.4311 52.5517),cinema,52.5517,13.4311,Delphi,delphi,,,,wikidata,"Gustav-Adolf-Straße 2, 13086 Berlin","Gustav-Adolf-Straße 2, 13086 Berlin",https://theater-im-delphi.de/,Q1299542
,,,,,Point(13.4258 52.5303),cinema,52.5303,13.4258,Knaack-Klub,knaack-klub,,,,wikidata,,,,Q1776792
Berlin,148,10435,Schönhauser Allee,,Point(13.411591 52.539376),cinema,52.539376,13.411591,Puhlmann-Theater,puhlmann-theater,,,,wikidata,"Schönhauser Allee 148, 10435 Berlin","Schönhauser Allee 148, 10435 Berlin",,Q15841203
Berlin,77,10435,Kastanienallee,,Point(13.4141502 52.5430556),cinema,52.5430556,13.4141502,Lichtblick-Kino,lichtblick-kino,,,,wikidata,"Kastanienallee 77, 10435 Berlin","Kastanienallee 77, 10435 Berlin",http://www.lichtblick-kino.org/,Q26254837
,,,,,Point(13.441981673 52.505221569),cinema,52.505221569,13.441981673,UCI Luxe,uci-luxe,,,,wikidata,,,https://www.uci-kinowelt.de/luxe,Q118744391
Berlin,4,10245,Simplonstraße 2-,,Point(13.45647584 52.50969085),cinema,52.50969085,13.45647584,Simplon-Lichtspiele,simplon-lichtspiele,,,,wikidata,"Simplonstraße 2-4,  10245 Berlin","Simplonstraße 2-4, 10245 Berlin",,Q47156157
Berlin,24,10245,Sonntagstraße 23-,,Point(13.46473405 52.50691075),cinema,52.50691075,13.46473405,Apollo-Lichtspiele,apollo-lichtspiele,,,,wikidata,"Sonntagstraße 23–24, 10245 Berlin","Sonntagstraße 23-24, 10245 Berlin",,Q47156160
Berlin,13,10243,Strausberger Platz vor,,Point(13.42882141 52.51824967),cinema,52.51824967,13.42882141,Försters Lichtspiele,f-rsters-lichtspiele,,,,wikidata,"Strausberger Platz vor 13, 10243 Berlin","Strausberger Platz vor 13, 10243 Berlin",,Q47156164
Berlin,15 / 16,10245,Wühlischstraße / ,,Point(13.462642 52.5085119),cinema,52.5085119,13.462642,Amor-Lichtspiele,amor-lichtspiele,,,,wikidata,"Wühlischstraße 15/16, 10245 Berlin","Wühlischstraße 15/16, 10245 Berlin",,Q47156195
Berlin,26a,10247,Weichselstraße,,Point(13.4686515 52.51072977),cinema,52.51072977,13.4686515,Traveplatz-Lichtspiele,traveplatz-lichtspiele,,,,wikidata,"Weichselstraße 26a, 10247 Berlin","Weichselstraße 26a, 10247 Berlin",,Q47156199
Berlin,26,10243,Warschauer Straße,,Point(13.45118682 52.51039306),cinema,52.51039306,13.45118682,Elektra-Lichtspiele,elektra-lichtspiele,,,,wikidata,"Warschauer Straße 26, 10243 Berlin","Warschauer Straße 26, 10243 Berlin",,Q47156210
Berlin,40,10243,Warschauer Straße 39-,,Point(13.44792277 52.50460117),cinema,52.50460117,13.44792277,Kino des Ostens,kino-des-ostens,,,,wikidata,"Warschauer Straße 39-40, 10243 Berlin","Warschauer Straße 39-40, 10243 Berlin",,Q47156217
Berlin,61,10245,Corinthstraße,,Point(13.46498 52.49906),cinema,52.49906,13.46498,"b-ware! ladenkino, Corinthstraße",b-ware-ladenkino-corinthstra-e,,,,wikidata,"Corinthstraße 61, 10245 Berlin","Corinthstraße 61, 10245 Berlin",,Q47188140
,,10179,,,Point(13.416018 52.511074),cinema,52.511074,13.416018,Toneck-Lichtspiele,toneck-lichtspiele,,,,wikidata,,,,Q47311534
,,,,,Point(13.3978 52.5181),cinema,52.5181,13.3978,Zeughauskino,zeughauskino,,,,wikidata,,,https://www.dhm.de/zeughauskino/,Q196969
,,,,,Point(13.4009 52.5334),cinema,52.5334,13.4009,ACUD,acud,,,,wikidata,,,,Q288846
,,,,,Point(13.3869 52.5208),cinema,52.5208,13.3869,Tränenpalast,tr-nenpalast,Stiftung Haus der Geschichte der Bundesrepublik Deutschland,,,wikidata,,,,Q314446
Berlin,,10785,Marlene-Dietrich-Platz,,Point(13.372 52.507),cinema,52.507,13.372,Theater am Potsdamer Platz,theater-am-potsdamer-platz,,,,wikidata,"Marlene-Dietrich-Platz, 10785 Berlin","Marlene-Dietrich-Platz, 10785 Berlin",,Q328706
,,,,,Point(13.3886 52.5208),cinema,52.5208,13.3886,Admiralspalast,admiralspalast,,,,wikidata,,,http://www.admiralspalast.de,Q359242
Berlin,10,10557,Hanseatenweg,,Point(13.3461 52.5179),cinema,52.5179,13.3461,Akademie der Künste (Hanseatenweg),akademie-der-k-nste-hanseatenweg,,,,wikidata,"Hanseatenweg 10, 10557 Berlin, Germany","Hanseatenweg 10, 10557 Berlin, Germany",https://www.adk.de/de/besucherinformation/hanseatenweg/,Q414078
Berlin,22,10557,Altonaer Straße,,Point(13.3417348 52.5188564),cinema,52.5188564,13.3417348,Grips-Theater,grips-theater,,,,wikidata,"Altonaer Straße 22, 10557 Berlin","Altonaer Straße 22, 10557 Berlin",,Q525243
,,,,,Point(13.4228 52.5203),cinema,52.5203,13.4228,Kino International,kino-international,Yorck Kinogruppe,,,wikidata,,,http://www.yorck.de/kinos/detail/100004,Q1670774
,,,,,Point(13.4119 52.5258),cinema,52.5258,13.4119,Babylon (Kino),babylon-kino,,,,wikidata,,,https://babylonberlin.eu/,Q1742238
,,,,,Point(13.36 52.5333),cinema,52.5333,13.36,Kulturfabrik Moabit,kulturfabrik-moabit,,,,wikidata,,,,Q1791672
Berlin,9,13357,Behmstraße 7-,,Point(13.3875 52.5502),cinema,52.5502,13.3875,Lichtburg,lichtburg,,,,wikidata,"Behmstraße 7–9, 13357 Berlin","Behmstraße 7-9, 13357 Berlin",,Q1823303
,,,,,Point(13.3889 52.5134),cinema,52.5134,13.3889,Russisches Haus der Wissenschaft und Kultur,russisches-haus-der-wissenschaft-und-kultur,,Russland,,wikidata,,,,Q2177146
,,,,,Point(13.4023 52.5313),cinema,52.5313,13.4023,Walhalla-Theater,walhalla-theater,,,,wikidata,,,,Q2542256
,,,,,Point(13.372998 52.507136),cinema,52.507136,13.372998,BlueMax Theater,bluemax-theater,,,,wikidata,,,,Q17353438
Berlin,29,13187,Schulstraße,,Point(13.365365 52.550016),cinema,52.550016,13.365365,Marga-Lichtspiele,marga-lichtspiele,,,,wikidata,"Schulstraße 29, 13187 Berlin","Schulstraße 29, 13187 Berlin",,Q47459563
Berlin,94,13347,Seestraße,,Point(13.351093 52.550597),cinema,52.550597,13.351093,Cineplex Alhambra,cineplex-alhambra,Cineplex Deutschland,,,wikidata,"Seestraße 94, 13347 Berlin","Seestraße 94, 13347 Berlin",https://www.cineplex.de/berlin-alhambra/,Q22573555
Berlin,142,13353,Müllerstraße,,Point(13.354381 52.548823),cinema,52.548823,13.354381,Pharussäle,pharuss-le,,,,wikidata,"Müllerstraße 142, 13353 Berlin","Müllerstraße 142, 13353 Berlin",,Q23786080
Berlin,48,10555,Alt-Moabit,,Point(13.33131 52.524276),cinema,52.524276,13.33131,Hansa-Theater,hansa-theater,,,,wikidata,"Alt-Moabit 48, 10555 Berlin","Alt-Moabit 48, 10555 Berlin",,Q25392875
Berlin,74,13349,Müllerstraße,,Point(13.339459 52.558516),cinema,52.558516,13.339459,City Kino Wedding,city-kino-wedding,,,,wikidata,"Müllerstraße 74, 13349 Berlin","Müllerstraße 74, 13349 Berlin",http://citykinowedding.de/,Q28963572
Berlin,14,,Unter den Linden,286,Point(13.385452 52.516473),cinema,52.516473,13.385452,Kamera,kamera,,,,wikidata,"Unter den Linden 14, Berlin","Unter den Linden 14, Berlin",,Q47340925
,,,,,Point(13.394614 52.517831),cinema,52.517831,13.394614,KinoKlub der Humboldt-Uni,kinoklub-der-humboldt-uni,Humboldt-Universität zu Berlin,,,wikidata,,,,Q47340932
,,,,,Point(13.403288 52.532161),cinema,52.532161,13.403288,UFA-Palast Weinbergsweg,ufa-palast-weinbergsweg,,,,wikidata,,,,Q47340938
,,,,,Point(13.402512 52.538983),cinema,52.538983,13.402512,Arkona Filmtheater,arkona-filmtheater,,,,wikidata,,,,Q47340946
,,,,,Point(13.372809 52.538221),cinema,52.538221,13.372809,Polo-Lichtspiele Tageskino,polo-lichtspiele-tageskino,,,,wikidata,,,,Q47459445
Berlin,4,13351,Kameruner Straße,,Point(13.348091 52.551623),cinema,52.551623,13.348091,Valencia Film-Palast,valencia-film-palast,,,,wikidata,"Kameruner Straße 4, 13351 Berlin","Kameruner Straße 4, 13351 Berlin",,Q47459449
Berlin,12c,13353,Müllerstraße,,Point(13.36581 52.543013),cinema,52.543013,13.36581,Fortuna-Lichtspiele,fortuna-lichtspiele,,,,wikidata,"Müllerstraße 12c, 13353 Berlin","Müllerstraße 12c, 13353 Berlin",,Q47459528
Berlin,137,13353,Müllerstraße,,Point(13.352182 52.549997),cinema,52.549997,13.352182,Excelsior-Lichtspiele,excelsior-lichtspiele,,,,wikidata,"Müllerstraße 137, 13353 Berlin","Müllerstraße 137, 13353 Berlin",,Q47459532
Berlin,154,13353,Müllerstraße 153a-,,Point(13.359722 52.550016),cinema,52.550016,13.359722,Tivoli-Lichtspieltheater,tivoli-lichtspieltheater,,,,wikidata,"Müllerstraße 153a–154, 13353 Berlin","Müllerstraße 153a-154, 13353 Berlin",,Q47459534
Berlin,156,13353,Müllerstraße,,Point(13.360169 52.545586),cinema,52.545586,13.360169,Pamela-Lichtspiele,pamela-lichtspiele,,,,wikidata,"Müllerstraße 156, 13353 Berlin","Müllerstraße 156, 13353 Berlin",,Q47459538
Berlin,36,13353,Müllerstraße,,Point(13.35477 52.54926),cinema,52.54926,13.35477,Schiller-Lichtspiele,schiller-lichtspiele,,,,wikidata,"Müllerstraße 36, 13353 Berlin","Müllerstraße 36, 13353 Berlin",,Q47459541
Berlin,53,13349,Müllerstraße,,Point(13.347594 52.553314),cinema,52.553314,13.347594,Scala-Filmtheater,scala-filmtheater,,,,wikidata,"Müllerstraße 53, 13349 Berlin","Müllerstraße 53, 13349 Berlin",,Q47459543
Berlin,65,13349,Müllerstraße,,Point(13.342511 52.556426),cinema,52.556426,13.342511,Kammer-Lichtspiele,kammer-lichtspiele,,,,wikidata,"Müllerstraße 65, 13349 Berlin","Müllerstraße 65, 13349 Berlin",,Q47459547
,,,,,Point(13.36816 52.541516),cinema,52.541516,13.36816,Welt-Theater,welt-theater,,,,wikidata,,,,Q47459551
,,,,,Point(13.402203 52.524312),cinema,52.524312,13.402203,Haus Schwarzenberg,haus-schwarzenberg,,,,wikidata,,,http://www.kino-central.de/,Q52598236
,,,,,Point(13.3764 52.5225),theater,52.5225,13.3764,Lessingtheater,lessingtheater,,,,wikidata,,,,Q261757
,,,,,Point(13.3879 52.4939),theater,52.4939,13.3879,Belle-Alliance-Theater,belle-alliance-theater,,,,wikidata,,,,Q815816
Berlin,15,,Belforter Straße,,Point(13.4186 52.5319),theater,52.5319,13.4186,Berliner Arbeiter- und Studententheater,berliner-arbeiter-und-studententheater,,,,wikidata,"Belforter Straße 15, Berlin","Belforter Straße 15, Berlin",,Q821409
,,,,,Point(13.44 52.5183),theater,52.5183,13.44,Berliner Kriminal Theater,berliner-kriminal-theater,,,,wikidata,,,http://www.kriminaltheater.de,Q821599
,,10117,,440,Point(13.3951 52.5189),theater,52.5189,13.3951,Maxim Gorki Theater,maxim-gorki-theater,,,,wikidata,,,,Q460259
,,,,,Point(13.387777777 52.519166666),theater,52.519166666,13.387777777,Wintergarten,wintergarten,,,,wikidata,,,,Q519956
,,,,,Point(13.4136 52.5397),theater,52.5397,13.4136,RambaZamba Theater,rambazamba-theater,,,,wikidata,,,,Q2415924
,,,,,Point(13.3291 52.5059),theater,52.5059,13.3291,Vaganten Bühne,vaganten-b-hne,,,,wikidata,,,,Q2507233
,,,,,Point(13.4085 52.5243),theater,52.5243,13.4085,Victoria-Theater,victoria-theater,,,,wikidata,,,,Q2522680
,,,,,Point(13.439261 52.4769816),theater,52.4769816,13.439261,Heimathafen Neukölln,heimathafen-neuk-lln,,,,wikidata,,,http://www.heimathafen-neukoelln.de/,Q23786339
,,,,,Point(13.3369 52.5047),theater,52.5047,13.3369,Die Stachelschweine,die-stachelschweine,,,,wikidata,,,,Q1216398
,,,,,Point(13.2708 52.5089),theater,52.5089,13.2708,Die Wühlmäuse,die-w-hlm-use,,,,wikidata,,,https://www.wuehlmaeuse.de/,Q1217653
,,,,,Point(13.3906 52.5047),theater,52.5047,13.3906,Rose-Theater,rose-theater,,Carl Weiß,,wikidata,,,,Q1239534
,,,,,Point(13.4 52.5),theater,52.5,13.4,Tiyatrom,tiyatrom,,,,wikidata,,,,Q1314267
,,,,,Point(13.4119 52.5183),theater,52.5183,13.4119,TD Berlin,td-berlin,,,,wikidata,,,,Q1326666
,,,,,Point(13.3642 52.5432),theater,52.5432,13.3642,Prime Time Theater,prime-time-theater,,,,wikidata,,,,Q1370685
,,,,,Point(13.3756 52.4869),theater,52.4869,13.3756,Garn-Theater,garn-theater,,,,wikidata,,,,Q1494339
,,,,,Point(13.3667 52.4882),theater,52.4882,13.3667,Scheinbar,scheinbar,,,,wikidata,,,,Q1546993
,,,,,Point(13.395611111 52.518888888),theater,52.518888888,13.395611111,Theater im Palais,theater-im-palais,,,,wikidata,,,,Q1583640
,,,,,Point(13.3527 52.4989),theater,52.4989,13.3527,Piscator-Bühne,piscator-b-hne,,,,wikidata,,,,Q2096890
,,,,,Point(13.4408 52.5125),theater,52.5125,13.4408,Plaza,plaza,,,,wikidata,,,,Q2099068
,,10243,,,Point(13.428714 52.510532),theater,52.510532,13.428714,Radialsystem V,radialsystem-v,,,,wikidata,,,,Q2125656
Berlin,35,,Wallner-Theater-Straße,,Point(13.4216 52.5154),theater,52.5154,13.4216,Wallner-Theater,wallner-theater,,,,wikidata,"Wallner-Theater-Straße 35, Berlin","Wallner-Theater-Straße 35, Berlin",,Q46632319
,,,,,Point(13.421056 52.516416),theater,52.516416,13.421056,Residenz-Theater,residenz-theater,,,,wikidata,,,,Q46632591
Berlin,96,10785,Potsdammer Straße,,Point(13.364388888 52.502194444),theater,52.502194444,13.364388888,Wintergarten,wintergarten,,,,wikidata,"Potsdammer Straße 96, Berlin 10785","Potsdammer Straße 96, Berlin 10785",https://www.wintergarten-berlin.de/,Q57908931
,37,,Bülowstraße,,Point(13.36524 52.49652),theater,52.49652,13.36524,Nationalhof,nationalhof,,,,wikidata,Bülowstraße 37,Bülowstraße 37,,Q105491243
,,,,,Point(13.382101 52.52436),theater,52.52436,13.382101,Friedrich-Wilhelm-Städtisches Theater,friedrich-wilhelm-st-dtisches-theater,,,,wikidata,,,,Q105968512
,,,,,Point(13.370556 52.518611),theater,52.518611,13.370556,Trianon-Theater,trianon-theater,,,,wikidata,,,,Q106163836
,,10178,,,Point(13.4011 52.5256),theater,52.5256,13.4011,Sophiensæle,sophiens-le,,,,wikidata,,,,Q113484971
Berlin,32,10623,Hardenbergstraße,,Point(13.32923142 52.508153844),theater,52.508153844,13.32923142,Konzertsaal und Studiobühne der Hochschule der Künste,konzertsaal-und-studiob-hne-der-hochschule-der-k-nste,,,,wikidata,"Hardenbergstraße 32, 10623 Berlin","Hardenbergstraße 32, 10623 Berlin",,Q116419739
,,,,,Point(13.57788 52.44592),theater,52.44592,13.57788,Altstadttheater Köpenick,altstadttheater-k-penick,,,,wikidata,,,http://www.altstadttheater-koepenick.de/,Q118372527
,,,,,Point(13.38627 52.49909),theater,52.49909,13.38627,Schaubühne am Halleschen Ufer,schaub-hne-am-halleschen-ufer,,,,wikidata,,,,Q118431093
Berlin,123,10785,Kurfürstenstrasse,,Point(13.35008 52.50235),theater,52.50235,13.35008,Russische Bühne,russische-b-hne,,,,wikidata,"Kurfürstenstrasse 123, 10785 Berlin","Kurfürstenstrasse 123, 10785 Berlin",https://www.russische-buehne.de/,Q123221840
Berlin,4,12683,Frankenholzer Weg,,Point(13.56472 52.51101),theater,52.51101,13.56472,Theater am Park,theater-am-park,,,+49-30-37306473,wikidata,"Frankenholzer Weg 4, 12683 Berlin","Frankenholzer Weg 4, 12683 Berlin",,Q106917051
Berlin,410,12689,Märkische Allee,,Point(13.56826 52.57132),theater,52.57132,13.56826,Berliner Tschechow-Theater Marzahn,berliner-tschechow-theater-marzahn,,,,wikidata,"Märkische Allee 410, 12689 Berlin","Märkische Allee 410, 12689 Berlin",,Q107136976
,,,,,Point(13.388206678 52.526501935),theater,52.526501935,13.388206678,Scala-Theater,scala-theater,,,,wikidata,,,,Q135583032
Berlin,14 / 117,12435,Puschkinallee / Ecke Elsenstraße,,Point(13.46032464 52.49292694),theater,52.49292694,13.46032464,Alhambra,alhambra,,,,wikidata,"Puschkinallee 14  /  Ecke Elsenstraße 117, 12435 Berlin","Puschkinallee 14 / Ecke Elsenstraße 117, 12435 Berlin",,Q34766503
Berlin,1,12559,Alt Müggelheim,,Point(13.66101621 52.41251854),theater,52.41251854,13.66101621,Alter Krug-Lichtspiele,alter-krug-lichtspiele,,,,wikidata,"Alt Müggelheim 1, 12559 Berlin","Alt Müggelheim 1, 12559 Berlin",,Q34766526
,,,,,Point(13.574444444 52.445),theater,52.445,13.574444444,Schlossplatztheater,schlossplatztheater,,,,wikidata,,,,Q64606188
,,,,1712,Point(13.3291 52.5059),theater,52.5059,13.3291,Theater des Westens,theater-des-westens,,,,wikidata,,,http://www.stage-entertainment.de/theater-events/theater-des-westens.html,Q698233
,,,,,Point(13.3239 52.5019),theater,52.5019,13.3239,Theater am Kurfürstendamm,theater-am-kurf-rstendamm,,,,wikidata,,,http://www.komoedie-berlin.de/,Q869970
,,,,,Point(13.336805555 52.5025),theater,52.5025,13.336805555,Chez Nous,chez-nous,,,,wikidata,,,,Q1071469
,,,,,Point(13.3186 52.5142),theater,52.5142,13.3186,Die Tribüne,die-trib-ne,,,,wikidata,,,,Q2452572
,,10719,,,Point(13.3296 52.498),theater,52.498,13.3296,Q2658750,q2658750,,,,wikidata,,,https://www.bar-jeder-vernunft.de/,Q2658750
,,,,,Point(13.32396 52.50162),theater,52.50162,13.32396,Komödie am Kurfürstendamm,kom-die-am-kurf-rstendamm,Theater am Kurfürstendamm,,,wikidata,,,http://www.komoedie-berlin.de/,Q43438796
,,,,,Point(13.3181 52.5117),theater,52.5117,13.3181,Schillertheater,schillertheater,,,,wikidata,,,,Q113470455
,,,,,Point(13.3181 52.5117),theater,52.5117,13.3181,Schillertheater (Vorgängerbau),schillertheater-vorg-ngerbau,,,,wikidata,,,,Q108783697
Berlin,18,12105,Viktoriastraße 10-,,Point(13.38194444 52.45416667),theater,52.45416667,13.38194444,ufaFabrik,ufafabrik,,,,wikidata,"Viktoriastraße 10-18, 12105 Berlin","Viktoriastraße 10-18, 12105 Berlin",http://www.ufafabrik.de/intro.php,Q1325297
Berlin,9,10781,Goltzstraße,,Point(13.353589391 52.491458321),theater,52.491458321,13.353589391,Gustav-Behrens-Theater,gustav-behrens-theater,,,,wikidata,"Goltzstraße 9, 10781 Berlin","Goltzstraße 9, 10781 Berlin",,Q105426303
,,10997,,,Point(13.421489 52.502271),theater,52.502271,13.421489,Ballhaus Naunynstraße,ballhaus-naunynstra-e,,,,wikidata,,,,Q805250
Berlin,52,10969,Oranienstraße,,Point(13.41257067 52.50359285),theater,52.50359285,13.41257067,Parodietheater,parodietheater,,,,wikidata,"Oranienstraße 52, 10969 Berlin","Oranienstraße 52, 10969 Berlin",,Q122228407
,,,,,Point(13.415 52.5431),theater,52.5431,13.415,Ballhaus Ost,ballhaus-ost,,,,wikidata,,,http://ballhausost.de/,Q805249
,,,Mehringdamm,,Point(13.38765 52.49375),theater,52.49375,13.38765,Berliner Kabarett Anstalt,berliner-kabarett-anstalt,,,,wikidata,Mehringdamm,Mehringdamm,https://www.bka-theater.de/,Q821575
,,,,,Point(13.4 52.5),theater,52.5,13.4,Berliner Theater,berliner-theater,,,,wikidata,,,,Q821806
,,,,,Point(13.388442 52.487257),theater,52.487257,13.388442,English Theatre Berlin,english-theatre-berlin,,,,wikidata,,,,Q1342860
Berlin,90,10963,Stresemannstraße,,Point(13.382 52.5051),theater,52.5051,13.382,Europahaus,europahaus,,,,wikidata,"Stresemannstraße 90, 10963 Berlin","Stresemannstraße 90, 10963 Berlin",,Q1375334
,,10963,,,Point(13.3873 52.5),theater,52.5,13.3873,Hebbel-Theater,hebbel-theater,,,,wikidata,,,http://www.hebbel-am-ufer.de,Q1592692
,,,,,Point(13.4035314 52.5069685),theater,52.5069685,13.4035314,Gebrüder-Herrnfeld-Theater,gebr-der-herrnfeld-theater,,,,wikidata,,,,Q15811441
,,,,,Point(13.46668 52.50567),theater,52.50567,13.46668,Zebrano-Theater,zebrano-theater,,,,wikidata,,,https://www.zebrano-theater.de/,Q24619306
Berlin,32,10963,Hallesches Ufer,,Point(13.386530555 52.499088888),theater,52.499088888,13.386530555,Theater am Halleschen Ufer,theater-am-halleschen-ufer,,,,wikidata,"Hallesches Ufer 32, 10963 Berlin","Hallesches Ufer 32, 10963 Berlin",,Q43062707
,,,,,Point(13.38105 52.51991),theater,52.51991,13.38105,Komödienhaus,kom-dienhaus,,,,wikidata,,,,Q45408100
Berlin,13,10117,Schumannstraße,,Point(13.38137 52.52425),theater,52.52425,13.38137,Kammerspiele des Deutschen Theaters,kammerspiele-des-deutschen-theaters,Deutsches Theater Berlin,,,wikidata,"Schumannstraße 13, 10117Berlin","Schumannstraße 13, 10117Berlin",,Q45772100
,,,,,Point(13.388305555 52.516194444),theater,52.516194444,13.388305555,Passage-Theater,passage-theater,,,,wikidata,,,,Q46110901
,,,,1895,Point(13.3881 52.52393),theater,52.52393,13.3881,Friedrichstadt-Palast,friedrichstadt-palast,,,,wikidata,,,https://www.palast.berlin/,Q565670
,,,,,Point(13.38611111 52.52277778),theater,52.52277778,13.38611111,Großes Schauspielhaus,gro-es-schauspielhaus,,,,wikidata,,,,Q566365
,,,,,Point(13.3861 52.5217),theater,52.5217,13.3861,Theater am Schiffbauerdamm,theater-am-schiffbauerdamm,,,,wikidata,,,,Q632381
,,,,,Point(13.3518 52.5433),theater,52.5433,13.3518,Atze Musiktheater,atze-musiktheater,,,,wikidata,,,http://www.atzeberlin.de/,Q758312
,,,,,Point(13.4024 52.524),theater,52.524,13.4024,Chamäleon,cham-leon,,,,wikidata,,,,Q1061549
,,,,,Point(13.4154 52.5204),theater,52.5204,13.4154,Königsstädtisches Theater,k-nigsst-dtisches-theater,,,,wikidata,,,,Q1393899
,,,,,Point(13.3956 52.5282),theater,52.5282,13.3956,Kleines Theater Berlin-Mitte,kleines-theater-berlin-mitte,,,,wikidata,,,,Q1395409
Berlin,77,10117,Leipziger Straße,,Point(13.397406355 52.511390788),theater,52.511390788,13.397406355,Reichshallentheater,reichshallentheater,,,,wikidata,"Leipziger Straße 77, 10117 Berlin","Leipziger Straße 77, 10117 Berlin",,Q2139494
,,,,,Point(13.388225 52.515941),theater,52.515941,13.388225,Theater in der Behrenstraße,theater-in-der-behrenstra-e,,,,wikidata,,,,Q2416144
,,,,,Point(13.3797 52.5335),theater,52.5335,13.3797,Woltersdorff-Theater,woltersdorff-theater,,,,wikidata,,,,Q2592870
,,,,,Point(13.367084 52.518362),theater,52.518362,13.367084,Tipi am Kanzleramt,tipi-am-kanzleramt,,,,wikidata,,,https://www.tipi-am-kanzleramt.de/,Q15132360
,,,,,Point(13.39222222 52.51361111),theater,52.51361111,13.39222222,Französisches Komödienhaus,franz-sisches-kom-dienhaus,,,,wikidata,,,,Q15629884
,,,,,Point(13.362459 52.524074),theater,52.524074,13.362459,Theater- und Vortragssaal der Urania-Gesellschaft,theater-und-vortragssaal-der-urania-gesellschaft,,,,wikidata,,,,Q32661159
Berlin,96,10785,Potsdamer Straße,,Point(13.36451 52.50219),theater,52.50219,13.36451,Wintergarten Varieté,wintergarten-variet,,,,wikidata,"Potsdamer Straße 96, 10785 Berlin","Potsdamer Straße 96, 10785 Berlin",https://wintergarten-berlin.de,Q116318835
,,,,,Point(13.411944444 52.526944444),theater,52.526944444,13.411944444,Volksbühne am Rosa-Luxemburg-Platz,volksb-hne-am-rosa-luxemburg-platz,,,,wikidata,,,,Q118144972
Berlin,97,,Dresdener Straße,,Point(13.4128 52.50703),theater,52.50703,13.4128,Parodietheater,parodietheater,,,,wikidata,"Dresdener Straße 97, Berlin","Dresdener Straße 97, Berlin",,Q122228433
Berlin,4,,Chausseestraße,,Point(13.38687 52.52776),theater,52.52776,13.38687,Beu's Conzert-Hallen,beu-s-conzert-hallen,,,,wikidata,"Chausseestraße 4, Berlin","Chausseestraße 4, Berlin",,Q123538226
,,,,,Point(13.41196 52.50906),theater,52.50906,13.41196,Theater-Variété Brillant,theater-vari-t-brillant,,,,wikidata,,,,Q124050462
Berlin,14,,Unter den Linden,,Point(13.385692 52.5162748),theater,52.5162748,13.385692,Gebirgshallen,gebirgshallen,,,,wikidata,"Unter den Linden 14, Berlin","Unter den Linden 14, Berlin",,Q105423783
Berlin,77 / 79,,Kommandantenstraße / ,,Point(13.40106 52.50934),theater,52.50934,13.40106,Gratweil's Bierhallen,gratweil-s-bierhallen,,,,wikidata,"Kommandantenstraße 77/79, Berlin","Kommandantenstraße 77/79, Berlin",,Q105423931
,,,,,Point(13.41136 52.51832),theater,52.51832,13.41136,Französische Kirche in der Klosterstraße,franz-sische-kirche-in-der-klosterstra-e,,,,wikidata,,,,Q63003134
,,,,,Point(13.38928 52.51735),theater,52.51735,13.38928,Kleines Theater Unter den Linden,kleines-theater-unter-den-linden,,,,wikidata,,,,Q69773981
,,,,,Point(13.40278 52.51923),theater,52.51923,13.40278,Feen-Palast,feen-palast,,,,wikidata,,,,Q69903635
,,,,,Point(13.3921 52.51355),theater,52.51355,13.3921,Königliches Nationaltheater,k-nigliches-nationaltheater,,,,wikidata,,,,Q69904588
,,,,,Point(13.5251 52.4821),theater,52.4821,13.5251,Zimmertheater Karlshorst,zimmertheater-karlshorst,,,,wikidata,,,,Q203849
,,,,,Point(13.5241 52.4815),theater,52.4815,13.5241,Theater Karlshorst,theater-karlshorst,,,,wikidata,,,,Q55520081
Berlin,133,12043,Karl-Marx-Straße 131-,,Point(13.4403 52.4772),theater,52.4772,13.4403,Neuköllner Oper,neuk-llner-oper,,,,wikidata,"Karl-Marx-Straße 131-133, 12043 Berlin","Karl-Marx-Straße 131-133, 12043 Berlin",https://www.neukoellneroper.de/,Q1980823
,,,,,Point(13.4277627 52.48842),theater,52.48842,13.4277627,Theater im Kelle,theater-im-kelle,,,,wikidata,,,,Q2416128
Berlin,35,10787,Budapester Straße,,Point(13.34181 52.50538),theater,52.50538,13.34181,Deutsches Künstlertheater,deutsches-k-nstlertheater,,,,wikidata,"Budapester Straße 35, 10787 Berlin","Budapester Straße 35, 10787 Berlin",,Q1205797
,,,,,Point(13.450974388 52.516600388),theater,52.516600388,13.450974388,Theater am Frankfurter Tor,theater-am-frankfurter-tor,,,,wikidata,,,,Q136327936
