gym_id,district_id,name,address,postal_code,phone_number,email,coordinates,latitude,longitude,neighborhood,district
277958275,11012012,Kieser Training,Holzhauser Straße 140d,13509,+49 30 41718917,berlin5@kieser-training.com,POINT (13.3117903 52.5846088),52.5846088,13.3117903,1211,Reinickendorf
277958277,11003003,Kieser Training,Ostseestraße 107,10409,+49 30 42105260,berlin6@kieser-training.com,POINT (13.4425034 52.5467638),52.5467638,13.4425034,301,Pankow
277958288,11004004,Kieser Training,Forckenbeckstraße 9-13,14199,,,POINT (13.3051873 52.4799991),52.4799991,13.3051873,403,Charlottenburg-Wilmersdorf
277958289,11006006,Kieser Training,Teltowkanalstraße 2,12247,,,POINT (13.3296947 52.4429012),52.4429012,13.3296947,603,Steglitz-Zehlendorf
277958291,11008008,Kieser Training,Rudower Straße 132,12351,,,POINT (13.4690013 52.4339942),52.4339942,13.4690013,803,Neukölln
349301672,11004004,Brooklyn Fitboxing Charlottenburg,Kantstraße 38,10625,,,POINT (13.3142089 52.5064381),52.5064381,13.3142089,401,Charlottenburg-Wilmersdorf
353900373,11012012,Future Fit,Alt-Tegel 21,13507,,,POINT (13.2802229 52.5888042),52.5888042,13.2802229,1202,Reinickendorf
428142496,11001001,Rocket Station,,10559,,,POINT (13.350192 52.532929),52.532929,13.350192,102,Mitte
440337320,11008008,authentic body control,Boddinstraße 4,,,,POINT (13.4336999 52.4810205),52.4810205,13.4336999,801,Neukölln
499500765,11002002,Yogi Escape,Rigaer Straße 25,10247,,,POINT (13.4618241 52.5168592),52.5168592,13.4618241,201,Friedrichshain-Kreuzberg
617268225,11011011,McFit,Konrad-Wolf-Straße 56-60,13055,+493097604201,,POINT (13.4746956 52.5361874),52.5361874,13.4746956,1110,Lichtenberg
645677448,11001001,Fitbox,Turmstraße 74,10551,,,POINT (13.333241 52.5267655),52.5267655,13.333241,102,Mitte
664244052,11004004,Pilatesraum Berlin,Breite Straße 33,14199,,,POINT (13.2925233 52.4744332),52.4744332,13.2925233,403,Charlottenburg-Wilmersdorf
673611600,11004004,Viva Studio,Wilmersdorfer Straße 98,10629,,,POINT (13.3080794 52.5021593),52.5021593,13.3080794,401,Charlottenburg-Wilmersdorf
786216888,11003003,Women's Lift Lounge,Danziger Straße 55,10435,,,POINT (13.4210829 52.5399348),52.5399348,13.4210829,301,Pankow
810590618,11004004,Aspria,,,,,POINT (13.2943126 52.5005987),52.5005987,13.2943126,407,Charlottenburg-Wilmersdorf
812219708,11006006,Superfit,Schloßstraße 1,12163,,,POINT (13.3269685 52.4644342),52.4644342,13.3269685,601,Steglitz-Zehlendorf
823473534,11004004,McFit,Berliner Straße 148,10715,,,POINT (13.3283776 52.4866239),52.4866239,13.3283776,402,Charlottenburg-Wilmersdorf
833174269,11007007,Elbgym,Walther-Schreiber-Platz 1,12161,,,POINT (13.3277034 52.4648869),52.4648869,13.3277034,702,Tempelhof-Schöneberg
879311582,11001001,Holmes Place,Anton-Wilhelm-Amo-Straße 50,10117,,,POINT (13.3908216 52.5123998),52.5123998,13.3908216,101,Mitte
891052374,11004004,Tayfun Personal Trainer,Kaiserin-Augusta-Allee 45,10589,+49 30 692 016 36,,POINT (13.3082059 52.5258921),52.5258921,13.3082059,401,Charlottenburg-Wilmersdorf
901662461,11011011,McFit,Siegfriedstraße 177,10365,+49 30 55154631,,POINT (13.4988651 52.5218057),52.5218057,13.4988651,1103,Lichtenberg
925525521,11004004,SuperFit Europa-Center,Tauentzienstraße 9-12,,,member@superfit.club,POINT (13.3373165 52.5045718),52.5045718,13.3373165,401,Charlottenburg-Wilmersdorf
928931970,11006006,Fitness First,Schloßstraße 110,12163,,,POINT (13.3250803 52.4609717),52.4609717,13.3250803,601,Steglitz-Zehlendorf
932651529,11002002,SunYoga,Torellstraße 7,10243,,,POINT (13.4488022 52.5110587),52.5110587,13.4488022,201,Friedrichshain-Kreuzberg
958096426,11002002,Yoga im Graefekiez,Grimmstraße 19,10967,,,POINT (13.4142438 52.4927563),52.4927563,13.4142438,202,Friedrichshain-Kreuzberg
970070951,11006006,Superfit Woman,Schloßstraße 1,12163,,member@mysuperfit.com,POINT (13.3270583 52.4645372),52.4645372,13.3270583,601,Steglitz-Zehlendorf
1056915608,11006006,Fitness First,Clayallee 328-334,14169,,,POINT (13.2638979 52.4374727),52.4374727,13.2638979,604,Steglitz-Zehlendorf
1056915620,11006006,Fitness First,Clayallee 328-334,14169,,,POINT (13.2641914 52.4378498),52.4378498,13.2641914,604,Steglitz-Zehlendorf
1094853553,11002002,Beat81,Libauer Straße 1,10245,,,POINT (13.4548892 52.5100356),52.5100356,13.4548892,201,Friedrichshain-Kreuzberg
1112755252,11006006,Mrs. Sporty,Mühlenstraße 4,14167,,,POINT (13.2611651 52.4296407),52.4296407,13.2611651,604,Steglitz-Zehlendorf
1120057604,11003003,Fitness First,Schönhauser Allee 80,10439,,,POINT (13.4147198 52.5496432),52.5496432,13.4147198,301,Pankow
1218312075,11003003,Yoga Hub Berlin,Greifswalder Straße 8d,10405,,,POINT (13.425576 52.5293516),52.5293516,13.425576,301,Pankow
1270475988,11002002,Fitness Company Berlin,Rüdersdorfer Straße 71,10243,,,POINT (13.4409043 52.5129482),52.5129482,13.4409043,201,Friedrichshain-Kreuzberg
1279265631,11004004,Fitness and More,,,,,POINT (13.3262582 52.5072487),52.5072487,13.3262582,401,Charlottenburg-Wilmersdorf
1333143675,11007007,Sivananda Yoga,Schmiljanstraße 24,12161,+49 30 85999798,berlin@sivananda.net,POINT (13.3310663 52.470673),52.470673,13.3310663,702,Tempelhof-Schöneberg
1336704497,11005005,Gymfit,,,,,POINT (13.2058468 52.5371165),52.5371165,13.2058468,501,Spandau
1387894027,11004004,Mrs. Sporty,,,,,POINT (13.2895103 52.4772069),52.4772069,13.2895103,403,Charlottenburg-Wilmersdorf
1389043773,11003003,B23 Space,Greifswalder Straße 23,10405,,,POINT (13.4278041 52.531302),52.531302,13.4278041,301,Pankow
1389063019,11004004,UFC Gym,Kurfürstendamm 38,10719,,,POINT (13.3225954 52.5023417),52.5023417,13.3225954,401,Charlottenburg-Wilmersdorf
1438454178,11004004,Superfit,Wilmersdorfer Straße 54,10627,,member@superﬁt.club,POINT (13.3058415 52.5083788),52.5083788,13.3058415,401,Charlottenburg-Wilmersdorf
1438455119,11001001,SuperFit,Grunerstraße 20,10179,,,POINT (13.4160003 52.5186131),52.5186131,13.4160003,101,Mitte
1457608587,11001001,McFit,Seestraße 64,13347,,,POINT (13.3604139 52.5537674),52.5537674,13.3604139,105,Mitte
1470020226,11002002,SunYoga,Mehringdamm 33,10961,+49 30 69565522,,POINT (13.3886695 52.4934118),52.4934118,13.3886695,202,Friedrichshain-Kreuzberg
1471968739,11003003,Bewegungsstudio,,,,,POINT (13.4079903 52.5489078),52.5489078,13.4079903,301,Pankow
1576962361,11008008,Sacred Space,,,,,POINT (13.4298633 52.4884122),52.4884122,13.4298633,801,Neukölln
1577855726,11008008,M&M Fitness-Center,,,,,POINT (13.4379849 52.4223527),52.4223527,13.4379849,803,Neukölln
1583959145,11010010,McFit,Alt-Mahlsdorf 24,12623,+49 30 5659 2494,,POINT (13.6123631 52.5052223),52.5052223,13.6123631,1004,Marzahn-Hellersdorf
1584743772,11003003,Hadi Zalzadeh,Kollwitzstraße 102,10435,,,POINT (13.4215361 52.5391543),52.5391543,13.4215361,301,Pankow
1588139056,11002002,Green Studio Pilates,Jessnerstraße 58,10247,,,POINT (13.4698898 52.50955),52.50955,13.4698898,201,Friedrichshain-Kreuzberg
1610111889,11002002,Yoga-Institut Berlin,Bergmannstraße 91,10961,,,POINT (13.3930155 52.4897726),52.4897726,13.3930155,202,Friedrichshain-Kreuzberg
1715298789,11001001,Fit T9 Frauenfitness,Müllerstraße 36,13353,,,POINT (13.354639 52.5492489),52.5492489,13.354639,105,Mitte
1718478056,11007007,myoga,Sieglindestraße 7,12159,,,POINT (13.3294195 52.4764214),52.4764214,13.3294195,702,Tempelhof-Schöneberg
1762116722,11007007,McFit,,,,,POINT (13.3755423 52.4306176),52.4306176,13.3755423,704,Tempelhof-Schöneberg
1870398737,11007007,Rent-A-Trainer-Berlin Gym,Nollendorfstraße 23,10777,,,POINT (13.3504955 52.4974065),52.4974065,13.3504955,701,Tempelhof-Schöneberg
1915070108,11004004,Urban Boost,Pariser Straße 43,10707,,,POINT (13.3192394 52.4979231),52.4979231,13.3192394,402,Charlottenburg-Wilmersdorf
1918474939,11004004,Zentrum für Yoga & Qigong,,,,,POINT (13.286039 52.477839),52.477839,13.286039,403,Charlottenburg-Wilmersdorf
1918523912,11007007,WingTsun Akademie,,,,,POINT (13.340106 52.4959426),52.4959426,13.340106,701,Tempelhof-Schöneberg
1970628072,11003003,Mrs. Sporty,Hugenottenplatz 3,13127,+493047487074,,POINT (13.419858 52.6069668),52.6069668,13.419858,310,Pankow
1981014509,11009009,Impuls EMS-Studio,Genossenschaftsstraße 69,12489,+49 30 70 76 11 31,mail@impulsems.de,POINT (13.5469767 52.4376876),52.4376876,13.5469767,907,Treptow-Köpenick
2059798815,11007007,Yoga in der Schwangerschaft Frauke Stadali,Belziger Straße 7,10823,,,POINT (13.3567272 52.4879655),52.4879655,13.3567272,701,Tempelhof-Schöneberg
2082268403,11004004,Fitness First,,,,,POINT (13.3071048 52.5063071),52.5063071,13.3071048,401,Charlottenburg-Wilmersdorf
2116638898,11004004,Kieser Training,,,+49 30 43727807,berlin10@kieser-training.com,POINT (13.3211747 52.5115671),52.5115671,13.3211747,401,Charlottenburg-Wilmersdorf
2149937826,11007007,McFit,Schöneberger Straße 12-15,12103,+49 30 75443877,,POINT (13.3743607 52.4696804),52.4696804,13.3743607,703,Tempelhof-Schöneberg
2158310119,11003003,Abnehmen im Liegen,Schivelbeiner Straße 35,10439,,,POINT (13.409037 52.5508228),52.5508228,13.409037,301,Pankow
2187588493,11004004,Holmes Place,Wilmersdorfer Straße 38,10585,,,POINT (13.3049113 52.5119376),52.5119376,13.3049113,401,Charlottenburg-Wilmersdorf
2306175948,11001001,McFit,Alt-Moabit 96D,10559,,,POINT (13.34569 52.5248857),52.5248857,13.34569,102,Mitte
2334538079,11004004,Three Boons Yoga,Kurfürstendamm,10707,,,POINT (13.3101396 52.5000367),52.5000367,13.3101396,402,Charlottenburg-Wilmersdorf
2427830701,11009009,McFit,,,+49 30 63905744,,POINT (13.4983345 52.4639256),52.4639256,13.4983345,905,Treptow-Köpenick
2445179072,11002002,JOHN REED Fitness,Kottbusser Damm 1,10967,,,POINT (13.4201449 52.4953419),52.4953419,13.4201449,202,Friedrichshain-Kreuzberg
2445856559,11011011,EMSLounge,,,,,POINT (13.525466 52.4830416),52.4830416,13.525466,1102,Lichtenberg
2449154365,11005005,Sport & Therapiezentrum,,,,,POINT (13.2757823 52.5360507),52.5360507,13.2757823,503,Spandau
2477046562,11008008,Tagtigall,Herrfurthstraße 6a,12049,,,POINT (13.4242905 52.4774666),52.4774666,13.4242905,801,Neukölln
2489837401,11003003,Mindful Life Berlin,Gleimstraße 19,10437,,,POINT (13.4094238 52.5471967),52.5471967,13.4094238,301,Pankow
2690994059,11012012,Crunchfit,Wilhelmsruher Damm 128,13439,,,POINT (13.3552267 52.596692),52.596692,13.3552267,1210,Reinickendorf
2764574468,11001001,Rocycle Berlin Mitte,Linienstraße 41,10119,,,POINT (13.4095226 52.528312),52.528312,13.4095226,101,Mitte
2821190540,11008008,Venice Sporting Club,Tempelhofer Weg 44,12347,,,POINT (13.4290189 52.4550011),52.4550011,13.4290189,802,Neukölln
2840752454,11009009,Localfit,Fürstenwalder Damm 479,12587,,,POINT (13.6244217 52.4569686),52.4569686,13.6244217,911,Treptow-Köpenick
2850021274,11003003,John Reed Women's Club,Schönhauser Allee 112,10439,,,POINT (13.4135056 52.5509763),52.5509763,13.4135056,301,Pankow
2851949842,11005005,McFit,Am Juliusturm 19,13599,,,POINT (13.2271875 52.537428),52.537428,13.2271875,502,Spandau
2851949843,11012012,McFit,Oraniendamm 64,13469,+49 30 40399430,,POINT (13.3235204 52.6072123),52.6072123,13.3235204,1207,Reinickendorf
2901372702,11005005,VIP’n’Fit,Pichelsdorfer Straße 31,13595,,,POINT (13.1972779 52.5164644),52.5164644,13.1972779,509,Spandau
2935486803,11001001,Körperformen,Anklamer Straße 17,10115,,,POINT (13.3990861 52.5349746),52.5349746,13.3990861,101,Mitte
2960514356,11003003,Clever fit,Rosenthaler Weg 24B,13127,+49 3055621552,studio@berlin-pankow.clever-fit.com,POINT (13.4200588 52.6059139),52.6059139,13.4200588,310,Pankow
2985821756,11004004,McFit,Tauentzienstraße 8,10789,+49 30 2579 4520,,POINT (13.3388804 52.5037293),52.5037293,13.3388804,401,Charlottenburg-Wilmersdorf
2995644691,11002002,Berlin Strength,Revaler Straße 99,10245,,,POINT (13.4555779 52.5075111),52.5075111,13.4555779,201,Friedrichshain-Kreuzberg
3021116630,11010010,FitX,Hellersdorfer Straße 235,12627,+49 30 2099289130,,POINT (13.6026916 52.536285),52.536285,13.6026916,1005,Marzahn-Hellersdorf
3045401463,11001001,Pole Sport Studio Berlin,Wiclefstraße 18,10551,+49 30 12095667,poledanceberlin@gmx.de,POINT (13.3347642 52.5306804),52.5306804,13.3347642,102,Mitte
3140164400,11001001,Kieser Training,Hannoversche Straße 19,10115,,,POINT (13.3805488 52.5277244),52.5277244,13.3805488,101,Mitte
3176577534,11006006,Clays,Clayallee 171,14195,,,POINT (13.2701269 52.4519462),52.4519462,13.2701269,605,Steglitz-Zehlendorf
3266506461,11009009,McFit,Adlergestell 299,12489,+49 30 6780 7960,,POINT (13.5491064 52.4309414),52.4309414,13.5491064,907,Treptow-Köpenick
3267299482,11008008,Superfit,Karl-Marx-Straße 66,12043,,,POINT (13.4329149 52.4821233),52.4821233,13.4329149,801,Neukölln
3317540786,11007007,Clever fit,,,,,POINT (13.3848984 52.4524755),52.4524755,13.3848984,704,Tempelhof-Schöneberg
3385637223,11004004,FitX,Kurfürstendamm 156,10709,+49 30 88729698,,POINT (13.3028762 52.4984906),52.4984906,13.3028762,402,Charlottenburg-Wilmersdorf
3411940909,11003003,Clever fit,Greifswalder Straße 90,10409,,,POINT (13.4421641 52.5433678),52.5433678,13.4421641,301,Pankow
3442698430,11009009,Yoga und Körperarbeit,Karl-Kunger-Straße 21,12435,,,POINT (13.4488498 52.4901185),52.4901185,13.4488498,901,Treptow-Köpenick
3453943122,11007007,CrossFit,Wilhelm-Kabus-Straße 40,10829,,,POINT (13.365517 52.481665),52.481665,13.365517,701,Tempelhof-Schöneberg
3464981113,11003003,Yoga am Arnimplatz,Schönfließer Straße 11,10439,,,POINT (13.4083022 52.5529857),52.5529857,13.4083022,301,Pankow
3475027209,11002002,EFX Sport-Gruppe - Fitness,,,,,POINT (13.4207441 52.5018092),52.5018092,13.4207441,202,Friedrichshain-Kreuzberg
3566958751,11009009,Kieser Training,Bahnhofstraße 33-38,12555,+49 30 34354323,berlin12@kieser-training.com,POINT (13.5763726 52.4582572),52.4582572,13.5763726,910,Treptow-Köpenick
3658141193,11003003,Fitness First,,,+4930 49 90 54 3,,POINT (13.4066615 52.5698026),52.5698026,13.4066615,307,Pankow
3670161823,11006006,Elixia,,,,,POINT (13.3299541 52.429498),52.429498,13.3299541,602,Steglitz-Zehlendorf
3782374475,11004004,Clever fit,Joachimsthaler Straße 19,10719,,,POINT (13.3307767 52.5013709),52.5013709,13.3307767,401,Charlottenburg-Wilmersdorf
3819522964,11004004,Lagoa Yoga,,,,,POINT (13.3252108 52.5037245),52.5037245,13.3252108,401,Charlottenburg-Wilmersdorf
3826014915,11007007,Stromtown,Motzstraße 9,10777,,,POINT (13.3511448 52.4985987),52.4985987,13.3511448,701,Tempelhof-Schöneberg
3841253417,11006006,Holmes Place,Schildhornstraße 1,12163,,,POINT (13.3252442 52.4622743),52.4622743,13.3252442,601,Steglitz-Zehlendorf
3853848970,11007007,Fitbox,Martin-Luther-Straße 103,10825,+49 30 25776556,,POINT (13.3453454 52.485107),52.485107,13.3453454,701,Tempelhof-Schöneberg
3862712290,11011011,Mrs. Sporty,,,+49 30 35127250,,POINT (13.5157065 52.5054239),52.5054239,13.5157065,1101,Lichtenberg
3874310962,11010010,McFit,Märkische Allee 160a,12681,+493053029982,,POINT (13.5372478 52.5324374),52.5324374,13.5372478,1001,Marzahn-Hellersdorf
3877191661,11003003,40 Min,Florastraße 88/89,13187,,,POINT (13.3989931 52.5659003),52.5659003,13.3989931,307,Pankow
3907029679,11002002,Hale Now,Torellstraße 2,10243,,,POINT (13.4475269 52.5112064),52.5112064,13.4475269,201,Friedrichshain-Kreuzberg
3957099326,11010010,Kieser Training,,,,,POINT (13.5486137 52.5438059),52.5438059,13.5486137,1001,Marzahn-Hellersdorf
4128610787,11009009,Superfit,Bahnhofstraße 23-25,12555,,member@mysuperfit.com,POINT (13.5789766 52.4578111),52.4578111,13.5789766,910,Treptow-Köpenick
4128610788,11002002,Superfit,Frankfurter Allee 111,10247,,member@mysuperfit.com,POINT (13.4737156 52.5142755),52.5142755,13.4737156,201,Friedrichshain-Kreuzberg
4128610990,11012012,Superfit,,,,member@mysuperfit.com,POINT (13.2859281 52.5849505),52.5849505,13.2859281,1202,Reinickendorf
4235017790,11010010,Fit T9,Janusz-Korczak-Straße 4-8,12627,+49 30 99279513,ankebonack@gmx.de,POINT (13.6026618 52.5364805),52.5364805,13.6026618,1005,Marzahn-Hellersdorf
4253980789,11001001,Crossfit Grenzgänger,,,,,POINT (13.3870103 52.52648),52.52648,13.3870103,101,Mitte
4253995591,11001001,CrossFit,Heidestraße 48,10557,,,POINT (13.3672762 52.5308414),52.5308414,13.3672762,102,Mitte
4254495166,11001001,Hauptstadt Crossfit,,,,,POINT (13.3802487 52.5323394),52.5323394,13.3802487,101,Mitte
4254944691,11002002,Crossfit gute Hoffnungshütte,,,,,POINT (13.3872264 52.4888821),52.4888821,13.3872264,202,Friedrichshain-Kreuzberg
4304263292,11009009,Figurenzentrum Köpenick,,,,,POINT (13.575983 52.454105),52.454105,13.575983,910,Treptow-Köpenick
4308049689,11010010,CITI-Frauen-Fitness,Alte Hellersdorfer Straße 119,12629,,,POINT (13.5911324 52.5452832),52.5452832,13.5911324,1005,Marzahn-Hellersdorf
4315470224,11001001,Yoga Stübchen,Genter Straße 65,13353,,,POINT (13.3513758 52.5486824),52.5486824,13.3513758,105,Mitte
4316237225,11005005,lady's spandau,Bismarckstraße 17,13585,,,POINT (13.2010323 52.5433244),52.5433244,13.2010323,501,Spandau
4320893092,11002002,Bodystreet,Karl-Marx-Allee 110,10243,,,POINT (13.4460907 52.5163412),52.5163412,13.4460907,201,Friedrichshain-Kreuzberg
4333951890,11001001,Beat81,Dircksenstraße 90,10178,,,POINT (13.415554 52.5177528),52.5177528,13.415554,101,Mitte
4420021957,11001001,FitX,Alexanderstraße 7,10178,,,POINT (13.4161276 52.5230415),52.5230415,13.4161276,101,Mitte
4424022530,11001001,McFit,Leipziger Straße 46/47,10117,,,POINT (13.3974279 52.5106479),52.5106479,13.3974279,101,Mitte
4437696196,11004004,7 circles,Sächsische Straße 39,,,,POINT (13.3172363 52.48997),52.48997,13.3172363,402,Charlottenburg-Wilmersdorf
4446537033,11006006,Sporteve,,,+4930 67460192,steglitz@sporteve.de,POINT (13.3424696 52.4467195),52.4467195,13.3424696,601,Steglitz-Zehlendorf
4474870489,11012012,Therapiezentrum Waidmannslust,Oranienburger Straße 141,13437,+49304034700,,POINT (13.3256887 52.6051549),52.6051549,13.3256887,1209,Reinickendorf
4514846830,11001001,Fitness First,Jägerstraße 27,10117,,,POINT (13.3954862 52.5139697),52.5139697,13.3954862,101,Mitte
4520986013,11002002,Yogastudio Körperklang,Weidenweg 51,10249,+49 30 23 61 77 73,info@koerperklang-yoga.de,POINT (13.4520872 52.5185242),52.5185242,13.4520872,201,Friedrichshain-Kreuzberg
4530197498,11002002,Green Yoga,Gärtnerstraße 3,10245,,,POINT (13.4599359 52.5085055),52.5085055,13.4599359,201,Friedrichshain-Kreuzberg
4539202778,11001001,Fitbox,Invalidenstraße 152,,,berlinmitte@fitbox.de,POINT (13.3954966 52.5322556),52.5322556,13.3954966,101,Mitte
4555677789,11012012,Fit in Tegel,Ernststraße 2,13509,+49 30 4321020,info@fit-in-tegel.de,POINT (13.2912082 52.5825276),52.5825276,13.2912082,1202,Reinickendorf
4572112192,11006006,Freiraum,,,,,POINT (13.3286889 52.4274451),52.4274451,13.3286889,602,Steglitz-Zehlendorf
4604863055,11001001,Bodystreet,,,+49 30 33846280,berlin-checkpointcharlie@bodystreet.com,POINT (13.3917379 52.5079287),52.5079287,13.3917379,101,Mitte
4611801889,11002002,Yogibar,Boxhagener Straße 31,10245,,,POINT (13.4594528 52.5123551),52.5123551,13.4594528,201,Friedrichshain-Kreuzberg
4614154589,11001001,Three Boons Yoga,Brunnenstraße 29,10119,+49 030-48 49 19 48,info@threeboonsyoga.de,POINT (13.398546 52.5345204),52.5345204,13.398546,101,Mitte
4672876466,11002002,EagleCoach,Corinthstraße 51,10245,,,POINT (13.4637843 52.4993986),52.4993986,13.4637843,201,Friedrichshain-Kreuzberg
4673478561,11008008,Studio Sonne,Sonnenallee 67,12045,,,POINT (13.4352226 52.4846716),52.4846716,13.4352226,801,Neukölln
4797313796,11009009,Clever fit,,,,,POINT (13.5467803 52.4371567),52.4371567,13.5467803,907,Treptow-Köpenick
4809992562,11003003,Premium Ems Personal Training,,,,,POINT (13.399697 52.5688823),52.5688823,13.399697,307,Pankow
4812222804,11003003,Ki-Haus,Wollankstraße 6,13187,,,POINT (13.3984173 52.5680064),52.5680064,13.3984173,307,Pankow
4815247561,11001001,DocOrtho,,,+49 30 220021802,,POINT (13.389102 52.5191433),52.5191433,13.389102,101,Mitte
4819499443,11002002,Peace Yoga Berlin,Glogauer Straße 19,10999,,info@peaceyoga.de,POINT (13.4366613 52.4919236),52.4919236,13.4366613,202,Friedrichshain-Kreuzberg
4825870145,11001001,JOHN REED Fitness,Brunnenstraße 105-109,13355,+49 30 46798140,,POINT (13.389607 52.5479608),52.5479608,13.389607,106,Mitte
4836677035,11003003,SprachCafe,Schulzestraße 1,,,,POINT (13.3939889 52.5654361),52.5654361,13.3939889,307,Pankow
4849302124,11001001,Bikram Yoga Berlin-Mitte,Krausnickstraße 23,10115,,,POINT (13.3957917 52.5248995),52.5248995,13.3957917,101,Mitte
4861464949,11006006,McFit,Goerzallee 188,14167,,,POINT (13.2879531 52.4183617),52.4183617,13.2879531,602,Steglitz-Zehlendorf
4908049913,11002002,Fitbox,Grünberger Straße 62,10245,+49 30 51304836,,POINT (13.4575495 52.5115029),52.5115029,13.4575495,201,Friedrichshain-Kreuzberg
5001635832,11003003,FEEL THE BARRE,Bötzowstraße 26,10407,,,POINT (13.4339006 52.5312652),52.5312652,13.4339006,301,Pankow
5051041622,11004004,Mrs. Sporty,,,,,POINT (13.3002669 52.4978459),52.4978459,13.3002669,407,Charlottenburg-Wilmersdorf
5082292600,11004004,Yoga Vidya Center Berlin-Wilmersdorf,Pfalzburger Straße 43,10717,,,POINT (13.3213517 52.4894447),52.4894447,13.3213517,402,Charlottenburg-Wilmersdorf
5147968721,11011011,Active Ladies,Zingster Straße 4,13051,+49 30 36 74 50 60,info-hsh@active-ladies.de,POINT (13.5039111 52.5648847),52.5648847,13.5039111,1109,Lichtenberg
5248623193,11010010,Power Factory GmbH,Tangermünder Straße 129,12627,,,POINT (13.609346 52.5377691),52.5377691,13.609346,1005,Marzahn-Hellersdorf
5248861547,11010010,Ladycompany,,,,,POINT (13.5421497 52.5419445),52.5419445,13.5421497,1001,Marzahn-Hellersdorf
5321891322,11008008,Tayopi,Sonnenallee 147,12059,,,POINT (13.4460611 52.4789617),52.4789617,13.4460611,801,Neukölln
5337021037,11008008,Holmes Place,,,,,POINT (13.4214152 52.485211),52.485211,13.4214152,801,Neukölln
5339159802,11003003,Yoga,,,+49 162 65828241,,POINT (13.4017754 52.5530222),52.5530222,13.4017754,301,Pankow
5348822589,11011011,Yoga Barn,Münsterlandstraße 5,10317,,,POINT (13.4889231 52.505358),52.505358,13.4889231,1112,Lichtenberg
5396107633,11004004,sportraum bs,,,,,POINT (13.3359151 52.4847501),52.4847501,13.3359151,402,Charlottenburg-Wilmersdorf
5424563451,11001001,Slim-Gym Club,Chausseestraße 51,10115,+49 30 30881255,management@slim-gym.de,POINT (13.3772335 52.5354955),52.5354955,13.3772335,101,Mitte
5443162245,11012012,FitX,Oraniendamm 6-10,13469,,,POINT (13.3254356 52.607932),52.607932,13.3254356,1207,Reinickendorf
5525155938,11007007,FitX,,,,,POINT (13.3874764 52.4538703),52.4538703,13.3874764,703,Tempelhof-Schöneberg
5552228830,11003003,Argo Athletics,Mühlenstraße 62;63;64;65,13187,,,POINT (13.4095229 52.5642337),52.5642337,13.4095229,307,Pankow
5656522305,11001001,Evo Berlin Rosa,Rosa-Luxemburg-Straße 14,10178,,,POINT (13.410259 52.524584),52.524584,13.410259,101,Mitte
5659022957,11002002,Berlin Hot Yoga,,,,,POINT (13.4695348 52.5079023),52.5079023,13.4695348,201,Friedrichshain-Kreuzberg
5718697030,11007007,Boxsport Berlin e.V.,,,,,POINT (13.3611761 52.4965751),52.4965751,13.3611761,701,Tempelhof-Schöneberg
5730290887,11004004,Casa Flow Studios,Suarezstraße 13,14057,,,POINT (13.295478 52.5080622),52.5080622,13.295478,401,Charlottenburg-Wilmersdorf
5796921707,11004004,Mrs. Sporty,,,,,POINT (13.2651845 52.5133825),52.5133825,13.2651845,405,Charlottenburg-Wilmersdorf
5825069584,11003003,Casa de Quilombo,,,,,POINT (13.4101265 52.5649347),52.5649347,13.4101265,307,Pankow
5913018282,11001001,Just Fit,Steinstraße 5,10119,,,POINT (13.4062541 52.5266763),52.5266763,13.4062541,101,Mitte
5916346085,11011011,Mrs. Sporty,Rostocker Straße 15,13059,,,POINT (13.5096069 52.5745393),52.5745393,13.5096069,1109,Lichtenberg
5980998064,11002002,Kreuzberg Yoga,Lübbener Straße 9,10997,,,POINT (13.437719 52.4989674),52.4989674,13.437719,202,Friedrichshain-Kreuzberg
5981095822,11002002,Zentrum für Yoga und Stimme,Paul-Lincke-Ufer 30,10999,,,POINT (13.426096 52.4955816),52.4955816,13.426096,202,Friedrichshain-Kreuzberg
5985950308,11008008,Fitbox,Karl-Marx-Straße 108,12043,,,POINT (13.4373568 52.4788359),52.4788359,13.4373568,801,Neukölln
6006913091,11006006,Clever fit,Martin-Buber-Straße 12,14163,+49 3080582180,studio@berlin-zehlendorf.clever-fit.com,POINT (13.2582451 52.4350839),52.4350839,13.2582451,604,Steglitz-Zehlendorf
6027199452,11002002,iyengaryoga,,,,,POINT (13.4465225 52.5217464),52.5217464,13.4465225,201,Friedrichshain-Kreuzberg
6029322205,11002002,FitX,Tamara-Danz-Straße 11,10243,,,POINT (13.4455578 52.5058788),52.5058788,13.4455578,201,Friedrichshain-Kreuzberg
6141321914,11011011,FitX,Oderbruchstraße 14,10369,+49 201 8067457200,,POINT (13.4617302 52.5304776),52.5304776,13.4617302,1111,Lichtenberg
6217415536,11009009,Paramount Fitness,Puderstraße 8,12435,+49 30 5300747-8,,POINT (13.4625301 52.4845339),52.4845339,13.4625301,902,Treptow-Köpenick
6245373115,11007007,Iyengar Yoga Zentrum,Hochkirchstraße 9/2,10829,,info@iyzb.de,POINT (13.3694456 52.4905624),52.4905624,13.3694456,701,Tempelhof-Schöneberg
6249985337,11004004,taohealth,Wittelsbacherstraße 37,10707,,,POINT (13.3172922 52.4937501),52.4937501,13.3172922,402,Charlottenburg-Wilmersdorf
6261885939,11010010,FitX,Weißenhöher Straße 108,12683,,,POINT (13.5602985 52.5062441),52.5062441,13.5602985,1002,Marzahn-Hellersdorf
6269985404,11002002,Gelber Raum,Mariannenstraße 48,10997,,,POINT (13.4239752 52.5007181),52.5007181,13.4239752,202,Friedrichshain-Kreuzberg
6287061378,11003003,Yoga Pankow,,,,,POINT (13.4096666 52.5484219),52.5484219,13.4096666,301,Pankow
6339499872,11003003,Afra Senter,,,,,POINT (13.4037515 52.5530718),52.5530718,13.4037515,301,Pankow
6357893262,11002002,Lotos Yoga,,,,,POINT (13.4627564 52.5136199),52.5136199,13.4627564,201,Friedrichshain-Kreuzberg
6388113852,11009009,Fitbox,Bölschestraße 45,12587,+493064958262,,POINT (13.6253449 52.4528952),52.4528952,13.6253449,911,Treptow-Köpenick
6398137732,11009009,Urban Street Gym,Bouchéstraße 12,12435,,,POINT (13.4487446 52.4938947),52.4938947,13.4487446,901,Treptow-Köpenick
6414803768,11002002,Fitness First,Frankfurter Allee 57,,,,POINT (13.465678 52.5148233),52.5148233,13.465678,201,Friedrichshain-Kreuzberg
6415868985,11001001,Slim-Gym,Alt-Moabit 92,10559,,,POINT (13.3445657 52.5250018),52.5250018,13.3445657,102,Mitte
6421090392,11010010,skyfit-Club,Hellersdorfer Straße 83,12619,+49 30 56493956,,POINT (13.5864319 52.5231862),52.5231862,13.5864319,1005,Marzahn-Hellersdorf
6447122889,11004004,Fitnessstudio TU Sport,Straße des 17. Juni 145,10623,,,POINT (13.3238482 52.5122911),52.5122911,13.3238482,401,Charlottenburg-Wilmersdorf
6451531078,11008008,Dharma Yoga,Kienitzer Straße 98,12049,,,POINT (13.4254971 52.4763605),52.4763605,13.4254971,801,Neukölln
6458744287,11006006,Steglitzer Dance & Aerobic Center,Lepsiusstraße 14,12163,,,POINT (13.3210363 52.464957),52.464957,13.3210363,601,Steglitz-Zehlendorf
6469985311,11004004,Aum Yoga Studio,Nassauische Straße 62,10717,,,POINT (13.3268218 52.4927896),52.4927896,13.3268218,402,Charlottenburg-Wilmersdorf
6497580485,11005005,McFit,Altonaer Straße 59-61,13581,+493035104984,,POINT (13.1874325 52.5318788),52.5318788,13.1874325,501,Spandau
6508696785,11001001,Fit Star,Turmstraße 29,10551,,,POINT (13.341843 52.5265415),52.5265415,13.341843,102,Mitte
6550896785,11001001,John & Jane‘s,Rosenthaler Straße 63,,,,POINT (13.4029924 52.5279738),52.5279738,13.4029924,101,Mitte
6563440585,11010010,Clever fit,Helene-Weigel-Platz 5,12681,,,POINT (13.5389857 52.5281086),52.5281086,13.5389857,1001,Marzahn-Hellersdorf
6586374601,11001001,FIT/ONE,Müllerstraße 35,13353,+49 30 45028220,,POINT (13.3551586 52.5490334),52.5490334,13.3551586,105,Mitte
6693475018,11003003,Green Yoga,Sredzkistraße 59,10405,,,POINT (13.4213383 52.5379127),52.5379127,13.4213383,301,Pankow
6757633586,11003003,Green Yoga,Dietzgenstraße 56,13156,,,POINT (13.4027986 52.5858073),52.5858073,13.4027986,311,Pankow
6759112267,11002002,Studio Glücksmama,Döringstraße 2,10245,,,POINT (13.4623488 52.5063988),52.5063988,13.4623488,201,Friedrichshain-Kreuzberg
6789070129,11007007,Fit/One,Bautzener Straße 20-24,10829,,,POINT (13.3713067 52.492162),52.492162,13.3713067,701,Tempelhof-Schöneberg
6841151512,11002002,Sportetage,Audre-Lorde-Straße 74,10997,,,POINT (13.4263004 52.5000182),52.5000182,13.4263004,202,Friedrichshain-Kreuzberg
6853266785,11003003,Casa FLOW,Prenzlauer Allee 38,10405,,,POINT (13.4222794 52.5350799),52.5350799,13.4222794,301,Pankow
6899045752,11004004,Iyengar Yoga,Krumme Straße 61,10627,,suhara@web.de,POINT (13.3097604 52.5094167),52.5094167,13.3097604,401,Charlottenburg-Wilmersdorf
7006749859,11002002,Forde Fitness,Stresemannstraße 65,10963,,,POINT (13.3844025 52.5025396),52.5025396,13.3844025,202,Friedrichshain-Kreuzberg
7057578051,11008008,Yoga im Gartenstudio,,,,,POINT (13.4518778 52.4790244),52.4790244,13.4518778,801,Neukölln
7066762906,11007007,FitX,Hauptstraße 141,10827,,,POINT (13.3556988 52.4855668),52.4855668,13.3556988,701,Tempelhof-Schöneberg
7069825849,11003003,InLight Yoga,Hufelandstraße 23,10407,,,POINT (13.4329339 52.5316555),52.5316555,13.4329339,301,Pankow
7069825850,11003003,EMS Sport und Bewegung,Hufelandstraße 23,10407,,,POINT (13.432789 52.5317118),52.5317118,13.432789,301,Pankow
7095755738,11003003,Makeda,Pasteurstraße 20,10407,,,POINT (13.4340409 52.5331143),52.5331143,13.4340409,301,Pankow
7133818467,11001001,CrunchFit,Pankstraße 32-39,,,,POINT (13.3778323 52.5494998),52.5494998,13.3778323,106,Mitte
7161037005,11002002,American Fitness,Hermannplatz 10,10967,+49 30 69807090,,POINT (13.4241071 52.4880071),52.4880071,13.4241071,202,Friedrichshain-Kreuzberg
7194124792,11003003,Kindersport Sven Bora,Dietrich-Bonhoeffer-Straße 17a,10407,,,POINT (13.4361377 52.5336363),52.5336363,13.4361377,301,Pankow
7194124793,11003003,yogi,Dietrich-Bonhoeffer-Straße 17a,10407,,,POINT (13.4361912 52.5336164),52.5336164,13.4361912,301,Pankow
7231134046,11008008,yogaraum Am Richardplatz,Hertzbergstraße 27,,,,POINT (13.4467666 52.4758032),52.4758032,13.4467666,801,Neukölln
7239669952,11003003,Mrs. Sporty,Hauptstraße 101B,13158,,,POINT (13.3746045 52.5954367),52.5954367,13.3746045,312,Pankow
7252377721,11002002,TSX Sportsclub,,,,,POINT (13.4668695 52.50798),52.50798,13.4668695,201,Friedrichshain-Kreuzberg
7272720758,11003003,Formwandler,Dunckerstraße 21,10437,,,POINT (13.4223608 52.5439907),52.5439907,13.4223608,301,Pankow
7275474348,11003003,Via Pilates,Dunckerstraße 84,10437,,,POINT (13.419718 52.5416201),52.5416201,13.419718,301,Pankow
7279178744,11003003,House of Healing,Dunckerstraße 70,10437,,,POINT (13.4228163 52.5450586),52.5450586,13.4228163,301,Pankow
7279405008,11003003,YogaCircle,Schliemannstraße 22,10437,,,POINT (13.4207853 52.5445551),52.5445551,13.4207853,301,Pankow
7279495026,11003003,Sotantar,Schliemannstraße 25a,10437,,,POINT (13.4208589 52.544994),52.544994,13.4208589,301,Pankow
7296568749,11009009,fit & feminin,Fürstenwalder Allee 318,12589,,,POINT (13.7153681 52.4313095),52.4313095,13.7153681,912,Treptow-Köpenick
7311293615,11003003,My Sports,Danziger Straße 69,10435,,,POINT (13.4235503 52.5395343),52.5395343,13.4235503,301,Pankow
7544210933,11007007,EMS Training Berlin,,,,,POINT (13.3246233 52.475808),52.475808,13.3246233,702,Tempelhof-Schöneberg
7553701884,11008008,Oma Om Yoga,Richardstraße 43,12055,,,POINT (13.4452931 52.4734928),52.4734928,13.4452931,801,Neukölln
7554171386,11007007,Fitbox,Rheinstraße 17,12159,,,POINT (13.332784 52.4694551),52.4694551,13.332784,702,Tempelhof-Schöneberg
7623775571,11001001,Blue Panta,Transvaalstraße 11,13351,,,POINT (13.3424248 52.5527066),52.5527066,13.3424248,105,Mitte
7640755748,11007007,Yogazeit Stråla,Hauptstraße 69,12159,+49 163 6661164,,POINT (13.3401936 52.4758116),52.4758116,13.3401936,702,Tempelhof-Schöneberg
7650571611,11004004,Yogavihar,,,,,POINT (13.3044631 52.5162635),52.5162635,13.3044631,401,Charlottenburg-Wilmersdorf
7680118565,11007007,Entspannt mit Yoga,Beckerstraße 9,12157,+49 151 40450738,,POINT (13.3396573 52.4670632),52.4670632,13.3396573,701,Tempelhof-Schöneberg
7683719224,11007007,Raum für Bewegung Quan Dao,Niedstraße 12,12159,+49 172 3976033,,POINT (13.3324358 52.4726259),52.4726259,13.3324358,702,Tempelhof-Schöneberg
7749923385,11007007,Akademie für Yoga Berlin,Wilhelmshöher Straße 5,12161,,,POINT (13.3259026 52.4726648),52.4726648,13.3259026,702,Tempelhof-Schöneberg
7776107176,11007007,Donna Mobile,Rheinstraße 46,12161,,,POINT (13.3306922 52.4667964),52.4667964,13.3306922,702,Tempelhof-Schöneberg
7776239760,11007007,Flow Fitness,Fregestraße 11,12159,+49 30 24329828,,POINT (13.3370775 52.4702542),52.4702542,13.3370775,702,Tempelhof-Schöneberg
7777530626,11007007,Peronal Pilates,Wilhelmshöher Straße 20,12161,,,POINT (13.3231711 52.4723634),52.4723634,13.3231711,702,Tempelhof-Schöneberg
7804846347,11004004,CrossFit,Berliner Straße 30,10715,,,POINT (13.3236197 52.4867414),52.4867414,13.3236197,402,Charlottenburg-Wilmersdorf
7821177808,11004004,Sarasvati Yoga Berlin,Bundesallee 53,10715,,,POINT (13.329427 52.4822505),52.4822505,13.329427,402,Charlottenburg-Wilmersdorf
7836953685,11010010,Health Gym Berlin,,,,,POINT (13.5599114 52.508509),52.508509,13.5599114,1002,Marzahn-Hellersdorf
7850361039,11007007,Ashtanga Yoga Schule,,,,,POINT (13.3577898 52.4945812),52.4945812,13.3577898,701,Tempelhof-Schöneberg
7867810048,11003003,Mrs. Sporty,Winsstraße 42,10405,+49 30 30026644,,POINT (13.4277953 52.536809),52.536809,13.4277953,301,Pankow
7888120846,11001001,Pour la danse,Reinhardtstraße 47,10117,,,POINT (13.3785398 52.5219701),52.5219701,13.3785398,101,Mitte
7931581679,11002002,Honigseele,,,,,POINT (13.3829359 52.4941125),52.4941125,13.3829359,202,Friedrichshain-Kreuzberg
8042827117,11004004,Strom-Linien,Prinzregentenstraße 42,10715,,,POINT (13.3325115 52.4792746),52.4792746,13.3325115,402,Charlottenburg-Wilmersdorf
8066147155,11003003,Ready Set Move – Personal Training Berlin,Schönhauser Allee 134,10437,+49 17621964450,info@ready-set-move.de,POINT (13.4118011 52.5444176),52.5444176,13.4118011,301,Pankow
8077205619,11004004,Fitbox,,,,,POINT (13.3313311 52.4909974),52.4909974,13.3313311,402,Charlottenburg-Wilmersdorf
8091797796,11006006,Kessler Sports,,12167,,,POINT (13.3304973 52.4526924),52.4526924,13.3304973,601,Steglitz-Zehlendorf
8094802649,11007007,Sporteve,Laubacher Straße 12,14197,,,POINT (13.3202746 52.4709457),52.4709457,13.3202746,702,Tempelhof-Schöneberg
8120989341,11006006,Fitness First Ladies,,,,,POINT (13.3208065 52.4575255),52.4575255,13.3208065,601,Steglitz-Zehlendorf
8143925996,11007007,Pilates On The Go,Wiesbadener Straße 79,12161,,,POINT (13.320908 52.4714277),52.4714277,13.320908,702,Tempelhof-Schöneberg
8197441972,11004004,Rocycle,,,,,POINT (13.3103661 52.5005866),52.5005866,13.3103661,401,Charlottenburg-Wilmersdorf
8199219273,11007007,pilaME,Homuthstraße 6,12161,,,POINT (13.3231656 52.4703204),52.4703204,13.3231656,702,Tempelhof-Schöneberg
8222836706,11007007,Praxis für die Seele,Bundesallee 123,12161,,,POINT (13.3289566 52.4697929),52.4697929,13.3289566,702,Tempelhof-Schöneberg
8231100116,11009009,Yoga Glück,Hackenbergstraße 7,12489,,kontakt@yoga-glueck-berlin.de,POINT (13.5479174 52.4395292),52.4395292,13.5479174,907,Treptow-Köpenick
8330198881,11012012,Fitnessclub Vitalis,Zerpenschleuser Ring 37,13439,+49 30 415 38 80,vitalis-fitness@t-online.de,POINT (13.3673041 52.6048775),52.6048775,13.3673041,1210,Reinickendorf
8422865852,11004004,Hundred & Friends,Berliner Straße 161,10715,,,POINT (13.3345576 52.4877092),52.4877092,13.3345576,402,Charlottenburg-Wilmersdorf
8462294818,11011011,FIT/ONE,Hansastraße 236,13051,,,POINT (13.4984219 52.5603992),52.5603992,13.4984219,1110,Lichtenberg
8558365378,11003003,Centerline Pilates,,,+49 176 20 21 22 24,me@centerline-pilates.de,POINT (13.4052242 52.5535695),52.5535695,13.4052242,301,Pankow
8621664469,11003003,Fitbox,Prenzlauer Allee 207,10405,,,POINT (13.4225943 52.5371215),52.5371215,13.4225943,301,Pankow
8622816454,11003003,ride-berlin.com,,,,,POINT (13.4177211 52.5399323),52.5399323,13.4177211,301,Pankow
8626109382,11004004,Iyengar Yoga,,,,,POINT (13.2913584 52.5110332),52.5110332,13.2913584,401,Charlottenburg-Wilmersdorf
8637655134,11007007,Schule für Yoga und Prana,Innsbrucker Straße 56,10825,,,POINT (13.3407554 52.4872648),52.4872648,13.3407554,701,Tempelhof-Schöneberg
8662502304,11002002,Soulsport Yoga,Gubener Straße 47,10243,,,POINT (13.4485371 52.5121345),52.5121345,13.4485371,201,Friedrichshain-Kreuzberg
8679795668,11001001,"pilatique, Pilatesstudio",,,+49 30 57704087,post@pilatique.de,POINT (13.3471371 52.5492037),52.5492037,13.3471371,105,Mitte
8744170510,11006006,Yoga für alle,,,+49 30 7875496,,POINT (13.3298931 52.4555537),52.4555537,13.3298931,601,Steglitz-Zehlendorf
8839649644,11004004,Be Your Star Fitnesscoaching,Joachim-Friedrich-Straße 41,10711,+49 171 2697356,,POINT (13.2960862 52.4990796),52.4990796,13.2960862,407,Charlottenburg-Wilmersdorf
8989690901,11007007,Iyengar,,,,,POINT (13.3816579 52.4825358),52.4825358,13.3816579,703,Tempelhof-Schöneberg
9067697047,11002002,X-Step,Tempelhofer Ufer 36,10963,+49 30 2616925,,POINT (13.3756597 52.500659),52.500659,13.3756597,202,Friedrichshain-Kreuzberg
9258064630,11012012,Unknown Gym,Oranienburger Straße 110,13437,,,POINT (13.331864 52.6010328),52.6010328,13.331864,1209,Reinickendorf
9402426708,11003003,BiSee Yoga,Bizetstraße 43,13088,,info@bisee-yoga.de,POINT (13.4534306 52.5478641),52.5478641,13.4534306,302,Pankow
9404573372,11006006,Bodystreet,Bismarckstraße 70,12157,+49 30 79014869,berlin-bismarckstrasse@bodystreet.de,POINT (13.3395351 52.4623323),52.4623323,13.3395351,601,Steglitz-Zehlendorf
9431775959,11003003,Fitbox,Berliner Allee 108,13088,+49 30 40569210,,POINT (13.4596077 52.5500839),52.5500839,13.4596077,302,Pankow
9504311194,11003003,Sonne Mond & Sterne,Meyerbeerstraße 59,13088,,somoste.weissensee@gmail.com,POINT (13.4572285 52.5476997),52.5476997,13.4572285,302,Pankow
9524144982,11002002,PRO-STAGE,,,+49 30 61209261,info@prostage.berlin,POINT (13.3982992 52.4939117),52.4939117,13.3982992,202,Friedrichshain-Kreuzberg
9529221826,11004004,LovFit,,,,,POINT (13.2726237 52.508465),52.508465,13.2726237,405,Charlottenburg-Wilmersdorf
9563056748,11008008,Middendorf Yoga,Karl-Marx-Straße 92-98,12043,,,POINT (13.4359448 52.4798838),52.4798838,13.4359448,801,Neukölln
9592884391,11004004,JOHN REED Fitness,Wilmersdorfer Straße 126-127,10627,+49 30 31800437,,POINT (13.306013 52.5097577),52.5097577,13.306013,401,Charlottenburg-Wilmersdorf
9632071018,11006006,MO.VE,Kissinger Straße 9,12157,,,POINT (13.3408491 52.462798),52.462798,13.3408491,601,Steglitz-Zehlendorf
9662767223,11002002,Peace Yoga Berlin,Eisenbahnstraße 5,10997,,info@peaceyoga.de,POINT (13.432989 52.5016941),52.5016941,13.432989,202,Friedrichshain-Kreuzberg
9708780370,11003003,Bodystreet,Berliner Straße 2,13187,,,POINT (13.4103995 52.5702216),52.5702216,13.4103995,307,Pankow
9728794514,11001001,Ladycompany - Fitness für Frauen,Spandauer Straße 4,10178,+493024020677,,POINT (13.4041015 52.5209499),52.5209499,13.4041015,101,Mitte
9775820813,11002002,yogafürdich Berlin,,,,,POINT (13.4656869 52.515338),52.515338,13.4656869,201,Friedrichshain-Kreuzberg
9806604950,11003003,dein Pilates,,,,,POINT (13.4109373 52.5527342),52.5527342,13.4109373,301,Pankow
9816576692,11004004,Corpus Dicio,,,,,POINT (13.2922362 52.5104148),52.5104148,13.2922362,401,Charlottenburg-Wilmersdorf
9830837796,11002002,Bunker Berlin,Grünberger Straße 54,10245,,,POINT (13.4558403 52.511239),52.511239,13.4558403,201,Friedrichshain-Kreuzberg
9846635117,11002002,Lotos Yoga Berlin - YOGA LOFT,Scharnweberstraße 30,,+49 30 91544928,yoga@yoga-lotos.de,POINT (13.4633274 52.5133709),52.5133709,13.4633274,201,Friedrichshain-Kreuzberg
9852432518,11011011,AXT CrossFit,Hauptstraße 13,10317,+4915792465440,,POINT (13.489293 52.4919528),52.4919528,13.489293,1112,Lichtenberg
9867335575,11011011,Unknown Gym,Storkower Straße 225,10367,,,POINT (13.4769045 52.5232792),52.5232792,13.4769045,1111,Lichtenberg
9906919513,11009009,Fitness am Park,Elsenstraße 113,,+49 30 5363800,fitnessampark@activ-fitness.de,POINT (13.4575706 52.4913483),52.4913483,13.4575706,901,Treptow-Köpenick
9906938038,11002002,FitnessCenter aTB,Am Tempelhofer Berg 6,,+49 30 693 40 40,fitnesscenter@web.de,POINT (13.387549 52.4888923),52.4888923,13.387549,202,Friedrichshain-Kreuzberg
9928786051,11001001,AllStar Gym,Leipziger Platz 12,10117,+49 30 94051670,info@allstargym.de,POINT (13.3813194 52.5104581),52.5104581,13.3813194,101,Mitte
9985456517,11003003,mPointUp,,,,,POINT (13.4095769 52.5646061),52.5646061,13.4095769,307,Pankow
10000479377,11004004,Lokai Loft,,,,,POINT (13.30329 52.4908896),52.4908896,13.30329,402,Charlottenburg-Wilmersdorf
10035842242,11003003,Future Fit,Schönhauser Allee 57,10437,,,POINT (13.4127951 52.5438448),52.5438448,13.4127951,301,Pankow
10045257318,11003003,Bodystreet,Prenzlauer Allee 88,,,,POINT (13.4279151 52.544999),52.544999,13.4279151,301,Pankow
10056214905,11003003,Arcoverde Pilates Zentrum,Cantianstraße 11,10437,+49 30 40301875,,POINT (13.4111529 52.544723),52.544723,13.4111529,301,Pankow
10100682968,11003003,Marion Röhrig Pilates,Heinrich-Roller-Straße 24,10405,,,POINT (13.4215563 52.5313866),52.5313866,13.4215563,301,Pankow
10100813297,11003003,Pantarei Approach,Winsstraße 60,10405,,,POINT (13.4247709 52.5335247),52.5335247,13.4247709,301,Pankow
10121509310,11007007,Twenty Minutes Fitness Lounge,Stubenrauchstraße 1,12161,,,POINT (13.3279458 52.4690894),52.4690894,13.3279458,702,Tempelhof-Schöneberg
10124188468,11006006,Indiv Sports,Schützenstraße 16,,+4915224261916,,POINT (13.3223719 52.4532489),52.4532489,13.3223719,601,Steglitz-Zehlendorf
10131167926,11007007,Crunch Fit Studio Berlin-Schöneberg,Bessemerstrasse 57-75,12103,+49 30 586 155 690,,POINT (13.3674509 52.462578),52.462578,13.3674509,701,Tempelhof-Schöneberg
10162590418,11007007,Little Yoga Store,Goltzstraße,10781,,,POINT (13.353034 52.4907384),52.4907384,13.353034,701,Tempelhof-Schöneberg
10248360663,11004004,stromtown,,,,,POINT (13.3266094 52.4978481),52.4978481,13.3266094,402,Charlottenburg-Wilmersdorf
10282680110,11001001,Beat81,Dircksenstraße 99,10178,,,POINT (13.415099 52.5187846),52.5187846,13.415099,101,Mitte
10293894600,11001001,Getimpulse,Heidestraße 12,,,,POINT (13.3680776 52.531081),52.531081,13.3680776,102,Mitte
10314370066,11012012,Hatha-Yoga,Ludolfingerplatz 5,13465,,,POINT (13.2884156 52.6317384),52.6317384,13.2884156,1205,Reinickendorf
10314570434,11007007,Die Schönebergerin,Grunewaldstraße 86,10823,,,POINT (13.3559651 52.4900692),52.4900692,13.3559651,701,Tempelhof-Schöneberg
10594955331,11004004,Classic Crossfit,Mecklenburgische Straße 24a,14197,,,POINT (13.3102202 52.4794998),52.4794998,13.3102202,403,Charlottenburg-Wilmersdorf
10609414411,11003003,Fitbox,,,,,POINT (13.4129051 52.5472139),52.5472139,13.4129051,301,Pankow
10648363519,11004004,Warias Kosmetik & Yoga,,,,,POINT (13.2963353 52.5057198),52.5057198,13.2963353,401,Charlottenburg-Wilmersdorf
10675679016,11011011,Crunch Fit,Weißenseer Weg 112,10369,,,POINT (13.4787593 52.5268844),52.5268844,13.4787593,1111,Lichtenberg
10702130505,11011011,VitalInn,,,,,POINT (13.4876781 52.5384092),52.5384092,13.4876781,1110,Lichtenberg
10727283773,11009009,Vibra Fitness Lounge,,,,,POINT (13.623723 52.4469431),52.4469431,13.623723,911,Treptow-Köpenick
10780033147,11004004,Feldenkrais & QiGong,,,+49 172 3824268,,POINT (13.3115118 52.5084656),52.5084656,13.3115118,401,Charlottenburg-Wilmersdorf
10784895518,11001001,Beyond Reformer,,,,,POINT (13.3984802 52.5328415),52.5328415,13.3984802,101,Mitte
10788867287,11006006,Krav Maga Berlin Headquarters,Bergstraße 93,12169,,,POINT (13.3274238 52.4585685),52.4585685,13.3274238,601,Steglitz-Zehlendorf
10792875944,11004004,Fitness Unlimited,Uhlandstraße 194,10623,,,POINT (13.326358 52.5069366),52.5069366,13.326358,401,Charlottenburg-Wilmersdorf
10797454234,11006006,Bodystreet,,,,,POINT (13.3160563 52.4538251),52.4538251,13.3160563,601,Steglitz-Zehlendorf
10802968151,11003003,yogibar,,,,,POINT (13.4306675 52.5311208),52.5311208,13.4306675,301,Pankow
10804733989,11011011,FitX,Otto-Schmirgal-Straße 7,10319,,,POINT (13.5221442 52.4976583),52.4976583,13.5221442,1101,Lichtenberg
10881753305,11007007,FitX,Wilhelm-Kabus-Straße 77,10829,+49 30 78951767,,POINT (13.3646654 52.4781146),52.4781146,13.3646654,701,Tempelhof-Schöneberg
10909471605,11010010,Sportstudio,,,,,POINT (13.5585447 52.5305105),52.5305105,13.5585447,1002,Marzahn-Hellersdorf
10936515611,11001001,Yogaschule Petersen,Dortmunder Straße 6,10555,+49 30 39905483,yogapetersen@web.de,POINT (13.3367913 52.5218757),52.5218757,13.3367913,102,Mitte
10973845906,11001001,BMVg Sportcontainer,,,,,POINT (13.3610272 52.5085275),52.5085275,13.3610272,104,Mitte
10978245699,11010010,Clever fit,,,,,POINT (13.6020198 52.4828083),52.4828083,13.6020198,1004,Marzahn-Hellersdorf
10978245702,11010010,Unknown Gym,,,,,POINT (13.6023922 52.4833807),52.4833807,13.6023922,1004,Marzahn-Hellersdorf
11010271941,11003003,Clever fit,Walter-Friedrich-Straße 1,13125,+49 30 94399727,studio@berlin-buch.clever-fit.com,POINT (13.4966691 52.6340691),52.6340691,13.4966691,309,Pankow
11014339720,11001001,HIT BLN,Ackerstraße 155,,,,POINT (13.396507 52.5310799),52.5310799,13.396507,101,Mitte
11026581858,11003003,Studio 108,,,,,POINT (13.3983889 52.5673491),52.5673491,13.3983889,307,Pankow
11046023605,11011011,BLN Athletics,,,,,POINT (13.4816451 52.5142111),52.5142111,13.4816451,1103,Lichtenberg
11061882780,11012012,B-touched Yoga by Bianca,Königsbacher Zeile 23,13465,+49 (0)176 387 475 34,,POINT (13.295109 52.6402199),52.6402199,13.295109,1205,Reinickendorf
11107054359,11003003,EVOPE Performance Center,Storkower Straße 105,10407,,,POINT (13.4507477 52.5365531),52.5365531,13.4507477,301,Pankow
11109294278,11001001,Sensing Yoga,,,,,POINT (13.3611178 52.5509589),52.5509589,13.3611178,105,Mitte
11143206743,11009009,Nature Womb,Eppenbrunner Weg 30,12559,,,POINT (13.6509908 52.4069695),52.4069695,13.6509908,914,Treptow-Köpenick
11181712344,11001001,Yogatribe,Große Hamburger Straße 19A,,+493028883688,mail@yogatribe.de,POINT (13.3991704 52.5244747),52.5244747,13.3991704,101,Mitte
11201598334,11003003,John Reed Bötzow,Saarbrücker Straße 4,10405,,,POINT (13.4161686 52.5296219),52.5296219,13.4161686,301,Pankow
11211952137,11003003,Mrs. Sporty,Rodenbergstraße 35,10439,32591933;017643499561,,POINT (13.4189229 52.5503767),52.5503767,13.4189229,301,Pankow
11227904749,11001001,Holmes Place,,,,,POINT (13.3752868 52.5054645),52.5054645,13.3752868,104,Mitte
11291360614,11004004,Abnehmen Im Liegen,,,,,POINT (13.3113031 52.5162056),52.5162056,13.3113031,401,Charlottenburg-Wilmersdorf
11350686359,11004004,House of Healing,Englische Straße 21,10587,+49 173 698 2729,namaste@houseofhealingberlin.com,POINT (13.332008 52.5165806),52.5165806,13.332008,401,Charlottenburg-Wilmersdorf
11433071264,11003003,Fitbox,,,,,POINT (13.410098 52.5666674),52.5666674,13.410098,307,Pankow
11506333461,11001001,Shapesty,Aaron-Bernstein-Platz 3,10117,,,POINT (13.3905026 52.5250199),52.5250199,13.3905026,101,Mitte
11580611771,11003003,Berliner Pilates,Schliemannstraße 34,10437,,,POINT (13.4195372 52.5437298),52.5437298,13.4195372,301,Pankow
11607821257,11001001,Champions Fight-Gym,,,,,POINT (13.3782384 52.5421334),52.5421334,13.3782384,106,Mitte
11613447903,11008008,Pilates Studio,,,,,POINT (13.4213217 52.4773912),52.4773912,13.4213217,801,Neukölln
11635521514,11007007,deen,Rheinstraße 45-46,12161,,,POINT (13.3305268 52.4665189),52.4665189,13.3305268,702,Tempelhof-Schöneberg
11649758184,11002002,Every Damn Day Yoga,,,,,POINT (13.4620033 52.5055523),52.5055523,13.4620033,201,Friedrichshain-Kreuzberg
11662711559,11001001,Beat81,Rosa-Luxemburg-Straße 17,,,,POINT (13.4102616 52.5250992),52.5250992,13.4102616,101,Mitte
11668641549,11003003,Astānga Yoga,,,,,POINT (13.4145278 52.5301373),52.5301373,13.4145278,301,Pankow
11745362202,11004004,Casa Flow Studios,,,,,POINT (13.313386 52.5042907),52.5042907,13.313386,401,Charlottenburg-Wilmersdorf
11772015162,11008008,Unknown Gym,,,,,POINT (13.4255688 52.4739737),52.4739737,13.4255688,801,Neukölln
11777929542,11009009,Fitnesspoint BSM 07 e.V.,,,,,POINT (13.5699096 52.442082),52.442082,13.5699096,910,Treptow-Köpenick
11809565378,11009009,EMS-Lounge Berlin-Köpenick,,,,,POINT (13.575453 52.4447344),52.4447344,13.575453,910,Treptow-Köpenick
11819554609,11001001,Club Athleten,Gormannstraße 19A,,,,POINT (13.4051593 52.5289783),52.5289783,13.4051593,101,Mitte
11968290978,11002002,Hale Now,,,,,POINT (13.4641108 52.5097635),52.5097635,13.4641108,201,Friedrichshain-Kreuzberg
11986723745,11003003,JOHN REED Fitness,,,,,POINT (13.4548801 52.5279751),52.5279751,13.4548801,301,Pankow
12022132930,11003003,Mrs. Sporty,,,,,POINT (13.4887731 52.6172316),52.6172316,13.4887731,305,Pankow
12037528490,11004004,Junia Keitel Private Fitness & Health,,,,,POINT (13.2975313 52.5017687),52.5017687,13.2975313,401,Charlottenburg-Wilmersdorf
12040833981,11006006,Win Club CrossFit,,,+49 176 56865295,info@website.com,POINT (13.3261574 52.4542309),52.4542309,13.3261574,601,Steglitz-Zehlendorf
12054497889,11002002,Saccinanda Yoga,,,,,POINT (13.4660189 52.5118274),52.5118274,13.4660189,201,Friedrichshain-Kreuzberg
12061024993,11002002,Ashtanga Yoga Friedrichshain,,,,,POINT (13.4717572 52.5174967),52.5174967,13.4717572,201,Friedrichshain-Kreuzberg
12077318269,11002002,Urban Gladiators,Wilhelmstraße 14,10963,,,POINT (13.3884688 52.5021909),52.5021909,13.3884688,202,Friedrichshain-Kreuzberg
12081380958,11001001,Abityoga,Alt-Moabit 104,10559,,,POINT (13.3477956 52.5246353),52.5246353,13.3477956,102,Mitte
12100384382,11009009,Clever fit,,,,,POINT (13.5281634 52.4053605),52.4053605,13.5281634,906,Treptow-Köpenick
12109977752,11001001,Beat81,Brunnenstraße 10,10119,,,POINT (13.400813 52.5313967),52.5313967,13.400813,101,Mitte
12118950894,11002002,Yoga School Berlin,Hasenheide 8,,,,POINT (13.4224539 52.4875465),52.4875465,13.4224539,202,Friedrichshain-Kreuzberg
12121758700,11002002,Beat81,Zeughofstraße 20,10997,,,POINT (13.4333749 52.5001293),52.5001293,13.4333749,202,Friedrichshain-Kreuzberg
12135555860,11008008,Sports Time,,,,,POINT (13.4020443 52.4136446),52.4136446,13.4020443,803,Neukölln
12137673016,11002002,Beat81,Graefestraße 71,10967,,,POINT (13.4172189 52.4918439),52.4918439,13.4172189,202,Friedrichshain-Kreuzberg
12143828853,11002002,Beat81,Paul-Lincke-Ufer 19,10999,,,POINT (13.4302164 52.4936182),52.4936182,13.4302164,202,Friedrichshain-Kreuzberg
12151358598,11003003,Beat81,Christburger Straße 13,10405,,,POINT (13.4278622 52.5352302),52.5352302,13.4278622,301,Pankow
12151379486,11003003,Beat81,Knaackstraße 87,10435,,,POINT (13.4147763 52.5386584),52.5386584,13.4147763,301,Pankow
12151406837,11003003,Beat81,Schönhauser Allee 124,10437,,,POINT (13.4129289 52.5475092),52.5475092,13.4129289,301,Pankow
12153282425,11004004,Fitbox,,,,,POINT (13.3135007 52.5021498),52.5021498,13.3135007,401,Charlottenburg-Wilmersdorf
12160358671,11001001,Beyond,Brunnenstraße 173,,+49 30 28035570,,POINT (13.3985301 52.5328448),52.5328448,13.3985301,101,Mitte
12171125220,11010010,Yoga & Friends,Hultschiner Damm 38,12623,+49 151 56103241,yogaandfriends.mahlsdorf@gmail.com,POINT (13.6013425 52.4780892),52.4780892,13.6013425,1004,Marzahn-Hellersdorf
12174795144,11002002,Beat81,Boxhagener Straße 77,10245,,,POINT (13.4695869 52.5078332),52.5078332,13.4695869,201,Friedrichshain-Kreuzberg
12180080938,11003003,yogalila,,,,,POINT (13.4216494 52.5381705),52.5381705,13.4216494,301,Pankow
12180104519,11003003,Boaré,,,,,POINT (13.4222244 52.5382095),52.5382095,13.4222244,301,Pankow
12183361380,11002002,energia,,,,,POINT (13.4587825 52.5117348),52.5117348,13.4587825,201,Friedrichshain-Kreuzberg
12203546736,11008008,Flow Motion Studio Neukölln,Glasower Straße 60,12051,+491631985606,,POINT (13.4404813 52.4646942),52.4646942,13.4404813,801,Neukölln
12261125503,11009009,Yoga Bär Studio,,,,,POINT (13.5122716 52.4559706),52.4559706,13.5122716,905,Treptow-Köpenick
12285966732,11003003,Apollo Fitness World,,,,,POINT (13.4524314 52.5460194),52.5460194,13.4524314,302,Pankow
12287922533,11001001,Yoga Rebellion,Gartenstraße 6,10115,+49 157 759 852 30,,POINT (13.3925007 52.5297496),52.5297496,13.3925007,101,Mitte
12329220489,11003003,Kalaa Yoga Berlin,Lychener Straße 47,,03021461529,,POINT (13.4179605 52.5442828),52.5442828,13.4179605,301,Pankow
12367443606,11001001,Aura Berlin Studio,,,,,POINT (13.3423099 52.5050261),52.5050261,13.3423099,104,Mitte
12376124453,11001001,Brooklyn Fitboxing,Stromstraße 57,,,,POINT (13.3429972 52.5277006),52.5277006,13.3429972,102,Mitte
12430038866,11002002,Spree,,,,,POINT (13.4507511 52.5036823),52.5036823,13.4507511,201,Friedrichshain-Kreuzberg
12456266757,11009009,Spreerelex,,,,,POINT (13.6090544 52.448502),52.448502,13.6090544,911,Treptow-Köpenick
12519378569,11004004,WD Space,,,,,POINT (13.2971004 52.5335768),52.5335768,13.2971004,406,Charlottenburg-Wilmersdorf
12556828335,11007007,Die Yogapraxis,Crellestraße 22,10827,+49 151 44930425,,POINT (13.3621517 52.4879664),52.4879664,13.3621517,701,Tempelhof-Schöneberg
12622719646,11002002,Klub McFit,,,,,POINT (13.4549117 52.5138996),52.5138996,13.4549117,201,Friedrichshain-Kreuzberg
12630500002,11007007,O-Yoga,,,,,POINT (13.3553739 52.4934119),52.4934119,13.3553739,701,Tempelhof-Schöneberg
12637232303,11003003,Reha-Sport & Gesundheitstraining,,,,,POINT (13.4590803 52.5603629),52.5603629,13.4590803,302,Pankow
12653267594,11003003,soonsu,,,,,POINT (13.4272654 52.5370799),52.5370799,13.4272654,301,Pankow
12712890928,11006006,OMNI Yoga,Bergstraße 92,12169,,,POINT (13.3277669 52.4583235),52.4583235,13.3277669,601,Steglitz-Zehlendorf
12752614827,11001001,AURUM Training,,,,,POINT (13.3864509 52.5235568),52.5235568,13.3864509,101,Mitte
12778956686,11003003,Lifted,,,,,POINT (13.4126207 52.5422291),52.5422291,13.4126207,301,Pankow
12799947701,11001001,Campusfit - HU GYM,Hannoversche Straße 25,10115,+49 30 209346111,,POINT (13.384476 52.5262331),52.5262331,13.384476,101,Mitte
12839348801,11012012,Dawgz Life Muay Thai,Flohrstraße 26,13507,,,POINT (13.3020763 52.57422),52.57422,13.3020763,1202,Reinickendorf
12856418771,11004004,Mrs. Sporty,Weimarer Straße 32,10625,+493035125042,,POINT (13.3114821 52.5083732),52.5083732,13.3114821,401,Charlottenburg-Wilmersdorf
12863105019,11001001,Spitfire,Müllerstraße 46,13349,,info@spitfire.berlin,POINT (13.3510675 52.5522858),52.5522858,13.3510675,105,Mitte
12879156506,11001001,Basic Fit,,,,,POINT (13.3667652 52.5446515),52.5446515,13.3667652,105,Mitte
12957121256,11002002,QP Fitness,Oranienstraße 163,10969,,,POINT (13.414019 52.5023465),52.5023465,13.414019,202,Friedrichshain-Kreuzberg
12964220599,11006006,FitBox,,,,,POINT (13.3352619 52.4516702),52.4516702,13.3352619,601,Steglitz-Zehlendorf
13009510401,11002002,Motions Gleisdreieck,36,10963,,,POINT (13.3750353 52.5006633),52.5006633,13.3750353,202,Friedrichshain-Kreuzberg
13141288538,11001001,Casa Flow,Chausseestraße 13,,,,POINT (13.3855839 52.5291118),52.5291118,13.3855839,101,Mitte
13192187878,11001001,Sky & Spa,Ella-Trebe-Straße 5,,,,POINT (13.367996 52.5234091),52.5234091,13.367996,102,Mitte
27180861,11011011,Holmes Place,,,,,POINT (13.4735483 52.50458),52.50458,13.4735483,1112,Lichtenberg
30094565,11006006,INJOY,Kamenzer Damm 30,12249,,,POINT (13.3558657 52.4332479),52.4332479,13.3558657,603,Steglitz-Zehlendorf
42599524,11009009,FHC,,,,,POINT (13.5539873 52.4553556),52.4553556,13.5539873,909,Treptow-Köpenick
50013591,11007007,Dynamic Fitness World,,,+49307456041,,POINT (13.4133349 52.4014932),52.4014932,13.4133349,706,Tempelhof-Schöneberg
57821563,11005005,Spannkraft,Wilhelmstraße 23,13593,,,POINT (13.1867457 52.5207524),52.5207524,13.1867457,509,Spandau
60840562,11003003,New Evolution,Elisabeth-Christinen-Straße 27,13156,,,POINT (13.4196374 52.5844805),52.5844805,13.4196374,311,Pankow
68808849,11003003,Argo Athletics,,,,,POINT (13.4098556 52.5646845),52.5646845,13.4098556,307,Pankow
77691452,11004004,Sportclub Grunewald,,,,,POINT (13.2774599 52.4907289),52.4907289,13.2774599,404,Charlottenburg-Wilmersdorf
92317565,11010010,Fitness Inform,,,,,POINT (13.5669709 52.5481402),52.5481402,13.5669709,1001,Marzahn-Hellersdorf
101417144,11010010,Die Bewegungsebene,Alt-Kaulsdorf 18,12621,+49 30 48638959,info@die-bewegungsebene.de,POINT (13.5821677 52.5046976),52.5046976,13.5821677,1003,Marzahn-Hellersdorf
110665978,11008008,McFit,,,,,POINT (13.4354592 52.4518469),52.4518469,13.4354592,802,Neukölln
113373796,11012012,formwerk,Hermsdorfer Damm 182,13467,+49 30 488 20 759,info@form-werk.de,POINT (13.3047612 52.6197083),52.6197083,13.3047612,1206,Reinickendorf
155466370,11006006,fourty fit healthclub,Gardeschützenweg 57,12203,,,POINT (13.3083434 52.4470269),52.4470269,13.3083434,602,Steglitz-Zehlendorf
161236100,11003003,JOHN REED Fitness,Prenzlauer Allee 248-251,10405,,,POINT (13.4162947 52.5282784),52.5282784,13.4162947,301,Pankow
251630438,11003003,McFit,"Romain-Rolland-Straße 30, 32",13089,,,POINT (13.4440376 52.5655627),52.5655627,13.4440376,304,Pankow
303606476,11003003,Fitness Galerie Karow,,,+49 30 9413149,,POINT (13.4738345 52.6181769),52.6181769,13.4738345,305,Pankow
471110880,11009009,Rialtoring 74,Rialtoring 74,12589,+49 15772021348,,POINT (13.704439 52.4268207),52.4268207,13.704439,912,Treptow-Köpenick
699440074,11010010,Elixia,Heidenauer Straße 26,12627,,,POINT (13.607399 52.5353988),52.5353988,13.607399,1005,Marzahn-Hellersdorf
1012101364,11005005,Gold's Gym Fitnessstudio,Paulsternstraße 22,13629,,,POINT (13.2491023 52.5411853),52.5411853,13.2491023,503,Spandau
1413458990,11004004,Spirit Joga,Goethestraße 2-3,10623,,,POINT (13.3236498 52.5089222),52.5089222,13.3236498,401,Charlottenburg-Wilmersdorf
1427539730,11005005,Unknown Gym,,,,,POINT (13.1588278 52.5299466),52.5299466,13.1588278,504,Spandau
332593,11010010,Pyramide Fitness World,Alte Rhinstraße 16,12681,+49 30 54986401,,POINT (13.5195225 52.5332187),52.5332187,13.5195225,1001,Marzahn-Hellersdorf
